<?xml version="1.0" encoding="UTF-8"?>
<seiscomp xmlns="http://geofon.gfz-potsdam.de/ns/seiscomp3-schema/0.10" version="0.10">
  <EventParameters>
    <pick publicID="20200101.020028.57-AIC-CM.TAPM.00.HHE">
      <time>
        <value>2020-01-01T02:00:28.570000Z</value>
      </time>
      <waveformID networkCode="CM" stationCode="TAPM" locationCode="00" channelCode="HHE"/>
      <filterID>BW(4,1.00,10.00)</filterID>
      <methodID>AIC</methodID>
      <phaseHint>P</phaseHint>
      <evaluationMode>automatic</evaluationMode>
      <creationInfo>
        <agencyID>SGC2</agencyID>
        <author>PhaseNet</author>
        <creationTime>2020-08-06T16:43:41.940917Z</creationTime>
      </creationInfo>
    </pick>
    <pick publicID="20200101.020039.85-AIC-CM.TAPM.00.HHE">
      <time>
        <value>2020-01-01T02:00:39.850000Z</value>
      </time>
      <waveformID networkCode="CM" stationCode="TAPM" locationCode="00" channelCode="HHE"/>
      <filterID>BW(4,1.00,10.00)</filterID>
      <methodID>AIC</methodID>
      <phaseHint>P</phaseHint>
      <evaluationMode>automatic</evaluationMode>
      <creationInfo>
        <agencyID>SGC2</agencyID>
        <author>PhaseNet</author>
        <creationTime>2020-08-06T16:43:41.941519Z</creationTime>
      </creationInfo>
    </pick>
    <pick publicID="20200101.020052.65-AIC-CM.TAPM.00.HHE">
      <time>
        <value>2020-01-01T02:00:52.650000Z</value>
      </time>
      <waveformID networkCode="CM" stationCode="TAPM" locationCode="00" channelCode="HHE"/>
      <filterID>BW(4,1.00,10.00)</filterID>
      <methodID>AIC</methodID>
      <phaseHint>P</phaseHint>
      <evaluationMode>automatic</evaluationMode>
      <creationInfo>
        <agencyID>SGC2</agencyID>
        <author>PhaseNet</author>
        <creationTime>2020-08-06T16:43:41.941749Z</creationTime>
      </creationInfo>
    </pick>
    <pick publicID="20200101.020041.80-S-L2-CM.TAPM.00.HHE">
      <time>
        <value>2020-01-01T02:00:41.800000Z</value>
      </time>
      <waveformID networkCode="CM" stationCode="TAPM" locationCode="00" channelCode="HHE"/>
      <filterID>BW(4,1.00,10.00)</filterID>
      <methodID>L2-AIC</methodID>
      <phaseHint>S</phaseHint>
      <evaluationMode>automatic</evaluationMode>
      <creationInfo>
        <agencyID>SGC2</agencyID>
        <author>PhaseNet</author>
        <creationTime>2020-08-06T16:43:41.941972Z</creationTime>
      </creationInfo>
      <comment>
        <text>20200101.020052.65-AIC-CM.TAPM.00.HHE</text>
        <id>RefPickID</id>
      </comment>
    </pick>
    <pick publicID="20200101.020025.56-AIC-CM.MACC.00.HHE">
      <time>
        <value>2020-01-01T02:00:25.560000Z</value>
      </time>
      <waveformID networkCode="CM" stationCode="MACC" locationCode="00" channelCode="HHE"/>
      <filterID>BW(4,1.00,10.00)</filterID>
      <methodID>AIC</methodID>
      <phaseHint>P</phaseHint>
      <evaluationMode>automatic</evaluationMode>
      <creationInfo>
        <agencyID>SGC2</agencyID>
        <author>PhaseNet</author>
        <creationTime>2020-08-06T16:43:41.942362Z</creationTime>
      </creationInfo>
    </pick>
    <pick publicID="20200101.020047.76-AIC-CM.PRA.00.HHE">
      <time>
        <value>2020-01-01T02:00:47.760000Z</value>
      </time>
      <waveformID networkCode="CM" stationCode="PRA" locationCode="00" channelCode="HHE"/>
      <filterID>BW(4,1.00,10.00)</filterID>
      <methodID>AIC</methodID>
      <phaseHint>P</phaseHint>
      <evaluationMode>automatic</evaluationMode>
      <creationInfo>
        <agencyID>SGC2</agencyID>
        <author>PhaseNet</author>
        <creationTime>2020-08-06T16:43:41.942727Z</creationTime>
      </creationInfo>
    </pick>
    <pick publicID="20200101.020312.23-AIC-CM.TAPM.00.HHE">
      <time>
        <value>2020-01-01T02:03:12.230000Z</value>
      </time>
      <waveformID networkCode="CM" stationCode="TAPM" locationCode="00" channelCode="HHE"/>
      <filterID>BW(4,1.00,10.00)</filterID>
      <methodID>AIC</methodID>
      <phaseHint>P</phaseHint>
      <evaluationMode>automatic</evaluationMode>
      <creationInfo>
        <agencyID>SGC2</agencyID>
        <author>PhaseNet</author>
        <creationTime>2020-08-06T16:43:41.943555Z</creationTime>
      </creationInfo>
    </pick>
    <pick publicID="20200101.020332.45-AIC-CM.TAPM.00.HHE">
      <time>
        <value>2020-01-01T02:03:32.450000Z</value>
      </time>
      <waveformID networkCode="CM" stationCode="TAPM" locationCode="00" channelCode="HHE"/>
      <filterID>BW(4,1.00,10.00)</filterID>
      <methodID>AIC</methodID>
      <phaseHint>P</phaseHint>
      <evaluationMode>automatic</evaluationMode>
      <creationInfo>
        <agencyID>SGC2</agencyID>
        <author>PhaseNet</author>
        <creationTime>2020-08-06T16:43:41.943900Z</creationTime>
      </creationInfo>
    </pick>
    <pick publicID="20200101.020344.73-AIC-CM.PIRM.00.HHE">
      <time>
        <value>2020-01-01T02:03:44.730000Z</value>
      </time>
      <waveformID networkCode="CM" stationCode="PIRM" locationCode="00" channelCode="HHE"/>
      <filterID>BW(4,1.00,10.00)</filterID>
      <methodID>AIC</methodID>
      <phaseHint>P</phaseHint>
      <evaluationMode>automatic</evaluationMode>
      <creationInfo>
        <agencyID>SGC2</agencyID>
        <author>PhaseNet</author>
        <creationTime>2020-08-06T16:43:41.944357Z</creationTime>
      </creationInfo>
    </pick>
    <pick publicID="20200101.020345.33-S-L2-CM.PIRM.00.HHE">
      <time>
        <value>2020-01-01T02:03:45.330000Z</value>
      </time>
      <waveformID networkCode="CM" stationCode="PIRM" locationCode="00" channelCode="HHE"/>
      <filterID>BW(4,1.00,10.00)</filterID>
      <methodID>L2-AIC</methodID>
      <phaseHint>S</phaseHint>
      <evaluationMode>automatic</evaluationMode>
      <creationInfo>
        <agencyID>SGC2</agencyID>
        <author>PhaseNet</author>
        <creationTime>2020-08-06T16:43:41.944496Z</creationTime>
      </creationInfo>
      <comment>
        <text>20200101.020344.73-AIC-CM.PIRM.00.HHE</text>
        <id>RefPickID</id>
      </comment>
    </pick>
    <pick publicID="20200101.020424.77-AIC-CM.PIRM.00.HHE">
      <time>
        <value>2020-01-01T02:04:24.770000Z</value>
      </time>
      <waveformID networkCode="CM" stationCode="PIRM" locationCode="00" channelCode="HHE"/>
      <filterID>BW(4,1.00,10.00)</filterID>
      <methodID>AIC</methodID>
      <phaseHint>P</phaseHint>
      <evaluationMode>automatic</evaluationMode>
      <creationInfo>
        <agencyID>SGC2</agencyID>
        <author>PhaseNet</author>
        <creationTime>2020-08-06T16:43:41.945008Z</creationTime>
      </creationInfo>
    </pick>
    <pick publicID="20200101.020455.19-AIC-CM.URMC.00.HHE">
      <time>
        <value>2020-01-01T02:04:55.190000Z</value>
      </time>
      <waveformID networkCode="CM" stationCode="URMC" locationCode="00" channelCode="HHE"/>
      <filterID>BW(4,1.00,10.00)</filterID>
      <methodID>AIC</methodID>
      <phaseHint>P</phaseHint>
      <evaluationMode>automatic</evaluationMode>
      <creationInfo>
        <agencyID>SGC2</agencyID>
        <author>PhaseNet</author>
        <creationTime>2020-08-06T16:43:41.945203Z</creationTime>
      </creationInfo>
    </pick>
    <pick publicID="20200101.020559.27-AIC-CM.URMC.00.HHE">
      <time>
        <value>2020-01-01T02:05:59.270000Z</value>
      </time>
      <waveformID networkCode="CM" stationCode="URMC" locationCode="00" channelCode="HHE"/>
      <filterID>BW(4,1.00,10.00)</filterID>
      <methodID>AIC</methodID>
      <phaseHint>P</phaseHint>
      <evaluationMode>automatic</evaluationMode>
      <creationInfo>
        <agencyID>SGC2</agencyID>
        <author>PhaseNet</author>
        <creationTime>2020-08-06T16:43:41.945744Z</creationTime>
      </creationInfo>
    </pick>
    <pick publicID="20200101.020550.19-AIC-CM.TAPM.00.HHE">
      <time>
        <value>2020-01-01T02:05:50.190000Z</value>
      </time>
      <waveformID networkCode="CM" stationCode="TAPM" locationCode="00" channelCode="HHE"/>
      <filterID>BW(4,1.00,10.00)</filterID>
      <methodID>AIC</methodID>
      <phaseHint>P</phaseHint>
      <evaluationMode>automatic</evaluationMode>
      <creationInfo>
        <agencyID>SGC2</agencyID>
        <author>PhaseNet</author>
        <creationTime>2020-08-06T16:43:41.945954Z</creationTime>
      </creationInfo>
    </pick>
    <pick publicID="20200101.020214.59-AIC-CM.MACC.00.HHE">
      <time>
        <value>2020-01-01T02:02:14.590000Z</value>
      </time>
      <waveformID networkCode="CM" stationCode="MACC" locationCode="00" channelCode="HHE"/>
      <filterID>BW(4,1.00,10.00)</filterID>
      <methodID>AIC</methodID>
      <phaseHint>P</phaseHint>
      <evaluationMode>automatic</evaluationMode>
      <creationInfo>
        <agencyID>SGC2</agencyID>
        <author>PhaseNet</author>
        <creationTime>2020-08-06T16:43:41.946159Z</creationTime>
      </creationInfo>
    </pick>
    <pick publicID="20200101.020217.04-S-L2-CM.MACC.00.HHE">
      <time>
        <value>2020-01-01T02:02:17.040000Z</value>
      </time>
      <waveformID networkCode="CM" stationCode="MACC" locationCode="00" channelCode="HHE"/>
      <filterID>BW(4,1.00,10.00)</filterID>
      <methodID>L2-AIC</methodID>
      <phaseHint>S</phaseHint>
      <evaluationMode>automatic</evaluationMode>
      <creationInfo>
        <agencyID>SGC2</agencyID>
        <author>PhaseNet</author>
        <creationTime>2020-08-06T16:43:41.946314Z</creationTime>
      </creationInfo>
      <comment>
        <text>20200101.020214.59-AIC-CM.MACC.00.HHE</text>
        <id>RefPickID</id>
      </comment>
    </pick>
    <pick publicID="20200101.020647.85-S-L2-CM.URMC.00.HHE">
      <time>
        <value>2020-01-01T02:06:47.850000Z</value>
      </time>
      <waveformID networkCode="CM" stationCode="URMC" locationCode="00" channelCode="HHE"/>
      <filterID>BW(4,1.00,10.00)</filterID>
      <methodID>L2-AIC</methodID>
      <phaseHint>S</phaseHint>
      <evaluationMode>automatic</evaluationMode>
      <creationInfo>
        <agencyID>SGC2</agencyID>
        <author>PhaseNet</author>
        <creationTime>2020-08-06T16:43:41.946825Z</creationTime>
      </creationInfo>
      <comment>
        <text>20200101.020559.27-AIC-CM.URMC.00.HHE</text>
        <id>RefPickID</id>
      </comment>
    </pick>
    <pick publicID="20200101.020713.39-AIC-CM.TAPM.00.HHE">
      <time>
        <value>2020-01-01T02:07:13.390000Z</value>
      </time>
      <waveformID networkCode="CM" stationCode="TAPM" locationCode="00" channelCode="HHE"/>
      <filterID>BW(4,1.00,10.00)</filterID>
      <methodID>AIC</methodID>
      <phaseHint>P</phaseHint>
      <evaluationMode>automatic</evaluationMode>
      <creationInfo>
        <agencyID>SGC2</agencyID>
        <author>PhaseNet</author>
        <creationTime>2020-08-06T16:43:41.947364Z</creationTime>
      </creationInfo>
    </pick>
    <pick publicID="20200101.020701.89-S-L2-CM.TAPM.00.HHE">
      <time>
        <value>2020-01-01T02:07:01.890000Z</value>
      </time>
      <waveformID networkCode="CM" stationCode="TAPM" locationCode="00" channelCode="HHE"/>
      <filterID>BW(4,1.00,10.00)</filterID>
      <methodID>L2-AIC</methodID>
      <phaseHint>S</phaseHint>
      <evaluationMode>automatic</evaluationMode>
      <creationInfo>
        <agencyID>SGC2</agencyID>
        <author>PhaseNet</author>
        <creationTime>2020-08-06T16:43:41.947509Z</creationTime>
      </creationInfo>
      <comment>
        <text>20200101.020713.39-AIC-CM.TAPM.00.HHE</text>
        <id>RefPickID</id>
      </comment>
    </pick>
    <pick publicID="20200101.020716.76-S-L2-CM.TAPM.00.HHE">
      <time>
        <value>2020-01-01T02:07:16.760000Z</value>
      </time>
      <waveformID networkCode="CM" stationCode="TAPM" locationCode="00" channelCode="HHE"/>
      <filterID>BW(4,1.00,10.00)</filterID>
      <methodID>L2-AIC</methodID>
      <phaseHint>S</phaseHint>
      <evaluationMode>automatic</evaluationMode>
      <creationInfo>
        <agencyID>SGC2</agencyID>
        <author>PhaseNet</author>
        <creationTime>2020-08-06T16:43:41.947657Z</creationTime>
      </creationInfo>
      <comment>
        <text>20200101.020713.39-AIC-CM.TAPM.00.HHE</text>
        <id>RefPickID</id>
      </comment>
    </pick>
    <pick publicID="20200101.020820.33-S-L2-CM.TAPM.00.HHE">
      <time>
        <value>2020-01-01T02:08:20.330000Z</value>
      </time>
      <waveformID networkCode="CM" stationCode="TAPM" locationCode="00" channelCode="HHE"/>
      <filterID>BW(4,1.00,10.00)</filterID>
      <methodID>L2-AIC</methodID>
      <phaseHint>S</phaseHint>
      <evaluationMode>automatic</evaluationMode>
      <creationInfo>
        <agencyID>SGC2</agencyID>
        <author>PhaseNet</author>
        <creationTime>2020-08-06T16:43:41.948084Z</creationTime>
      </creationInfo>
      <comment>
        <text>20200101.020713.39-AIC-CM.TAPM.00.HHE</text>
        <id>RefPickID</id>
      </comment>
    </pick>
    <pick publicID="20200101.020327.34-AIC-CM.MACC.00.HHE">
      <time>
        <value>2020-01-01T02:03:27.340000Z</value>
      </time>
      <waveformID networkCode="CM" stationCode="MACC" locationCode="00" channelCode="HHE"/>
      <filterID>BW(4,1.00,10.00)</filterID>
      <methodID>AIC</methodID>
      <phaseHint>P</phaseHint>
      <evaluationMode>automatic</evaluationMode>
      <creationInfo>
        <agencyID>SGC2</agencyID>
        <author>PhaseNet</author>
        <creationTime>2020-08-06T16:43:41.948342Z</creationTime>
      </creationInfo>
    </pick>
    <pick publicID="20200101.020756.15-AIC-CM.PRA.00.HHE">
      <time>
        <value>2020-01-01T02:07:56.150000Z</value>
      </time>
      <waveformID networkCode="CM" stationCode="PRA" locationCode="00" channelCode="HHE"/>
      <filterID>BW(4,1.00,10.00)</filterID>
      <methodID>AIC</methodID>
      <phaseHint>P</phaseHint>
      <evaluationMode>automatic</evaluationMode>
      <creationInfo>
        <agencyID>SGC2</agencyID>
        <author>PhaseNet</author>
        <creationTime>2020-08-06T16:43:41.948497Z</creationTime>
      </creationInfo>
    </pick>
    <pick publicID="20200101.020822.52-S-L2-CM.PRA.00.HHE">
      <time>
        <value>2020-01-01T02:08:22.520000Z</value>
      </time>
      <waveformID networkCode="CM" stationCode="PRA" locationCode="00" channelCode="HHE"/>
      <filterID>BW(4,1.00,10.00)</filterID>
      <methodID>L2-AIC</methodID>
      <phaseHint>S</phaseHint>
      <evaluationMode>automatic</evaluationMode>
      <creationInfo>
        <agencyID>SGC2</agencyID>
        <author>PhaseNet</author>
        <creationTime>2020-08-06T16:43:41.948688Z</creationTime>
      </creationInfo>
      <comment>
        <text>20200101.020756.15-AIC-CM.PRA.00.HHE</text>
        <id>RefPickID</id>
      </comment>
    </pick>
    <pick publicID="20200101.020410.48-AIC-CM.MACC.00.HHE">
      <time>
        <value>2020-01-01T02:04:10.480000Z</value>
      </time>
      <waveformID networkCode="CM" stationCode="MACC" locationCode="00" channelCode="HHE"/>
      <filterID>BW(4,1.00,10.00)</filterID>
      <methodID>AIC</methodID>
      <phaseHint>P</phaseHint>
      <evaluationMode>automatic</evaluationMode>
      <creationInfo>
        <agencyID>SGC2</agencyID>
        <author>PhaseNet</author>
        <creationTime>2020-08-06T16:43:41.948815Z</creationTime>
      </creationInfo>
    </pick>
    <pick publicID="20200101.020413.68-S-L2-CM.MACC.00.HHE">
      <time>
        <value>2020-01-01T02:04:13.680000Z</value>
      </time>
      <waveformID networkCode="CM" stationCode="MACC" locationCode="00" channelCode="HHE"/>
      <filterID>BW(4,1.00,10.00)</filterID>
      <methodID>L2-AIC</methodID>
      <phaseHint>S</phaseHint>
      <evaluationMode>automatic</evaluationMode>
      <creationInfo>
        <agencyID>SGC2</agencyID>
        <author>PhaseNet</author>
        <creationTime>2020-08-06T16:43:41.948904Z</creationTime>
      </creationInfo>
      <comment>
        <text>20200101.020410.48-AIC-CM.MACC.00.HHE</text>
        <id>RefPickID</id>
      </comment>
    </pick>
    <pick publicID="20200101.020817.21-S-L2-CM.PIRM.00.HHE">
      <time>
        <value>2020-01-01T02:08:17.210000Z</value>
      </time>
      <waveformID networkCode="CM" stationCode="PIRM" locationCode="00" channelCode="HHE"/>
      <filterID>BW(4,1.00,10.00)</filterID>
      <methodID>L2-AIC</methodID>
      <phaseHint>S</phaseHint>
      <evaluationMode>automatic</evaluationMode>
      <creationInfo>
        <agencyID>SGC2</agencyID>
        <author>PhaseNet</author>
        <creationTime>2020-08-06T16:43:41.949142Z</creationTime>
      </creationInfo>
      <comment>
        <text>20200101.020424.77-AIC-CM.PIRM.00.HHE</text>
        <id>RefPickID</id>
      </comment>
    </pick>
    <pick publicID="20200101.021010.76-AIC-CM.VIL.20.EHE">
      <time>
        <value>2020-01-01T02:10:10.760000Z</value>
      </time>
      <waveformID networkCode="CM" stationCode="VIL" locationCode="20" channelCode="EHE"/>
      <filterID>BW(4,1.00,10.00)</filterID>
      <methodID>AIC</methodID>
      <phaseHint>P</phaseHint>
      <evaluationMode>automatic</evaluationMode>
      <creationInfo>
        <agencyID>SGC2</agencyID>
        <author>PhaseNet</author>
        <creationTime>2020-08-06T16:43:41.949451Z</creationTime>
      </creationInfo>
    </pick>
    <pick publicID="20200101.021041.27-AIC-CM.URMC.00.HHE">
      <time>
        <value>2020-01-01T02:10:41.270000Z</value>
      </time>
      <waveformID networkCode="CM" stationCode="URMC" locationCode="00" channelCode="HHE"/>
      <filterID>BW(4,1.00,10.00)</filterID>
      <methodID>AIC</methodID>
      <phaseHint>P</phaseHint>
      <evaluationMode>automatic</evaluationMode>
      <creationInfo>
        <agencyID>SGC2</agencyID>
        <author>PhaseNet</author>
        <creationTime>2020-08-06T16:43:41.949607Z</creationTime>
      </creationInfo>
    </pick>
    <pick publicID="20200101.021044.54-S-L2-CM.URMC.00.HHE">
      <time>
        <value>2020-01-01T02:10:44.540000Z</value>
      </time>
      <waveformID networkCode="CM" stationCode="URMC" locationCode="00" channelCode="HHE"/>
      <filterID>BW(4,1.00,10.00)</filterID>
      <methodID>L2-AIC</methodID>
      <phaseHint>S</phaseHint>
      <evaluationMode>automatic</evaluationMode>
      <creationInfo>
        <agencyID>SGC2</agencyID>
        <author>PhaseNet</author>
        <creationTime>2020-08-06T16:43:41.949697Z</creationTime>
      </creationInfo>
      <comment>
        <text>20200101.021041.27-AIC-CM.URMC.00.HHE</text>
        <id>RefPickID</id>
      </comment>
    </pick>
    <pick publicID="20200101.020946.21-AIC-CM.TAPM.00.HHE">
      <time>
        <value>2020-01-01T02:09:46.210000Z</value>
      </time>
      <waveformID networkCode="CM" stationCode="TAPM" locationCode="00" channelCode="HHE"/>
      <filterID>BW(4,1.00,10.00)</filterID>
      <methodID>AIC</methodID>
      <phaseHint>P</phaseHint>
      <evaluationMode>automatic</evaluationMode>
      <creationInfo>
        <agencyID>SGC2</agencyID>
        <author>PhaseNet</author>
        <creationTime>2020-08-06T16:43:41.949905Z</creationTime>
      </creationInfo>
    </pick>
    <pick publicID="20200101.020958.13-AIC-CM.TAPM.00.HHE">
      <time>
        <value>2020-01-01T02:09:58.130000Z</value>
      </time>
      <waveformID networkCode="CM" stationCode="TAPM" locationCode="00" channelCode="HHE"/>
      <filterID>BW(4,1.00,10.00)</filterID>
      <methodID>AIC</methodID>
      <phaseHint>P</phaseHint>
      <evaluationMode>automatic</evaluationMode>
      <creationInfo>
        <agencyID>SGC2</agencyID>
        <author>PhaseNet</author>
        <creationTime>2020-08-06T16:43:41.949994Z</creationTime>
      </creationInfo>
    </pick>
    <pick publicID="20200101.020946.75-S-L2-CM.TAPM.00.HHE">
      <time>
        <value>2020-01-01T02:09:46.750000Z</value>
      </time>
