<?xml version="1.0" encoding="UTF-8"?>
<seiscomp xmlns="http://geofon.gfz-potsdam.de/ns/seiscomp3-schema/0.10" version="0.10">
  <EventParameters>
    <pick publicID="20200529.033824.02-AIC-CM.VIL.20.EHZ">
      <time>
        <value>2020-05-29T03:38:24.02Z</value>
      </time>
      <waveformID networkCode="CM" stationCode="VIL" locationCode="20" channelCode="EHZ"/>
      <filterID>BW(4,1.00,10.00)</filterID>
      <methodID>AIC</methodID>
      <phaseHint>P</phaseHint>
      <evaluationMode>automatic</evaluationMode>
      <creationInfo>
        <agencyID>SGC2</agencyID>
        <author>PhaseNet</author>
        <creationTime>2020-06-19T19:04:49.371981Z</creationTime>
      </creationInfo>
    </pick>
    <pick publicID="20200529.033834.76-S-L2-CM.VIL.20.EHZ">
      <time>
        <value>2020-05-29T03:38:34.76Z</value>
      </time>
      <waveformID networkCode="CM" stationCode="VIL" locationCode="20" channelCode="EHZ"/>
      <filterID>BW(4,1.00,10.00)</filterID>
      <methodID>L2-AIC</methodID>
      <phaseHint>S</phaseHint>
      <evaluationMode>automatic</evaluationMode>
      <creationInfo>
        <agencyID>SGC2</agencyID>
        <author>PhaseNet</author>
        <creationTime>2020-06-19T19:04:49.372117Z</creationTime>
      </creationInfo>
      <comment>
        <text>20200529.033824.02-AIC-CM.VIL.20.EHZ</text>
        <id>RefPickID</id>
      </comment>
    </pick>
    <pick publicID="20200529.033835.28-S-L2-CM.VIL.20.EHZ">
      <time>
        <value>2020-05-29T03:38:35.28Z</value>
      </time>
      <waveformID networkCode="CM" stationCode="VIL" locationCode="20" channelCode="EHZ"/>
      <filterID>BW(4,1.00,10.00)</filterID>
      <methodID>L2-AIC</methodID>
      <phaseHint>S</phaseHint>
      <evaluationMode>automatic</evaluationMode>
      <creationInfo>
        <agencyID>SGC2</agencyID>
        <author>PhaseNet</author>
        <creationTime>2020-06-19T19:04:49.372222Z</creationTime>
      </creationInfo>
      <comment>
        <text>20200529.033824.02-AIC-CM.VIL.20.EHZ</text>
        <id>RefPickID</id>
      </comment>
    </pick>
    <pick publicID="20200529.033814.64-AIC-CM.URMC.00.HHZ">
      <time>
        <value>2020-05-29T03:38:14.64Z</value>
      </time>
      <waveformID networkCode="CM" stationCode="URMC" locationCode="00" channelCode="HHZ"/>
      <filterID>BW(4,1.00,10.00)</filterID>
      <methodID>AIC</methodID>
      <phaseHint>P</phaseHint>
      <evaluationMode>automatic</evaluationMode>
      <creationInfo>
        <agencyID>SGC2</agencyID>
        <author>PhaseNet</author>
        <creationTime>2020-06-19T19:04:49.372368Z</creationTime>
      </creationInfo>
    </pick>
    <pick publicID="20200529.033819.11-S-L2-CM.URMC.00.HHZ">
      <time>
        <value>2020-05-29T03:38:19.11Z</value>
      </time>
      <waveformID networkCode="CM" stationCode="URMC" locationCode="00" channelCode="HHZ"/>
      <filterID>BW(4,1.00,10.00)</filterID>
      <methodID>L2-AIC</methodID>
      <phaseHint>S</phaseHint>
      <evaluationMode>automatic</evaluationMode>
      <creationInfo>
        <agencyID>SGC2</agencyID>
        <author>PhaseNet</author>
        <creationTime>2020-06-19T19:04:49.372471Z</creationTime>
      </creationInfo>
      <comment>
        <text>20200529.033814.64-AIC-CM.URMC.00.HHZ</text>
        <id>RefPickID</id>
      </comment>
    </pick>
    <pick publicID="20200529.033831.15-AIC-CM.CHI.00.HHZ">
      <time>
        <value>2020-05-29T03:38:31.15Z</value>
      </time>
      <waveformID networkCode="CM" stationCode="CHI" locationCode="00" channelCode="HHZ"/>
      <filterID>BW(4,1.00,10.00)</filterID>
      <methodID>AIC</methodID>
      <phaseHint>P</phaseHint>
      <evaluationMode>automatic</evaluationMode>
      <creationInfo>
        <agencyID>SGC2</agencyID>
        <author>PhaseNet</author>
        <creationTime>2020-06-19T19:04:49.37261Z</creationTime>
      </creationInfo>
    </pick>
    <pick publicID="20200529.033822.08-AIC-CM.PRA.00.HHZ">
      <time>
        <value>2020-05-29T03:38:22.08Z</value>
      </time>
      <waveformID networkCode="CM" stationCode="PRA" locationCode="00" channelCode="HHZ"/>
      <filterID>BW(4,1.00,10.00)</filterID>
      <methodID>AIC</methodID>
      <phaseHint>P</phaseHint>
      <evaluationMode>automatic</evaluationMode>
      <creationInfo>
        <agencyID>SGC2</agencyID>
        <author>PhaseNet</author>
        <creationTime>2020-06-19T19:04:49.372778Z</creationTime>
      </creationInfo>
    </pick>
    <pick publicID="20200529.033832.37-S-L2-CM.PRA.00.HHZ">
      <time>
        <value>2020-05-29T03:38:32.37Z</value>
      </time>
      <waveformID networkCode="CM" stationCode="PRA" locationCode="00" channelCode="HHZ"/>
      <filterID>BW(4,1.00,10.00)</filterID>
      <methodID>L2-AIC</methodID>
      <phaseHint>S</phaseHint>
      <evaluationMode>automatic</evaluationMode>
      <creationInfo>
        <agencyID>SGC2</agencyID>
        <author>PhaseNet</author>
        <creationTime>2020-06-19T19:04:49.372924Z</creationTime>
      </creationInfo>
      <comment>
        <text>20200529.033822.08-AIC-CM.PRA.00.HHZ</text>
        <id>RefPickID</id>
      </comment>
    </pick>
    <pick publicID="20200529.033833.22-AIC-CM.MACC.00.HHZ">
      <time>
        <value>2020-05-29T03:38:33.22Z</value>
      </time>
      <waveformID networkCode="CM" stationCode="MACC" locationCode="00" channelCode="HHZ"/>
      <filterID>BW(4,1.00,10.00)</filterID>
      <methodID>AIC</methodID>
      <phaseHint>P</phaseHint>
      <evaluationMode>automatic</evaluationMode>
      <creationInfo>
        <agencyID>SGC2</agencyID>
        <author>PhaseNet</author>
        <creationTime>2020-06-19T19:04:49.373063Z</creationTime>
      </creationInfo>
    </pick>
    <pick publicID="20200529.033851.20-S-L2-CM.MACC.00.HHZ">
      <time>
        <value>2020-05-29T03:38:51.2Z</value>
      </time>
      <waveformID networkCode="CM" stationCode="MACC" locationCode="00" channelCode="HHZ"/>
      <filterID>BW(4,1.00,10.00)</filterID>
      <methodID>L2-AIC</methodID>
      <phaseHint>S</phaseHint>
      <evaluationMode>automatic</evaluationMode>
      <creationInfo>
        <agencyID>SGC2</agencyID>
        <author>PhaseNet</author>
        <creationTime>2020-06-19T19:04:49.37317Z</creationTime>
      </creationInfo>
      <comment>
        <text>20200529.033833.22-AIC-CM.MACC.00.HHZ</text>
        <id>RefPickID</id>
      </comment>
    </pick>
    <pick publicID="20200529.033805.17-AIC-CM.BET.20.EHZ">
      <time>
        <value>2020-05-29T03:38:05.17Z</value>
      </time>
      <waveformID networkCode="CM" stationCode="BET" locationCode="20" channelCode="EHZ"/>
      <filterID>BW(4,1.00,10.00)</filterID>
      <methodID>AIC</methodID>
      <phaseHint>P</phaseHint>
      <evaluationMode>automatic</evaluationMode>
      <creationInfo>
        <agencyID>SGC2</agencyID>
        <author>PhaseNet</author>
        <creationTime>2020-06-19T19:04:49.373309Z</creationTime>
      </creationInfo>
    </pick>
    <pick publicID="20200529.033835.46-AIC-CM.BET.20.EHZ">
      <time>
        <value>2020-05-29T03:38:35.46Z</value>
      </time>
      <waveformID networkCode="CM" stationCode="BET" locationCode="20" channelCode="EHZ"/>
      <filterID>BW(4,1.00,10.00)</filterID>
      <methodID>AIC</methodID>
      <phaseHint>P</phaseHint>
      <evaluationMode>automatic</evaluationMode>
      <creationInfo>
        <agencyID>SGC2</agencyID>
        <author>PhaseNet</author>
        <creationTime>2020-06-19T19:04:49.373407Z</creationTime>
      </creationInfo>
    </pick>
    <pick publicID="20200529.033855.28-S-L2-CM.BET.20.EHZ">
      <time>
        <value>2020-05-29T03:38:55.28Z</value>
      </time>
      <waveformID networkCode="CM" stationCode="BET" locationCode="20" channelCode="EHZ"/>
      <filterID>BW(4,1.00,10.00)</filterID>
      <methodID>L2-AIC</methodID>
      <phaseHint>S</phaseHint>
      <evaluationMode>automatic</evaluationMode>
      <creationInfo>
        <agencyID>SGC2</agencyID>
        <author>PhaseNet</author>
        <creationTime>2020-06-19T19:04:49.37351Z</creationTime>
      </creationInfo>
      <comment>
        <text>20200529.033835.46-AIC-CM.BET.20.EHZ</text>
        <id>RefPickID</id>
      </comment>
    </pick>
    <pick publicID="20200529.033812.22-AIC-CM.MARO.00.HHZ">
      <time>
        <value>2020-05-29T03:38:12.22Z</value>
      </time>
      <waveformID networkCode="CM" stationCode="MARO" locationCode="00" channelCode="HHZ"/>
      <filterID>BW(4,1.00,10.00)</filterID>
      <methodID>AIC</methodID>
      <phaseHint>P</phaseHint>
      <evaluationMode>automatic</evaluationMode>
      <creationInfo>
        <agencyID>SGC2</agencyID>
        <author>PhaseNet</author>
        <creationTime>2020-06-19T19:04:49.373646Z</creationTime>
      </creationInfo>
    </pick>
    <pick publicID="20200529.033842.35-AIC-CM.MARO.00.HHZ">
      <time>
        <value>2020-05-29T03:38:42.35Z</value>
      </time>
      <waveformID networkCode="CM" stationCode="MARO" locationCode="00" channelCode="HHZ"/>
      <filterID>BW(4,1.00,10.00)</filterID>
      <methodID>AIC</methodID>
      <phaseHint>P</phaseHint>
      <evaluationMode>automatic</evaluationMode>
      <creationInfo>
        <agencyID>SGC2</agencyID>
        <author>PhaseNet</author>
        <creationTime>2020-06-19T19:04:49.373748Z</creationTime>
      </creationInfo>
    </pick>
    <pick publicID="20200529.033907.60-S-L2-CM.MARO.00.HHZ">
      <time>
        <value>2020-05-29T03:39:07.6Z</value>
      </time>
      <waveformID networkCode="CM" stationCode="MARO" locationCode="00" channelCode="HHZ"/>
      <filterID>BW(4,1.00,10.00)</filterID>
      <methodID>L2-AIC</methodID>
      <phaseHint>S</phaseHint>
      <evaluationMode>automatic</evaluationMode>
      <creationInfo>
        <agencyID>SGC2</agencyID>
        <author>PhaseNet</author>
        <creationTime>2020-06-19T19:04:49.373845Z</creationTime>
      </creationInfo>
      <comment>
        <text>20200529.033842.35-AIC-CM.MARO.00.HHZ</text>
        <id>RefPickID</id>
      </comment>
    </pick>
    <pick publicID="20200529.033841.51-AIC-CM.GARC.00.HHZ">
      <time>
        <value>2020-05-29T03:38:41.51Z</value>
      </time>
      <waveformID networkCode="CM" stationCode="GARC" locationCode="00" channelCode="HHZ"/>
      <filterID>BW(4,1.00,10.00)</filterID>
      <methodID>AIC</methodID>
      <phaseHint>P</phaseHint>
      <evaluationMode>automatic</evaluationMode>
      <creationInfo>
        <agencyID>SGC2</agencyID>
        <author>PhaseNet</author>
        <creationTime>2020-06-19T19:04:49.373977Z</creationTime>
      </creationInfo>
    </pick>
    <pick publicID="20200529.033904.82-S-L2-CM.GARC.00.HHZ">
      <time>
        <value>2020-05-29T03:39:04.82Z</value>
      </time>
      <waveformID networkCode="CM" stationCode="GARC" locationCode="00" channelCode="HHZ"/>
      <filterID>BW(4,1.00,10.00)</filterID>
      <methodID>L2-AIC</methodID>
      <phaseHint>S</phaseHint>
      <evaluationMode>automatic</evaluationMode>
      <creationInfo>
        <agencyID>SGC2</agencyID>
        <author>PhaseNet</author>
        <creationTime>2020-06-19T19:04:49.374074Z</creationTime>
      </creationInfo>
      <comment>
        <text>20200529.033841.51-AIC-CM.GARC.00.HHZ</text>
        <id>RefPickID</id>
      </comment>
    </pick>
    <pick publicID="20200529.033840.64-AIC-CM.PIRM.00.HHZ">
      <time>
        <value>2020-05-29T03:38:40.64Z</value>
      </time>
      <waveformID networkCode="CM" stationCode="PIRM" locationCode="00" channelCode="HHZ"/>
      <filterID>BW(4,1.00,10.00)</filterID>
      <methodID>AIC</methodID>
      <phaseHint>P</phaseHint>
      <evaluationMode>automatic</evaluationMode>
      <creationInfo>
        <agencyID>SGC2</agencyID>
        <author>PhaseNet</author>
        <creationTime>2020-06-19T19:04:49.37421Z</creationTime>
      </creationInfo>
    </pick>
    <pick publicID="20200529.033903.85-S-L2-CM.PIRM.00.HHZ">
      <time>
        <value>2020-05-29T03:39:03.85Z</value>
      </time>
      <waveformID networkCode="CM" stationCode="PIRM" locationCode="00" channelCode="HHZ"/>
      <filterID>BW(4,1.00,10.00)</filterID>
      <methodID>L2-AIC</methodID>
      <phaseHint>S</phaseHint>
      <evaluationMode>automatic</evaluationMode>
      <creationInfo>
        <agencyID>SGC2</agencyID>
        <author>PhaseNet</author>
        <creationTime>2020-06-19T19:04:49.374312Z</creationTime>
      </creationInfo>
      <comment>
        <text>20200529.033840.64-AIC-CM.PIRM.00.HHZ</text>
        <id>RefPickID</id>
      </comment>
    </pick>
    <pick publicID="20200529.033839.09-AIC-CM.BELO.00.HHZ">
      <time>
        <value>2020-05-29T03:38:39.09Z</value>
      </time>
      <waveformID networkCode="CM" stationCode="BELO" locationCode="00" channelCode="HHZ"/>
      <filterID>BW(4,1.00,10.00)</filterID>
      <methodID>AIC</methodID>
      <phaseHint>P</phaseHint>
      <evaluationMode>automatic</evaluationMode>
      <creationInfo>
        <agencyID>SGC2</agencyID>
        <author>PhaseNet</author>
        <creationTime>2020-06-19T19:04:49.374444Z</creationTime>
      </creationInfo>
    </pick>
    <pick publicID="20200529.033903.47-S-L2-CM.BELO.00.HHZ">
      <time>
        <value>2020-05-29T03:39:03.47Z</value>
      </time>
      <waveformID networkCode="CM" stationCode="BELO" locationCode="00" channelCode="HHZ"/>
      <filterID>BW(4,1.00,10.00)</filterID>
      <methodID>L2-AIC</methodID>
      <phaseHint>S</phaseHint>
      <evaluationMode>automatic</evaluationMode>
      <creationInfo>
        <agencyID>SGC2</agencyID>
        <author>PhaseNet</author>
        <creationTime>2020-06-19T19:04:49.374541Z</creationTime>
      </creationInfo>
      <comment>
        <text>20200529.033839.09-AIC-CM.BELO.00.HHZ</text>
        <id>RefPickID</id>
      </comment>
    </pick>
    <pick publicID="20200529.033846.58-AIC-CM.NOR.00.HHZ">
      <time>
        <value>2020-05-29T03:38:46.58Z</value>
      </time>
      <waveformID networkCode="CM" stationCode="NOR" locationCode="00" channelCode="HHZ"/>
      <filterID>BW(4,1.00,10.00)</filterID>
      <methodID>AIC</methodID>
      <phaseHint>P</phaseHint>
      <evaluationMode>automatic</evaluationMode>
      <creationInfo>
        <agencyID>SGC2</agencyID>
        <author>PhaseNet</author>
        <creationTime>2020-06-19T19:04:49.374675Z</creationTime>
      </creationInfo>
    </pick>
    <pick publicID="20200529.033914.74-S-L2-CM.NOR.00.HHZ">
      <time>
        <value>2020-05-29T03:39:14.74Z</value>
      </time>
      <waveformID networkCode="CM" stationCode="NOR" locationCode="00" channelCode="HHZ"/>
      <filterID>BW(4,1.00,10.00)</filterID>
      <methodID>L2-AIC</methodID>
      <phaseHint>S</phaseHint>
      <evaluationMode>automatic</evaluationMode>
      <creationInfo>
        <agencyID>SGC2</agencyID>
        <author>PhaseNet</author>
        <creationTime>2020-06-19T19:04:49.374772Z</creationTime>
      </creationInfo>
      <comment>
        <text>20200529.033846.58-AIC-CM.NOR.00.HHZ</text>
        <id>RefPickID</id>
      </comment>
    </pick>
    <pick publicID="20200529.033845.52-AIC-CM.GUY2C.00.HHZ">
      <time>
        <value>2020-05-29T03:38:45.52Z</value>
      </time>
      <waveformID networkCode="CM" stationCode="GUY2C" locationCode="00" channelCode="HHZ"/>
      <filterID>BW(4,1.00,10.00)</filterID>
      <methodID>AIC</methodID>
      <phaseHint>P</phaseHint>
      <evaluationMode>automatic</evaluationMode>
      <creationInfo>
        <agencyID>SGC2</agencyID>
        <author>PhaseNet</author>
        <creationTime>2020-06-19T19:04:49.374903Z</creationTime>
      </creationInfo>
    </pick>
    <pick publicID="20200529.033912.69-S-L2-CM.GUY2C.00.HHZ">
      <time>
        <value>2020-05-29T03:39:12.69Z</value>
      </time>
      <waveformID networkCode="CM" stationCode="GUY2C" locationCode="00" channelCode="HHZ"/>
      <filterID>BW(4,1.00,10.00)</filterID>
      <methodID>L2-AIC</methodID>
      <phaseHint>S</phaseHint>
      <evaluationMode>automatic</evaluationMode>
      <creationInfo>
        <agencyID>SGC2</agencyID>
        <author>PhaseNet</author>
        <creationTime>2020-06-19T19:04:49.374999Z</creationTime>
      </creationInfo>
      <comment>
        <text>20200529.033845.52-AIC-CM.GUY2C.00.HHZ</text>
        <id>RefPickID</id>
      </comment>
    </pick>
    <pick publicID="20200529.033853.64-AIC-CM.COBO.00.HHZ">
      <time>
        <value>2020-05-29T03:38:53.64Z</value>
      </time>
      <waveformID networkCode="CM" stationCode="COBO" locationCode="00" channelCode="HHZ"/>
      <filterID>BW(4,1.00,10.00)</filterID>
      <methodID>AIC</methodID>
      <phaseHint>P</phaseHint>
      <evaluationMode>automatic</evaluationMode>
      <creationInfo>
        <agencyID>SGC2</agencyID>
        <author>PhaseNet</author>
        <creationTime>2020-06-19T19:04:49.375128Z</creationTime>
      </creationInfo>
    </pick>
    <pick publicID="20200529.033926.62-S-L2-CM.COBO.00.HHZ">
      <time>
        <value>2020-05-29T03:39:26.62Z</value>
      </time>
      <waveformID networkCode="CM" stationCode="COBO" locationCode="00" channelCode="HHZ"/>
      <filterID>BW(4,1.00,10.00)</filterID>
      <methodID>L2-AIC</methodID>
      <phaseHint>S</phaseHint>
      <evaluationMode>automatic</evaluationMode>
      <creationInfo>
        <agencyID>SGC2</agencyID>
        <author>PhaseNet</author>
        <creationTime>2020-06-19T19:04:49.375223Z</creationTime>
      </creationInfo>
      <comment>
        <text>20200529.033853.64-AIC-CM.COBO.00.HHZ</text>
        <id>RefPickID</id>
      </comment>
    </pick>
    <pick publicID="20200529.033851.70-AIC-CM.JAMC.00.HHZ">
      <time>
        <value>2020-05-29T03:38:51.7Z</value>
      </time>
      <waveformID networkCode="CM" stationCode="JAMC" locationCode="00" channelCode="HHZ"/>
      <filterID>BW(4,1.00,10.00)</filterID>
      <methodID>AIC</methodID>
      <phaseHint>P</phaseHint>
      <evaluationMode>automatic</evaluationMode>
      <creationInfo>
        <agencyID>SGC2</agencyID>
        <author>PhaseNet</author>
        <creationTime>2020-06-19T19:04:49.375355Z</creationTime>
      </creationInfo>
    </pick>
    <pick publicID="20200529.033852.59-AIC-CM.PAL.00.HHZ">
      <time>
        <value>2020-05-29T03:38:52.59Z</value>
      </time>
      <waveformID networkCode="CM" stationCode="PAL" locationCode="00" channelCode="HHZ"/>
      <filterID>BW(4,1.00,10.00)</filterID>
      <methodID>AIC</methodID>
      <phaseHint>P</phaseHint>
      <evaluationMode>automatic</evaluationMode>
      <creationInfo>
        <agencyID>SGC2</agencyID>
        <author>PhaseNet</author>
        <creationTime>2020-06-19T19:04:49.375493Z</creationTime>
      </creationInfo>
    </pick>
    <pick publicID="20200529.033926.35-S-L2-CM.PAL.00.HHZ">
      <time>
        <value>2020-05-29T03:39:26.35Z</value>
      </time>
      <waveformID networkCode="CM" stationCode="PAL" locationCode="00" channelCode="HHZ"/>
      <filterID>BW(4,1.00,10.00)</filterID>
      <methodID>L2-AIC</methodID>
      <phaseHint>S</phaseHint>
      <evaluationMode>automatic</evaluationMode>
      <creationInfo>
        <agencyID>SGC2</agencyID>
        <author>PhaseNet</author>
        <creationTime>2020-06-19T19:04:49.375589Z</creationTime>
      </creationInfo>
      <comment>
        <text>20200529.033852.59-AIC-CM.PAL.00.HHZ</text>
        <id>RefPickID</id>
      </comment>
    </pick>
    <pick publicID="20200529.033850.69-AIC-CM.FLO2.00.HHZ">
      <time>
        <value>2020-05-29T03:38:50.69Z</value>
      </time>
      <waveformID networkCode="CM" stationCode="FLO2" locationCode="00" channelCode="HHZ"/>
      <filterID>BW(4,1.00,10.00)</filterID>
      <methodID>AIC</methodID>
      <phaseHint>P</phaseHint>
      <evaluationMode>automatic</evaluationMode>
      <creationInfo>
        <agencyID>SGC2</agencyID>
        <author>PhaseNet</author>
