<?xml version="1.0" encoding="UTF-8"?>
<seiscomp xmlns="http://geofon.gfz-potsdam.de/ns/seiscomp3-schema/0.11" version="0.11">
  <EventParameters>
    <pick publicID="20200810.063507.24-AIC-CM.CHI.00.HHZ">
      <time>
        <value>2020-08-10T06:35:07.24Z</value>
      </time>
      <waveformID networkCode="CM" stationCode="CHI" locationCode="00" channelCode="HHZ"/>
      <filterID>BW(4,1.00,10.00)</filterID>
      <methodID>AIC</methodID>
      <phaseHint>P</phaseHint>
      <evaluationMode>automatic</evaluationMode>
      <creationInfo>
        <agencyID>SGC2</agencyID>
        <author>PhaseNet</author>
        <creationTime>2020-08-11T16:24:30.303476Z</creationTime>
      </creationInfo>
    </pick>
    <pick publicID="20200810.063455.73-AIC-CM.CLBC.20.EHZ">
      <time>
        <value>2020-08-10T06:34:55.73Z</value>
      </time>
      <waveformID networkCode="CM" stationCode="CLBC" locationCode="20" channelCode="EHZ"/>
      <filterID>BW(4,1.00,10.00)</filterID>
      <methodID>AIC</methodID>
      <phaseHint>P</phaseHint>
      <evaluationMode>automatic</evaluationMode>
      <creationInfo>
        <agencyID>SGC2</agencyID>
        <author>PhaseNet</author>
        <creationTime>2020-08-11T16:24:30.303603Z</creationTime>
      </creationInfo>
    </pick>
    <pick publicID="20200810.063530.90-AIC-CM.RUS.00.HHZ">
      <time>
        <value>2020-08-10T06:35:30.9Z</value>
      </time>
      <waveformID networkCode="CM" stationCode="RUS" locationCode="00" channelCode="HHZ"/>
      <filterID>BW(4,1.00,10.00)</filterID>
      <methodID>AIC</methodID>
      <phaseHint>P</phaseHint>
      <evaluationMode>automatic</evaluationMode>
      <creationInfo>
        <agencyID>SGC2</agencyID>
        <author>PhaseNet</author>
        <creationTime>2020-08-11T16:24:30.303712Z</creationTime>
      </creationInfo>
    </pick>
    <pick publicID="20200810.063448.59-AIC-CM.URMC.00.HHZ">
      <time>
        <value>2020-08-10T06:34:48.59Z</value>
      </time>
      <waveformID networkCode="CM" stationCode="URMC" locationCode="00" channelCode="HHZ"/>
      <filterID>BW(4,1.00,10.00)</filterID>
      <methodID>AIC</methodID>
      <phaseHint>P</phaseHint>
      <evaluationMode>automatic</evaluationMode>
      <creationInfo>
        <agencyID>SGC2</agencyID>
        <author>PhaseNet</author>
        <creationTime>2020-08-11T16:24:30.303817Z</creationTime>
      </creationInfo>
    </pick>
    <pick publicID="20200810.063452.06-S-L2-CM.URMC.00.HHZ">
      <time>
        <value>2020-08-10T06:34:52.06Z</value>
      </time>
      <waveformID networkCode="CM" stationCode="URMC" locationCode="00" channelCode="HHZ"/>
      <filterID>BW(4,1.00,10.00)</filterID>
      <methodID>L2-AIC</methodID>
      <phaseHint>S</phaseHint>
      <evaluationMode>automatic</evaluationMode>
      <creationInfo>
        <agencyID>SGC2</agencyID>
        <author>PhaseNet</author>
        <creationTime>2020-08-11T16:24:30.303891Z</creationTime>
      </creationInfo>
      <comment>
        <text>20200810.063448.59-AIC-CM.URMC.00.HHZ</text>
        <id>RefPickID</id>
      </comment>
    </pick>
    <pick publicID="20200810.063457.74-AIC-CM.PRA.00.HHZ">
      <time>
        <value>2020-08-10T06:34:57.74Z</value>
      </time>
      <waveformID networkCode="CM" stationCode="PRA" locationCode="00" channelCode="HHZ"/>
      <filterID>BW(4,1.00,10.00)</filterID>
      <methodID>AIC</methodID>
      <phaseHint>P</phaseHint>
      <evaluationMode>automatic</evaluationMode>
      <creationInfo>
        <agencyID>SGC2</agencyID>
        <author>PhaseNet</author>
        <creationTime>2020-08-11T16:24:30.303992Z</creationTime>
      </creationInfo>
    </pick>
    <pick publicID="20200810.063508.39-S-L2-CM.PRA.00.HHZ">
      <time>
        <value>2020-08-10T06:35:08.39Z</value>
      </time>
      <waveformID networkCode="CM" stationCode="PRA" locationCode="00" channelCode="HHZ"/>
      <filterID>BW(4,1.00,10.00)</filterID>
      <methodID>L2-AIC</methodID>
      <phaseHint>S</phaseHint>
      <evaluationMode>automatic</evaluationMode>
      <creationInfo>
        <agencyID>SGC2</agencyID>
        <author>PhaseNet</author>
        <creationTime>2020-08-11T16:24:30.304065Z</creationTime>
      </creationInfo>
      <comment>
        <text>20200810.063457.74-AIC-CM.PRA.00.HHZ</text>
        <id>RefPickID</id>
      </comment>
    </pick>
    <pick publicID="20200810.063503.93-AIC-CM.CVER.00.HHZ">
      <time>
        <value>2020-08-10T06:35:03.93Z</value>
      </time>
      <waveformID networkCode="CM" stationCode="CVER" locationCode="00" channelCode="HHZ"/>
      <filterID>BW(4,1.00,10.00)</filterID>
      <methodID>AIC</methodID>
      <phaseHint>P</phaseHint>
      <evaluationMode>automatic</evaluationMode>
      <creationInfo>
        <agencyID>SGC2</agencyID>
        <author>PhaseNet</author>
        <creationTime>2020-08-11T16:24:30.304169Z</creationTime>
      </creationInfo>
    </pick>
    <pick publicID="20200810.063520.23-S-L2-CM.CVER.00.HHZ">
      <time>
        <value>2020-08-10T06:35:20.23Z</value>
      </time>
      <waveformID networkCode="CM" stationCode="CVER" locationCode="00" channelCode="HHZ"/>
      <filterID>BW(4,1.00,10.00)</filterID>
      <methodID>L2-AIC</methodID>
      <phaseHint>S</phaseHint>
      <evaluationMode>automatic</evaluationMode>
      <creationInfo>
        <agencyID>SGC2</agencyID>
        <author>PhaseNet</author>
        <creationTime>2020-08-11T16:24:30.304241Z</creationTime>
      </creationInfo>
      <comment>
        <text>20200810.063503.93-AIC-CM.CVER.00.HHZ</text>
        <id>RefPickID</id>
      </comment>
    </pick>
    <pick publicID="20200810.063507.11-AIC-CM.MACC.00.HHZ">
      <time>
        <value>2020-08-10T06:35:07.11Z</value>
      </time>
      <waveformID networkCode="CM" stationCode="MACC" locationCode="00" channelCode="HHZ"/>
      <filterID>BW(4,1.00,10.00)</filterID>
      <methodID>AIC</methodID>
      <phaseHint>P</phaseHint>
      <evaluationMode>automatic</evaluationMode>
      <creationInfo>
        <agencyID>SGC2</agencyID>
        <author>PhaseNet</author>
        <creationTime>2020-08-11T16:24:30.30434Z</creationTime>
      </creationInfo>
    </pick>
    <pick publicID="20200810.063524.37-S-L2-CM.MACC.00.HHZ">
      <time>
        <value>2020-08-10T06:35:24.37Z</value>
      </time>
      <waveformID networkCode="CM" stationCode="MACC" locationCode="00" channelCode="HHZ"/>
      <filterID>BW(4,1.00,10.00)</filterID>
      <methodID>L2-AIC</methodID>
      <phaseHint>S</phaseHint>
      <evaluationMode>automatic</evaluationMode>
      <creationInfo>
        <agencyID>SGC2</agencyID>
        <author>PhaseNet</author>
        <creationTime>2020-08-11T16:24:30.304409Z</creationTime>
      </creationInfo>
      <comment>
        <text>20200810.063507.11-AIC-CM.MACC.00.HHZ</text>
        <id>RefPickID</id>
      </comment>
    </pick>
    <pick publicID="20200810.063511.41-AIC-CM.TAPM.00.HHZ">
      <time>
        <value>2020-08-10T06:35:11.41Z</value>
      </time>
      <waveformID networkCode="CM" stationCode="TAPM" locationCode="00" channelCode="HHZ"/>
      <filterID>BW(4,1.00,10.00)</filterID>
      <methodID>AIC</methodID>
      <phaseHint>P</phaseHint>
      <evaluationMode>automatic</evaluationMode>
      <creationInfo>
        <agencyID>SGC2</agencyID>
        <author>PhaseNet</author>
        <creationTime>2020-08-11T16:24:30.304514Z</creationTime>
      </creationInfo>
    </pick>
    <pick publicID="20200810.063531.80-S-L2-CM.TAPM.00.HHZ">
      <time>
        <value>2020-08-10T06:35:31.8Z</value>
      </time>
      <waveformID networkCode="CM" stationCode="TAPM" locationCode="00" channelCode="HHZ"/>
      <filterID>BW(4,1.00,10.00)</filterID>
      <methodID>L2-AIC</methodID>
      <phaseHint>S</phaseHint>
      <evaluationMode>automatic</evaluationMode>
      <creationInfo>
        <agencyID>SGC2</agencyID>
        <author>PhaseNet</author>
        <creationTime>2020-08-11T16:24:30.304584Z</creationTime>
      </creationInfo>
      <comment>
        <text>20200810.063511.41-AIC-CM.TAPM.00.HHZ</text>
        <id>RefPickID</id>
      </comment>
    </pick>
    <pick publicID="20200810.063514.24-AIC-CM.BELO.00.HHZ">
      <time>
        <value>2020-08-10T06:35:14.24Z</value>
      </time>
      <waveformID networkCode="CM" stationCode="BELO" locationCode="00" channelCode="HHZ"/>
      <filterID>BW(4,1.00,10.00)</filterID>
      <methodID>AIC</methodID>
      <phaseHint>P</phaseHint>
      <evaluationMode>automatic</evaluationMode>
      <creationInfo>
        <agencyID>SGC2</agencyID>
        <author>PhaseNet</author>
        <creationTime>2020-08-11T16:24:30.30468Z</creationTime>
      </creationInfo>
    </pick>
    <pick publicID="20200810.063522.10-AIC-CM.GUY2C.00.HHZ">
      <time>
        <value>2020-08-10T06:35:22.1Z</value>
      </time>
      <waveformID networkCode="CM" stationCode="GUY2C" locationCode="00" channelCode="HHZ"/>
      <filterID>BW(4,1.00,10.00)</filterID>
      <methodID>AIC</methodID>
      <phaseHint>P</phaseHint>
      <evaluationMode>automatic</evaluationMode>
      <creationInfo>
        <agencyID>SGC2</agencyID>
        <author>PhaseNet</author>
        <creationTime>2020-08-11T16:24:30.304776Z</creationTime>
      </creationInfo>
    </pick>
    <pick publicID="20200810.063549.68-S-L2-CM.GUY2C.00.HHZ">
      <time>
        <value>2020-08-10T06:35:49.68Z</value>
      </time>
      <waveformID networkCode="CM" stationCode="GUY2C" locationCode="00" channelCode="HHZ"/>
      <filterID>BW(4,1.00,10.00)</filterID>
      <methodID>L2-AIC</methodID>
      <phaseHint>S</phaseHint>
      <evaluationMode>automatic</evaluationMode>
      <creationInfo>
        <agencyID>SGC2</agencyID>
        <author>PhaseNet</author>
        <creationTime>2020-08-11T16:24:30.304845Z</creationTime>
      </creationInfo>
      <comment>
        <text>20200810.063522.10-AIC-CM.GUY2C.00.HHZ</text>
        <id>RefPickID</id>
      </comment>
    </pick>
    <pick publicID="20200810.063515.89-AIC-CM.GARC.00.HHZ">
      <time>
        <value>2020-08-10T06:35:15.89Z</value>
      </time>
      <waveformID networkCode="CM" stationCode="GARC" locationCode="00" channelCode="HHZ"/>
      <filterID>BW(4,1.00,10.00)</filterID>
      <methodID>AIC</methodID>
      <phaseHint>P</phaseHint>
      <evaluationMode>automatic</evaluationMode>
      <creationInfo>
        <agencyID>SGC2</agencyID>
        <author>PhaseNet</author>
        <creationTime>2020-08-11T16:24:30.304945Z</creationTime>
      </creationInfo>
    </pick>
    <pick publicID="20200810.063517.59-AIC-CM.MARO.00.HHZ">
      <time>
        <value>2020-08-10T06:35:17.59Z</value>
      </time>
      <waveformID networkCode="CM" stationCode="MARO" locationCode="00" channelCode="HHZ"/>
      <filterID>BW(4,1.00,10.00)</filterID>
      <methodID>AIC</methodID>
      <phaseHint>P</phaseHint>
      <evaluationMode>automatic</evaluationMode>
      <creationInfo>
        <agencyID>SGC2</agencyID>
        <author>PhaseNet</author>
        <creationTime>2020-08-11T16:24:30.305049Z</creationTime>
      </creationInfo>
    </pick>
    <pick publicID="20200810.063516.96-AIC-CM.PIRM.00.HHZ">
      <time>
        <value>2020-08-10T06:35:16.96Z</value>
      </time>
      <waveformID networkCode="CM" stationCode="PIRM" locationCode="00" channelCode="HHZ"/>
      <filterID>BW(4,1.00,10.00)</filterID>
      <methodID>AIC</methodID>
      <phaseHint>P</phaseHint>
      <evaluationMode>automatic</evaluationMode>
      <creationInfo>
        <agencyID>SGC2</agencyID>
        <author>PhaseNet</author>
        <creationTime>2020-08-11T16:24:30.305153Z</creationTime>
      </creationInfo>
    </pick>
    <pick publicID="20200810.063540.87-S-L2-CM.PIRM.00.HHZ">
      <time>
        <value>2020-08-10T06:35:40.87Z</value>
      </time>
      <waveformID networkCode="CM" stationCode="PIRM" locationCode="00" channelCode="HHZ"/>
      <filterID>BW(4,1.00,10.00)</filterID>
      <methodID>L2-AIC</methodID>
      <phaseHint>S</phaseHint>
      <evaluationMode>automatic</evaluationMode>
      <creationInfo>
        <agencyID>SGC2</agencyID>
        <author>PhaseNet</author>
        <creationTime>2020-08-11T16:24:30.305222Z</creationTime>
      </creationInfo>
      <comment>
        <text>20200810.063516.96-AIC-CM.PIRM.00.HHZ</text>
        <id>RefPickID</id>
      </comment>
    </pick>
    <pick publicID="20200810.063531.19-AIC-CM.POP2.00.HHZ">
      <time>
        <value>2020-08-10T06:35:31.19Z</value>
      </time>
      <waveformID networkCode="CM" stationCode="POP2" locationCode="00" channelCode="HHZ"/>
      <filterID>BW(4,1.00,10.00)</filterID>
      <methodID>AIC</methodID>
      <phaseHint>P</phaseHint>
      <evaluationMode>automatic</evaluationMode>
      <creationInfo>
        <agencyID>SGC2</agencyID>
        <author>PhaseNet</author>
        <creationTime>2020-08-11T16:24:30.305417Z</creationTime>
      </creationInfo>
    </pick>
    <pick publicID="20200810.063606.04-S-L2-CM.POP2.00.HHZ">
      <time>
        <value>2020-08-10T06:36:06.04Z</value>
      </time>
      <waveformID networkCode="CM" stationCode="POP2" locationCode="00" channelCode="HHZ"/>
      <filterID>BW(4,1.00,10.00)</filterID>
      <methodID>L2-AIC</methodID>
      <phaseHint>S</phaseHint>
      <evaluationMode>automatic</evaluationMode>
      <creationInfo>
        <agencyID>SGC2</agencyID>
        <author>PhaseNet</author>
        <creationTime>2020-08-11T16:24:30.305486Z</creationTime>
      </creationInfo>
      <comment>
        <text>20200810.063531.19-AIC-CM.POP2.00.HHZ</text>
        <id>RefPickID</id>
      </comment>
    </pick>
    <amplitude publicID="Amplitude/20200811163359.750716.31273">
      <type>MLv</type>
      <amplitude>
        <value>0.4570121065</value>
      </amplitude>
      <timeWindow>
        <reference>2020-08-10T06:34:55.84Z</reference>
        <begin>-5.11</begin>
        <end>53.18</end>
      </timeWindow>
      <snr>14.11457448</snr>
      <pickID>20200810.063455.73-AIC-CM.CLBC.20.EHZ</pickID>
      <waveformID networkCode="CM" stationCode="CLBC" locationCode="20" channelCode="EHZ"/>
      <creationInfo>
        <agencyID>SGC</agencyID>
        <author>bdrsn</author>
        <creationTime>2020-08-11T16:33:59.750803Z</creationTime>
      </creationInfo>
    </amplitude>
    <amplitude publicID="Amplitude/20200811163359.805294.31274">
      <type>MLv</type>
      <amplitude>
        <value>0.2526026488</value>
      </amplitude>
      <timeWindow>
        <reference>2020-08-10T06:34:57.898393Z</reference>
        <begin>-5.16</begin>
        <end>58.18</end>
      </timeWindow>
      <snr>8.942777152</snr>
      <pickID>20200810.063457.74-AIC-CM.PRA.00.HHZ</pickID>
      <waveformID networkCode="CM" stationCode="PRA" locationCode="00" channelCode="HHZ"/>
      <creationInfo>
        <agencyID>SGC</agencyID>
        <author>bdrsn</author>
        <creationTime>2020-08-11T16:33:59.805336Z</creationTime>
      </creationInfo>
    </amplitude>
    <amplitude publicID="Amplitude/20200811163359.942923.31275">
      <type>MLv</type>
      <amplitude>
        <value>2.310211724</value>
      </amplitude>
      <timeWindow>
        <reference>2020-08-10T06:34:52.848393Z</reference>
        <begin>-9.26</begin>
        <end>35.89</end>
      </timeWindow>
      <snr>105.5125006</snr>
      <pickID>20200810.063448.59-AIC-CM.URMC.00.HHZ</pickID>
      <waveformID networkCode="CM" stationCode="URMC" locationCode="00" channelCode="HHZ"/>
      <creationInfo>
        <agencyID>SGC</agencyID>
        <author>bdrsn</author>
        <creationTime>2020-08-11T16:33:59.943007Z</creationTime>
      </creationInfo>
    </amplitude>
    <amplitude publicID="Amplitude/20200811163400.048397.31276">
      <type>MLv</type>
      <amplitude>
        <value>0.07541509969</value>
      </amplitude>
      <timeWindow>
        <reference>2020-08-10T06:35:24.43Z</reference>
        <begin>-25.5</begin>
        <end>49.83</end>
      </timeWindow>
      <snr>2.627314524</snr>
      <pickID>20200810.063503.93-AIC-CM.CVER.00.HHZ</pickID>
      <waveformID networkCode="CM" stationCode="CVER" locationCode="00" channelCode="HHZ"/>
      <creationInfo>
        <agencyID>SGC</agencyID>
        <author>bdrsn</author>
        <creationTime>2020-08-11T16:34:00.048446Z</creationTime>
      </creationInfo>
    </amplitude>
    <amplitude publicID="Amplitude/20200811163400.829794.31277">
      <type>MLv</type>
      <amplitude>
        <value>0.06143711832</value>
      </amplitude>
      <timeWindow>
        <reference>2020-08-10T06:35:27.838393Z</reference>
        <begin>-25.6</begin>
        <end>57.08</end>
      </timeWindow>
      <snr>3.353916305</snr>
      <pickID>20200810.063507.24-AIC-CM.CHI.00.HHZ</pickID>
      <waveformID networkCode="CM" stationCode="CHI" locationCode="00" channelCode="HHZ"/>
      <creationInfo>
        <agencyID>SGC</agencyID>
        <author>bdrsn</author>
        <creationTime>2020-08-11T16:34:00.829853Z</creationTime>
      </creationInfo>
    </amplitude>
    <amplitude publicID="Amplitude/20200811163401.337854.31278">
      <type>MLv</type>
      <amplitude>
        <value>0.1139740824</value>
      </amplitude>
      <timeWindow>
        <reference>2020-08-10T06:35:34.81Z</reference>
        <begin>-28.4</begin>
        <end>64.14</end>
      </timeWindow>
      <snr>9.879994682</snr>
      <pickID>20200810.063511.41-AIC-CM.TAPM.00.HHZ</pickID>
      <waveformID networkCode="CM" stationCode="TAPM" locationCode="00" channelCode="HHZ"/>
      <creationInfo>
        <agencyID>SGC</agencyID>
        <author>bdrsn</author>
        <creationTime>2020-08-11T16:34:01.337889Z</creationTime>
      </creationInfo>
    </amplitude>
    <amplitude publicID="Amplitude/20200811163401.849947.31279">
      <type>MLv</type>
      <amplitude>
        <value>0.3869644195</value>
      </amplitude>
      <timeWindow>
        <reference>2020-08-10T06:35:39.55Z</reference>
        <begin>-30.31</begin>
        <end>67.53</end>
      </timeWindow>
      <snr>19.84990126</snr>
      <pickID>20200810.063514.24-AIC-CM.BELO.00.HHZ</pickID>
      <waveformID networkCode="CM" stationCode="BELO" locationCode="00" channelCode="HHZ"/>
      <creationInfo>
        <agencyID>SGC</agencyID>
        <author>bdrsn</author>
        <creationTime>2020-08-11T16:34:01.850015Z</creationTime>
      </creationInfo>
    </amplitude>
    <amplitude publicID="Amplitude/20200811163402.050366.31280">
      <type>MLv</type>
      <amplitude>
        <value>0.5324709127</value>
      </amplitude>
      <timeWindow>
        <reference>2020-08-10T06:35:44.048393Z</reference>
        <begin>-33.16</begin>
        <end>69.12</end>
      </timeWindow>
      <snr>30.066258</snr>
      <pickID>20200810.063515.89-AIC-CM.GARC.00.HHZ</pickID>
      <waveformID networkCode="CM" stationCode="GARC" locationCode="00" channelCode="HHZ"/>
      <creationInfo>
        <agencyID>SGC</agencyID>
        <author>bdrsn</author>
        <creationTime>2020-08-11T16:34:02.05041Z</creationTime>
      </creationInfo>
    </amplitude>
    <origin publicID="Origin/20200811163349.391243.22845">
      <time>
        <value>2020-08-10T06:34:43.235673Z</value>
        <uncertainty>1.301577687</uncertainty>
      </time>
      <latitude>
        <value>3.43053627</value>
        <uncertainty>8.720414162</uncertainty>
      </latitude>
      <longitude>
        <value>-74.17391205</value>
        <uncertainty>8.926290512</uncertainty>
      </longitude>
      <depth>
        <value>1.253533721</value>
        <uncertainty>7.134509563</uncertainty>
      </depth>
      <methodID>LOCSAT</methodID>
      <earthModelID>iasp91</earthModelID>
      <quality>
        <associatedPhaseCount>5</associatedPhaseCount>
        <usedPhaseCount>5</usedPhaseCount>
        <associatedStationCount>4</associatedStationCount>
        <usedStationCount>4</usedStationCount>
        <depthPhaseCount>0</depthPhaseCount>
