<?xml version="1.0" encoding="UTF-8"?>
<seiscomp xmlns="http://geofon.gfz-potsdam.de/ns/seiscomp3-schema/0.10" version="0.10">
  <EventParameters>
    <pick publicID="20191225.000031.59-AIC-CM.PRA .00.HHZ">
      <time>
        <value>2019-12-25T00:00:31.598393Z</value>
      </time>
      <waveformID networkCode="CM" stationCode="PRA " locationCode="00" channelCode="HHZ"/>
      <filterID>BW(4,1.00,10.00)</filterID>
      <methodID>AIC</methodID>
      <phaseHint>P</phaseHint>
      <evaluationMode>automatic</evaluationMode>
      <creationInfo>
        <agencyID>SGC2</agencyID>
        <author>EQTransformer</author>
        <creationTime>2020-09-04T17:12:36.753094Z</creationTime>
      </creationInfo>
    </pick>
    <pick publicID="20191225.000041.63-S-L2-CM.PRA .00.HHZ">
      <time>
        <value>2019-12-25T00:00:41.638393Z</value>
      </time>
      <waveformID networkCode="CM" stationCode="PRA " locationCode="00" channelCode="HHZ"/>
      <filterID>BW(4,1.00,10.00)</filterID>
      <methodID>L2-AIC</methodID>
      <phaseHint>S</phaseHint>
      <evaluationMode>automatic</evaluationMode>
      <creationInfo>
        <agencyID>SGC2</agencyID>
        <author>EQTransformer</author>
        <creationTime>2020-09-04T17:12:36.753248Z</creationTime>
      </creationInfo>
      <comment>
        <text>20191225.000031.59-AIC-CM.PRA .00.HHZ</text>
        <id>RefPickID</id>
      </comment>
    </pick>
    <pick publicID="20191225.000404.66-AIC-CM.PRA .00.HHZ">
      <time>
        <value>2019-12-25T00:04:04.668393Z</value>
      </time>
      <waveformID networkCode="CM" stationCode="PRA " locationCode="00" channelCode="HHZ"/>
      <filterID>BW(4,1.00,10.00)</filterID>
      <methodID>AIC</methodID>
      <phaseHint>P</phaseHint>
      <evaluationMode>automatic</evaluationMode>
      <creationInfo>
        <agencyID>SGC2</agencyID>
        <author>EQTransformer</author>
        <creationTime>2020-09-04T17:12:36.753360Z</creationTime>
      </creationInfo>
    </pick>
    <pick publicID="20191225.000414.61-S-L2-CM.PRA .00.HHZ">
      <time>
        <value>2019-12-25T00:04:14.618393Z</value>
      </time>
      <waveformID networkCode="CM" stationCode="PRA " locationCode="00" channelCode="HHZ"/>
      <filterID>BW(4,1.00,10.00)</filterID>
      <methodID>L2-AIC</methodID>
      <phaseHint>S</phaseHint>
      <evaluationMode>automatic</evaluationMode>
      <creationInfo>
        <agencyID>SGC2</agencyID>
        <author>EQTransformer</author>
        <creationTime>2020-09-04T17:12:36.753499Z</creationTime>
      </creationInfo>
      <comment>
        <text>20191225.000404.66-AIC-CM.PRA .00.HHZ</text>
        <id>RefPickID</id>
      </comment>
    </pick>
    <pick publicID="20191225.000545.25-AIC-CM.PRA .00.HHZ">
      <time>
        <value>2019-12-25T00:05:45.258393Z</value>
      </time>
      <waveformID networkCode="CM" stationCode="PRA " locationCode="00" channelCode="HHZ"/>
      <filterID>BW(4,1.00,10.00)</filterID>
      <methodID>AIC</methodID>
      <phaseHint>P</phaseHint>
      <evaluationMode>automatic</evaluationMode>
      <creationInfo>
        <agencyID>SGC2</agencyID>
        <author>EQTransformer</author>
        <creationTime>2020-09-04T17:12:36.753592Z</creationTime>
      </creationInfo>
    </pick>
    <pick publicID="20191225.000555.74-S-L2-CM.PRA .00.HHZ">
      <time>
        <value>2019-12-25T00:05:55.748393Z</value>
      </time>
      <waveformID networkCode="CM" stationCode="PRA " locationCode="00" channelCode="HHZ"/>
      <filterID>BW(4,1.00,10.00)</filterID>
      <methodID>L2-AIC</methodID>
      <phaseHint>S</phaseHint>
      <evaluationMode>automatic</evaluationMode>
      <creationInfo>
        <agencyID>SGC2</agencyID>
        <author>EQTransformer</author>
        <creationTime>2020-09-04T17:12:36.753728Z</creationTime>
      </creationInfo>
      <comment>
        <text>20191225.000545.25-AIC-CM.PRA .00.HHZ</text>
        <id>RefPickID</id>
      </comment>
    </pick>
    <pick publicID="20191225.000626.55-AIC-CM.PRA .00.HHZ">
      <time>
        <value>2019-12-25T00:06:26.558393Z</value>
      </time>
      <waveformID networkCode="CM" stationCode="PRA " locationCode="00" channelCode="HHZ"/>
      <filterID>BW(4,1.00,10.00)</filterID>
      <methodID>AIC</methodID>
      <phaseHint>P</phaseHint>
      <evaluationMode>automatic</evaluationMode>
      <creationInfo>
        <agencyID>SGC2</agencyID>
        <author>EQTransformer</author>
        <creationTime>2020-09-04T17:12:36.753819Z</creationTime>
      </creationInfo>
    </pick>
    <pick publicID="20191225.000636.44-S-L2-CM.PRA .00.HHZ">
      <time>
        <value>2019-12-25T00:06:36.448393Z</value>
      </time>
      <waveformID networkCode="CM" stationCode="PRA " locationCode="00" channelCode="HHZ"/>
      <filterID>BW(4,1.00,10.00)</filterID>
      <methodID>L2-AIC</methodID>
      <phaseHint>S</phaseHint>
      <evaluationMode>automatic</evaluationMode>
      <creationInfo>
        <agencyID>SGC2</agencyID>
        <author>EQTransformer</author>
        <creationTime>2020-09-04T17:12:36.753951Z</creationTime>
      </creationInfo>
      <comment>
        <text>20191225.000626.55-AIC-CM.PRA .00.HHZ</text>
        <id>RefPickID</id>
      </comment>
    </pick>
    <pick publicID="20191225.001143.06-AIC-CM.PRA .00.HHZ">
      <time>
        <value>2019-12-25T00:11:43.068393Z</value>
      </time>
      <waveformID networkCode="CM" stationCode="PRA " locationCode="00" channelCode="HHZ"/>
      <filterID>BW(4,1.00,10.00)</filterID>
      <methodID>AIC</methodID>
      <phaseHint>P</phaseHint>
      <evaluationMode>automatic</evaluationMode>
      <creationInfo>
        <agencyID>SGC2</agencyID>
        <author>EQTransformer</author>
        <creationTime>2020-09-04T17:12:36.754041Z</creationTime>
      </creationInfo>
    </pick>
    <pick publicID="20191225.001153.14-S-L2-CM.PRA .00.HHZ">
      <time>
        <value>2019-12-25T00:11:53.148393Z</value>
      </time>
      <waveformID networkCode="CM" stationCode="PRA " locationCode="00" channelCode="HHZ"/>
      <filterID>BW(4,1.00,10.00)</filterID>
      <methodID>L2-AIC</methodID>
      <phaseHint>S</phaseHint>
      <evaluationMode>automatic</evaluationMode>
      <creationInfo>
        <agencyID>SGC2</agencyID>
        <author>EQTransformer</author>
        <creationTime>2020-09-04T17:12:36.754172Z</creationTime>
      </creationInfo>
      <comment>
        <text>20191225.001143.06-AIC-CM.PRA .00.HHZ</text>
        <id>RefPickID</id>
      </comment>
    </pick>
    <pick publicID="20191225.001218.78-AIC-CM.PRA .00.HHZ">
      <time>
        <value>2019-12-25T00:12:18.788393Z</value>
      </time>
      <waveformID networkCode="CM" stationCode="PRA " locationCode="00" channelCode="HHZ"/>
      <filterID>BW(4,1.00,10.00)</filterID>
      <methodID>AIC</methodID>
      <phaseHint>P</phaseHint>
      <evaluationMode>automatic</evaluationMode>
      <creationInfo>
        <agencyID>SGC2</agencyID>
        <author>EQTransformer</author>
        <creationTime>2020-09-04T17:12:36.754260Z</creationTime>
      </creationInfo>
    </pick>
    <pick publicID="20191225.001228.82-S-L2-CM.PRA .00.HHZ">
      <time>
        <value>2019-12-25T00:12:28.828393Z</value>
      </time>
      <waveformID networkCode="CM" stationCode="PRA " locationCode="00" channelCode="HHZ"/>
      <filterID>BW(4,1.00,10.00)</filterID>
      <methodID>L2-AIC</methodID>
      <phaseHint>S</phaseHint>
      <evaluationMode>automatic</evaluationMode>
      <creationInfo>
        <agencyID>SGC2</agencyID>
        <author>EQTransformer</author>
        <creationTime>2020-09-04T17:12:36.754390Z</creationTime>
      </creationInfo>
      <comment>
        <text>20191225.001218.78-AIC-CM.PRA .00.HHZ</text>
        <id>RefPickID</id>
      </comment>
    </pick>
    <pick publicID="20191225.001625.88-AIC-CM.PRA .00.HHZ">
      <time>
        <value>2019-12-25T00:16:25.888393Z</value>
      </time>
      <waveformID networkCode="CM" stationCode="PRA " locationCode="00" channelCode="HHZ"/>
      <filterID>BW(4,1.00,10.00)</filterID>
      <methodID>AIC</methodID>
      <phaseHint>P</phaseHint>
      <evaluationMode>automatic</evaluationMode>
      <creationInfo>
        <agencyID>SGC2</agencyID>
        <author>EQTransformer</author>
        <creationTime>2020-09-04T17:12:36.754564Z</creationTime>
      </creationInfo>
    </pick>
    <pick publicID="20191225.001636.05-S-L2-CM.PRA .00.HHZ">
      <time>
        <value>2019-12-25T00:16:36.058393Z</value>
      </time>
      <waveformID networkCode="CM" stationCode="PRA " locationCode="00" channelCode="HHZ"/>
      <filterID>BW(4,1.00,10.00)</filterID>
      <methodID>L2-AIC</methodID>
      <phaseHint>S</phaseHint>
      <evaluationMode>automatic</evaluationMode>
      <creationInfo>
        <agencyID>SGC2</agencyID>
        <author>EQTransformer</author>
        <creationTime>2020-09-04T17:12:36.754705Z</creationTime>
      </creationInfo>
      <comment>
        <text>20191225.001625.88-AIC-CM.PRA .00.HHZ</text>
        <id>RefPickID</id>
      </comment>
    </pick>
    <pick publicID="20191225.001741.13-AIC-CM.PRA .00.HHZ">
      <time>
        <value>2019-12-25T00:17:41.138393Z</value>
      </time>
      <waveformID networkCode="CM" stationCode="PRA " locationCode="00" channelCode="HHZ"/>
      <filterID>BW(4,1.00,10.00)</filterID>
      <methodID>AIC</methodID>
      <phaseHint>P</phaseHint>
      <evaluationMode>automatic</evaluationMode>
      <creationInfo>
        <agencyID>SGC2</agencyID>
        <author>EQTransformer</author>
        <creationTime>2020-09-04T17:12:36.754799Z</creationTime>
      </creationInfo>
    </pick>
    <pick publicID="20191225.001751.20-S-L2-CM.PRA .00.HHZ">
      <time>
        <value>2019-12-25T00:17:51.208393Z</value>
      </time>
      <waveformID networkCode="CM" stationCode="PRA " locationCode="00" channelCode="HHZ"/>
      <filterID>BW(4,1.00,10.00)</filterID>
      <methodID>L2-AIC</methodID>
      <phaseHint>S</phaseHint>
      <evaluationMode>automatic</evaluationMode>
      <creationInfo>
        <agencyID>SGC2</agencyID>
        <author>EQTransformer</author>
        <creationTime>2020-09-04T17:12:36.754921Z</creationTime>
      </creationInfo>
      <comment>
        <text>20191225.001741.13-AIC-CM.PRA .00.HHZ</text>
        <id>RefPickID</id>
      </comment>
    </pick>
    <pick publicID="20191225.001941.40-AIC-CM.PRA .00.HHZ">
      <time>
        <value>2019-12-25T00:19:41.408393Z</value>
      </time>
      <waveformID networkCode="CM" stationCode="PRA " locationCode="00" channelCode="HHZ"/>
      <filterID>BW(4,1.00,10.00)</filterID>
      <methodID>AIC</methodID>
      <phaseHint>P</phaseHint>
      <evaluationMode>automatic</evaluationMode>
      <creationInfo>
        <agencyID>SGC2</agencyID>
        <author>EQTransformer</author>
        <creationTime>2020-09-04T17:12:36.755013Z</creationTime>
      </creationInfo>
    </pick>
    <pick publicID="20191225.001951.28-S-L2-CM.PRA .00.HHZ">
      <time>
        <value>2019-12-25T00:19:51.288393Z</value>
      </time>
      <waveformID networkCode="CM" stationCode="PRA " locationCode="00" channelCode="HHZ"/>
      <filterID>BW(4,1.00,10.00)</filterID>
      <methodID>L2-AIC</methodID>
      <phaseHint>S</phaseHint>
      <evaluationMode>automatic</evaluationMode>
      <creationInfo>
        <agencyID>SGC2</agencyID>
        <author>EQTransformer</author>
        <creationTime>2020-09-04T17:12:36.755131Z</creationTime>
      </creationInfo>
      <comment>
        <text>20191225.001941.40-AIC-CM.PRA .00.HHZ</text>
        <id>RefPickID</id>
      </comment>
    </pick>
    <pick publicID="20191225.002057.80-AIC-CM.PRA .00.HHZ">
      <time>
        <value>2019-12-25T00:20:57.808393Z</value>
      </time>
      <waveformID networkCode="CM" stationCode="PRA " locationCode="00" channelCode="HHZ"/>
      <filterID>BW(4,1.00,10.00)</filterID>
      <methodID>AIC</methodID>
      <phaseHint>P</phaseHint>
      <evaluationMode>automatic</evaluationMode>
      <creationInfo>
        <agencyID>SGC2</agencyID>
        <author>EQTransformer</author>
        <creationTime>2020-09-04T17:12:36.755235Z</creationTime>
      </creationInfo>
    </pick>
    <pick publicID="20191225.002107.74-S-L2-CM.PRA .00.HHZ">
      <time>
        <value>2019-12-25T00:21:07.748393Z</value>
      </time>
      <waveformID networkCode="CM" stationCode="PRA " locationCode="00" channelCode="HHZ"/>
      <filterID>BW(4,1.00,10.00)</filterID>
      <methodID>L2-AIC</methodID>
      <phaseHint>S</phaseHint>
      <evaluationMode>automatic</evaluationMode>
      <creationInfo>
        <agencyID>SGC2</agencyID>
        <author>EQTransformer</author>
        <creationTime>2020-09-04T17:12:36.755365Z</creationTime>
      </creationInfo>
      <comment>
        <text>20191225.002057.80-AIC-CM.PRA .00.HHZ</text>
        <id>RefPickID</id>
      </comment>
    </pick>
    <pick publicID="20191225.002334.29-AIC-CM.PRA .00.HHZ">
      <time>
        <value>2019-12-25T00:23:34.298393Z</value>
      </time>
      <waveformID networkCode="CM" stationCode="PRA " locationCode="00" channelCode="HHZ"/>
      <filterID>BW(4,1.00,10.00)</filterID>
      <methodID>AIC</methodID>
      <phaseHint>P</phaseHint>
      <evaluationMode>automatic</evaluationMode>
      <creationInfo>
        <agencyID>SGC2</agencyID>
        <author>EQTransformer</author>
        <creationTime>2020-09-04T17:12:36.755452Z</creationTime>
      </creationInfo>
    </pick>
    <pick publicID="20191225.002344.30-S-L2-CM.PRA .00.HHZ">
      <time>
        <value>2019-12-25T00:23:44.308393Z</value>
      </time>
      <waveformID networkCode="CM" stationCode="PRA " locationCode="00" channelCode="HHZ"/>
      <filterID>BW(4,1.00,10.00)</filterID>
      <methodID>L2-AIC</methodID>
      <phaseHint>S</phaseHint>
      <evaluationMode>automatic</evaluationMode>
      <creationInfo>
        <agencyID>SGC2</agencyID>
        <author>EQTransformer</author>
        <creationTime>2020-09-04T17:12:36.755571Z</creationTime>
      </creationInfo>
      <comment>
        <text>20191225.002334.29-AIC-CM.PRA .00.HHZ</text>
        <id>RefPickID</id>
      </comment>
    </pick>
    <pick publicID="20191225.002353.00-AIC-CM.PRA .00.HHZ">
      <time>
        <value>2019-12-25T00:23:53.008393Z</value>
      </time>
      <waveformID networkCode="CM" stationCode="PRA " locationCode="00" channelCode="HHZ"/>
      <filterID>BW(4,1.00,10.00)</filterID>
      <methodID>AIC</methodID>
      <phaseHint>P</phaseHint>
      <evaluationMode>automatic</evaluationMode>
      <creationInfo>
        <agencyID>SGC2</agencyID>
        <author>EQTransformer</author>
        <creationTime>2020-09-04T17:12:36.755663Z</creationTime>
      </creationInfo>
    </pick>
    <pick publicID="20191225.002403.12-S-L2-CM.PRA .00.HHZ">
      <time>
        <value>2019-12-25T00:24:03.128393Z</value>
      </time>
      <waveformID networkCode="CM" stationCode="PRA " locationCode="00" channelCode="HHZ"/>
      <filterID>BW(4,1.00,10.00)</filterID>
      <methodID>L2-AIC</methodID>
      <phaseHint>S</phaseHint>
      <evaluationMode>automatic</evaluationMode>
      <creationInfo>
        <agencyID>SGC2</agencyID>
        <author>EQTransformer</author>
        <creationTime>2020-09-04T17:12:36.755778Z</creationTime>
      </creationInfo>
      <comment>
        <text>20191225.002353.00-AIC-CM.PRA .00.HHZ</text>
        <id>RefPickID</id>
      </comment>
    </pick>
    <pick publicID="20191225.002513.49-AIC-CM.PRA .00.HHZ">
      <time>
        <value>2019-12-25T00:25:13.498393Z</value>
      </time>
      <waveformID networkCode="CM" stationCode="PRA " locationCode="00" channelCode="HHZ"/>
      <filterID>BW(4,1.00,10.00)</filterID>
      <methodID>AIC</methodID>
      <phaseHint>P</phaseHint>
      <evaluationMode>automatic</evaluationMode>
      <creationInfo>
        <agencyID>SGC2</agencyID>
        <author>EQTransformer</author>
        <creationTime>2020-09-04T17:12:36.755870Z</creationTime>
      </creationInfo>
    </pick>
    <pick publicID="20191225.002524.41-S-L2-CM.PRA .00.HHZ">
      <time>
        <value>2019-12-25T00:25:24.418393Z</value>
      </time>
      <waveformID networkCode="CM" stationCode="PRA " locationCode="00" channelCode="HHZ"/>
      <filterID>BW(4,1.00,10.00)</filterID>
      <methodID>L2-AIC</methodID>
      <phaseHint>S</phaseHint>
      <evaluationMode>automatic</evaluationMode>
      <creationInfo>
        <agencyID>SGC2</agencyID>
        <author>EQTransformer</author>
        <creationTime>2020-09-04T17:12:36.755982Z</creationTime>
      </creationInfo>
      <comment>
        <text>20191225.002513.49-AIC-CM.PRA .00.HHZ</text>
        <id>RefPickID</id>
      </comment>
    </pick>
    <pick publicID="20191225.002835.03-AIC-CM.PRA .00.HHZ">
      <time>
        <value>2019-12-25T00:28:35.038393Z</value>
      </time>
      <waveformID networkCode="CM" stationCode="PRA " locationCode="00" channelCode="HHZ"/>
      <filterID>BW(4,1.00,10.00)</filterID>
      <methodID>AIC</methodID>
      <phaseHint>P</phaseHint>
      <evaluationMode>automatic</evaluationMode>
      <creationInfo>
        <agencyID>SGC2</agencyID>
        <author>EQTransformer</author>
        <creationTime>2020-09-04T17:12:36.756074Z</creationTime>
      </creationInfo>
    </pick>
    <pick publicID="20191225.002845.31-S-L2-CM.PRA .00.HHZ">
      <time>
        <value>2019-12-25T00:28:45.318393Z</value>
      </time>
      <waveformID networkCode="CM" stationCode="PRA " locationCode="00" channelCode="HHZ"/>
      <filterID>BW(4,1.00,10.00)</filterID>
      <methodID>L2-AIC</methodID>
      <phaseHint>S</phaseHint>
      <evaluationMode>automatic</evaluationMode>
      <creationInfo>
        <agencyID>SGC2</agencyID>
        <author>EQTransformer</author>
        <creationTime>2020-09-04T17:12:36.756194Z</creationTime>
      </creationInfo>
      <comment>
        <text>20191225.002835.03-AIC-CM.PRA .00.HHZ</text>
        <id>RefPickID</id>
      </comment>
    </pick>
    <pick publicID="20191225.003118.56-AIC-CM.PRA .00.HHZ">
      <time>
        <value>2019-12-25T00:31:18.568393Z</value>
      </time>
      <waveformID networkCode="CM" stationCode="PRA " locationCode="00" channelCode="HHZ"/>
      <filterID>BW(4,1.00,10.00)</filterID>
      <methodID>AIC</methodID>
      <phaseHint>P</phaseHint>
      <evaluationMode>automatic</evaluationMode>
      <creationInfo>
        <agencyID>SGC2</agencyID>
        <author>EQTransformer</author>
        <creationTime>2020-09-04T17:12:36.756286Z</creationTime>
      </creationInfo>
    </pick>
    <pick publicID="20191225.003128.61-S-L2-CM.PRA .00.HHZ">
      <time>
        <value>2019-12-25T00:31:28.618393Z</value>
      </time>
      <waveformID networkCode="CM" stationCode="PRA " locationCode="00" channelCode="HHZ"/>
      <filterID>BW(4,1.00,10.00)</filterID>
      <methodID>L2-AIC</methodID>
      <phaseHint>S</phaseHint>
      <evaluationMode>automatic</evaluationMode>
      <creationInfo>
        <agencyID>SGC2</agencyID>
        <author>EQTransformer</author>
        <creationTime>2020-09-04T17:12:36.756393Z</creationTime>
      </creationInfo>
      <comment>
        <text>20191225.003118.56-AIC-CM.PRA .00.HHZ</text>
        <id>RefPickID</id>
      </comment>
    </pick>
    <pick publicID="20191225.003344.42-AIC-CM.PRA .00.HHZ">
      <time>
        <value>2019-12-25T00:33:44.428393Z</value>
      </time>
      <waveformID networkCode="CM" stationCode="PRA " locationCode="00" channelCode="HHZ"/>
      <filterID>BW(4,1.00,10.00)</filterID>
      <methodID>AIC</methodID>
      <phaseHint>P</phaseHint>
      <evaluationMode>automatic</evaluationMode>
      <creationInfo>
        <agencyID>SGC2</agencyID>
        <author>EQTransformer</author>
        <creationTime>2020-09-04T17:12:36.756484Z</creationTime>
      </creationInfo>
    </pick>
    <pick publicID="20191225.003354.50-S-L2-CM.PRA .00.HHZ">
      <time>
