<?xml version="1.0" encoding="UTF-8"?>
<seiscomp xmlns="http://geofon.gfz-potsdam.de/ns/seiscomp3-schema/0.10" version="0.10">
  <EventParameters>
    <pick publicID="20200529.033824.02-AIC-CM.VIL.20.EHZ">
      <time>
        <value>2020-05-29T03:38:24.020000Z</value>
      </time>
      <waveformID networkCode="CM" stationCode="VIL" locationCode="20" channelCode="EHZ"/>
      <filterID>BW(4,1.00,10.00)</filterID>
      <methodID>AIC</methodID>
      <phaseHint>P</phaseHint>
      <evaluationMode>automatic</evaluationMode>
      <creationInfo>
        <agencyID>SGC2</agencyID>
        <author>PhaseNet</author>
        <creationTime>2020-06-19T18:43:09.306839Z</creationTime>
      </creationInfo>
    </pick>
    <pick publicID="20200529.033834.76-S-L2-CM.VIL.20.EHZ">
      <time>
        <value>2020-05-29T03:38:34.760000Z</value>
      </time>
      <waveformID networkCode="CM" stationCode="VIL" locationCode="20" channelCode="EHZ"/>
      <filterID>BW(4,1.00,10.00)</filterID>
      <methodID>L2-AIC</methodID>
      <phaseHint>S</phaseHint>
      <evaluationMode>automatic</evaluationMode>
      <creationInfo>
        <agencyID>SGC2</agencyID>
        <author>PhaseNet</author>
        <creationTime>2020-06-19T18:43:09.306972Z</creationTime>
      </creationInfo>
      <comment>
        <text>20200529.033824.02-AIC-CM.VIL.20.EHZ</text>
        <id>RefPickID</id>
      </comment>
    </pick>
    <pick publicID="20200529.033835.28-S-L2-CM.VIL.20.EHZ">
      <time>
        <value>2020-05-29T03:38:35.280000Z</value>
      </time>
      <waveformID networkCode="CM" stationCode="VIL" locationCode="20" channelCode="EHZ"/>
      <filterID>BW(4,1.00,10.00)</filterID>
      <methodID>L2-AIC</methodID>
      <phaseHint>S</phaseHint>
      <evaluationMode>automatic</evaluationMode>
      <creationInfo>
        <agencyID>SGC2</agencyID>
        <author>PhaseNet</author>
        <creationTime>2020-06-19T18:43:09.307078Z</creationTime>
      </creationInfo>
      <comment>
        <text>20200529.033824.02-AIC-CM.VIL.20.EHZ</text>
        <id>RefPickID</id>
      </comment>
    </pick>
    <pick publicID="20200529.033814.64-AIC-CM.URMC.00.HHZ">
      <time>
        <value>2020-05-29T03:38:14.640000Z</value>
      </time>
      <waveformID networkCode="CM" stationCode="URMC" locationCode="00" channelCode="HHZ"/>
      <filterID>BW(4,1.00,10.00)</filterID>
      <methodID>AIC</methodID>
      <phaseHint>P</phaseHint>
      <evaluationMode>automatic</evaluationMode>
      <creationInfo>
        <agencyID>SGC2</agencyID>
        <author>PhaseNet</author>
        <creationTime>2020-06-19T18:43:09.307223Z</creationTime>
      </creationInfo>
    </pick>
    <pick publicID="20200529.033819.11-S-L2-CM.URMC.00.HHZ">
      <time>
        <value>2020-05-29T03:38:19.110000Z</value>
      </time>
      <waveformID networkCode="CM" stationCode="URMC" locationCode="00" channelCode="HHZ"/>
      <filterID>BW(4,1.00,10.00)</filterID>
      <methodID>L2-AIC</methodID>
      <phaseHint>S</phaseHint>
      <evaluationMode>automatic</evaluationMode>
      <creationInfo>
        <agencyID>SGC2</agencyID>
        <author>PhaseNet</author>
        <creationTime>2020-06-19T18:43:09.307326Z</creationTime>
      </creationInfo>
      <comment>
        <text>20200529.033814.64-AIC-CM.URMC.00.HHZ</text>
        <id>RefPickID</id>
      </comment>
    </pick>
    <pick publicID="20200529.033831.15-AIC-CM.CHI.00.HHZ">
      <time>
        <value>2020-05-29T03:38:31.150000Z</value>
      </time>
      <waveformID networkCode="CM" stationCode="CHI" locationCode="00" channelCode="HHZ"/>
      <filterID>BW(4,1.00,10.00)</filterID>
      <methodID>AIC</methodID>
      <phaseHint>P</phaseHint>
      <evaluationMode>automatic</evaluationMode>
      <creationInfo>
        <agencyID>SGC2</agencyID>
        <author>PhaseNet</author>
        <creationTime>2020-06-19T18:43:09.307467Z</creationTime>
      </creationInfo>
    </pick>
    <pick publicID="20200529.033822.08-AIC-CM.PRA.00.HHZ">
      <time>
        <value>2020-05-29T03:38:22.080000Z</value>
      </time>
      <waveformID networkCode="CM" stationCode="PRA" locationCode="00" channelCode="HHZ"/>
      <filterID>BW(4,1.00,10.00)</filterID>
      <methodID>AIC</methodID>
      <phaseHint>P</phaseHint>
      <evaluationMode>automatic</evaluationMode>
      <creationInfo>
        <agencyID>SGC2</agencyID>
        <author>PhaseNet</author>
        <creationTime>2020-06-19T18:43:09.307610Z</creationTime>
      </creationInfo>
    </pick>
    <pick publicID="20200529.033832.37-S-L2-CM.PRA.00.HHZ">
      <time>
        <value>2020-05-29T03:38:32.370000Z</value>
      </time>
      <waveformID networkCode="CM" stationCode="PRA" locationCode="00" channelCode="HHZ"/>
      <filterID>BW(4,1.00,10.00)</filterID>
      <methodID>L2-AIC</methodID>
      <phaseHint>S</phaseHint>
      <evaluationMode>automatic</evaluationMode>
      <creationInfo>
        <agencyID>SGC2</agencyID>
        <author>PhaseNet</author>
        <creationTime>2020-06-19T18:43:09.307711Z</creationTime>
      </creationInfo>
      <comment>
        <text>20200529.033822.08-AIC-CM.PRA.00.HHZ</text>
        <id>RefPickID</id>
      </comment>
    </pick>
    <pick publicID="20200529.033833.22-AIC-CM.MACC.00.HHZ">
      <time>
        <value>2020-05-29T03:38:33.220000Z</value>
      </time>
      <waveformID networkCode="CM" stationCode="MACC" locationCode="00" channelCode="HHZ"/>
      <filterID>BW(4,1.00,10.00)</filterID>
      <methodID>AIC</methodID>
      <phaseHint>P</phaseHint>
      <evaluationMode>automatic</evaluationMode>
      <creationInfo>
        <agencyID>SGC2</agencyID>
        <author>PhaseNet</author>
        <creationTime>2020-06-19T18:43:09.307850Z</creationTime>
      </creationInfo>
    </pick>
    <pick publicID="20200529.033851.20-S-L2-CM.MACC.00.HHZ">
      <time>
        <value>2020-05-29T03:38:51.200000Z</value>
      </time>
      <waveformID networkCode="CM" stationCode="MACC" locationCode="00" channelCode="HHZ"/>
      <filterID>BW(4,1.00,10.00)</filterID>
      <methodID>L2-AIC</methodID>
      <phaseHint>S</phaseHint>
      <evaluationMode>automatic</evaluationMode>
      <creationInfo>
        <agencyID>SGC2</agencyID>
        <author>PhaseNet</author>
        <creationTime>2020-06-19T18:43:09.307949Z</creationTime>
      </creationInfo>
      <comment>
        <text>20200529.033833.22-AIC-CM.MACC.00.HHZ</text>
        <id>RefPickID</id>
      </comment>
    </pick>
    <pick publicID="20200529.033805.17-AIC-CM.BET.20.EHZ">
      <time>
        <value>2020-05-29T03:38:05.170000Z</value>
      </time>
      <waveformID networkCode="CM" stationCode="BET" locationCode="20" channelCode="EHZ"/>
      <filterID>BW(4,1.00,10.00)</filterID>
      <methodID>AIC</methodID>
      <phaseHint>P</phaseHint>
      <evaluationMode>automatic</evaluationMode>
      <creationInfo>
        <agencyID>SGC2</agencyID>
        <author>PhaseNet</author>
        <creationTime>2020-06-19T18:43:09.308086Z</creationTime>
      </creationInfo>
    </pick>
    <pick publicID="20200529.033835.46-AIC-CM.BET.20.EHZ">
      <time>
        <value>2020-05-29T03:38:35.460000Z</value>
      </time>
      <waveformID networkCode="CM" stationCode="BET" locationCode="20" channelCode="EHZ"/>
      <filterID>BW(4,1.00,10.00)</filterID>
      <methodID>AIC</methodID>
      <phaseHint>P</phaseHint>
      <evaluationMode>automatic</evaluationMode>
      <creationInfo>
        <agencyID>SGC2</agencyID>
        <author>PhaseNet</author>
        <creationTime>2020-06-19T18:43:09.308183Z</creationTime>
      </creationInfo>
    </pick>
    <pick publicID="20200529.033855.28-S-L2-CM.BET.20.EHZ">
      <time>
        <value>2020-05-29T03:38:55.280000Z</value>
      </time>
      <waveformID networkCode="CM" stationCode="BET" locationCode="20" channelCode="EHZ"/>
      <filterID>BW(4,1.00,10.00)</filterID>
      <methodID>L2-AIC</methodID>
      <phaseHint>S</phaseHint>
      <evaluationMode>automatic</evaluationMode>
      <creationInfo>
        <agencyID>SGC2</agencyID>
        <author>PhaseNet</author>
        <creationTime>2020-06-19T18:43:09.308280Z</creationTime>
      </creationInfo>
      <comment>
        <text>20200529.033835.46-AIC-CM.BET.20.EHZ</text>
        <id>RefPickID</id>
      </comment>
    </pick>
    <pick publicID="20200529.033812.22-AIC-CM.MARO.00.HHZ">
      <time>
        <value>2020-05-29T03:38:12.220000Z</value>
      </time>
      <waveformID networkCode="CM" stationCode="MARO" locationCode="00" channelCode="HHZ"/>
      <filterID>BW(4,1.00,10.00)</filterID>
      <methodID>AIC</methodID>
      <phaseHint>P</phaseHint>
      <evaluationMode>automatic</evaluationMode>
      <creationInfo>
        <agencyID>SGC2</agencyID>
        <author>PhaseNet</author>
        <creationTime>2020-06-19T18:43:09.308414Z</creationTime>
      </creationInfo>
    </pick>
    <pick publicID="20200529.033842.35-AIC-CM.MARO.00.HHZ">
      <time>
        <value>2020-05-29T03:38:42.350000Z</value>
      </time>
      <waveformID networkCode="CM" stationCode="MARO" locationCode="00" channelCode="HHZ"/>
      <filterID>BW(4,1.00,10.00)</filterID>
      <methodID>AIC</methodID>
      <phaseHint>P</phaseHint>
      <evaluationMode>automatic</evaluationMode>
      <creationInfo>
        <agencyID>SGC2</agencyID>
        <author>PhaseNet</author>
        <creationTime>2020-06-19T18:43:09.308510Z</creationTime>
      </creationInfo>
    </pick>
    <pick publicID="20200529.033907.60-S-L2-CM.MARO.00.HHZ">
      <time>
        <value>2020-05-29T03:39:07.600000Z</value>
      </time>
      <waveformID networkCode="CM" stationCode="MARO" locationCode="00" channelCode="HHZ"/>
      <filterID>BW(4,1.00,10.00)</filterID>
      <methodID>L2-AIC</methodID>
      <phaseHint>S</phaseHint>
      <evaluationMode>automatic</evaluationMode>
      <creationInfo>
        <agencyID>SGC2</agencyID>
        <author>PhaseNet</author>
        <creationTime>2020-06-19T18:43:09.308607Z</creationTime>
      </creationInfo>
      <comment>
        <text>20200529.033842.35-AIC-CM.MARO.00.HHZ</text>
        <id>RefPickID</id>
      </comment>
    </pick>
    <pick publicID="20200529.033841.51-AIC-CM.GARC.00.HHZ">
      <time>
        <value>2020-05-29T03:38:41.510000Z</value>
      </time>
      <waveformID networkCode="CM" stationCode="GARC" locationCode="00" channelCode="HHZ"/>
      <filterID>BW(4,1.00,10.00)</filterID>
      <methodID>AIC</methodID>
      <phaseHint>P</phaseHint>
      <evaluationMode>automatic</evaluationMode>
      <creationInfo>
        <agencyID>SGC2</agencyID>
        <author>PhaseNet</author>
        <creationTime>2020-06-19T18:43:09.308754Z</creationTime>
      </creationInfo>
    </pick>
    <pick publicID="20200529.033904.82-S-L2-CM.GARC.00.HHZ">
      <time>
        <value>2020-05-29T03:39:04.820000Z</value>
      </time>
      <waveformID networkCode="CM" stationCode="GARC" locationCode="00" channelCode="HHZ"/>
      <filterID>BW(4,1.00,10.00)</filterID>
      <methodID>L2-AIC</methodID>
      <phaseHint>S</phaseHint>
      <evaluationMode>automatic</evaluationMode>
      <creationInfo>
        <agencyID>SGC2</agencyID>
        <author>PhaseNet</author>
        <creationTime>2020-06-19T18:43:09.308855Z</creationTime>
      </creationInfo>
      <comment>
        <text>20200529.033841.51-AIC-CM.GARC.00.HHZ</text>
        <id>RefPickID</id>
      </comment>
    </pick>
    <pick publicID="20200529.033840.64-AIC-CM.PIRM.00.HHZ">
      <time>
        <value>2020-05-29T03:38:40.640000Z</value>
      </time>
      <waveformID networkCode="CM" stationCode="PIRM" locationCode="00" channelCode="HHZ"/>
      <filterID>BW(4,1.00,10.00)</filterID>
      <methodID>AIC</methodID>
      <phaseHint>P</phaseHint>
      <evaluationMode>automatic</evaluationMode>
      <creationInfo>
        <agencyID>SGC2</agencyID>
        <author>PhaseNet</author>
        <creationTime>2020-06-19T18:43:09.308991Z</creationTime>
      </creationInfo>
    </pick>
    <pick publicID="20200529.033903.85-S-L2-CM.PIRM.00.HHZ">
      <time>
        <value>2020-05-29T03:39:03.850000Z</value>
      </time>
      <waveformID networkCode="CM" stationCode="PIRM" locationCode="00" channelCode="HHZ"/>
      <filterID>BW(4,1.00,10.00)</filterID>
      <methodID>L2-AIC</methodID>
      <phaseHint>S</phaseHint>
      <evaluationMode>automatic</evaluationMode>
      <creationInfo>
        <agencyID>SGC2</agencyID>
        <author>PhaseNet</author>
        <creationTime>2020-06-19T18:43:09.309089Z</creationTime>
      </creationInfo>
      <comment>
        <text>20200529.033840.64-AIC-CM.PIRM.00.HHZ</text>
        <id>RefPickID</id>
      </comment>
    </pick>
    <pick publicID="20200529.033839.09-AIC-CM.BELO.00.HHZ">
      <time>
        <value>2020-05-29T03:38:39.090000Z</value>
      </time>
      <waveformID networkCode="CM" stationCode="BELO" locationCode="00" channelCode="HHZ"/>
      <filterID>BW(4,1.00,10.00)</filterID>
      <methodID>AIC</methodID>
      <phaseHint>P</phaseHint>
      <evaluationMode>automatic</evaluationMode>
      <creationInfo>
        <agencyID>SGC2</agencyID>
        <author>PhaseNet</author>
        <creationTime>2020-06-19T18:43:09.309223Z</creationTime>
      </creationInfo>
    </pick>
    <pick publicID="20200529.033903.47-S-L2-CM.BELO.00.HHZ">
      <time>
        <value>2020-05-29T03:39:03.470000Z</value>
      </time>
      <waveformID networkCode="CM" stationCode="BELO" locationCode="00" channelCode="HHZ"/>
      <filterID>BW(4,1.00,10.00)</filterID>
      <methodID>L2-AIC</methodID>
      <phaseHint>S</phaseHint>
      <evaluationMode>automatic</evaluationMode>
      <creationInfo>
        <agencyID>SGC2</agencyID>
        <author>PhaseNet</author>
        <creationTime>2020-06-19T18:43:09.309321Z</creationTime>
      </creationInfo>
      <comment>
        <text>20200529.033839.09-AIC-CM.BELO.00.HHZ</text>
        <id>RefPickID</id>
      </comment>
    </pick>
    <pick publicID="20200529.033846.58-AIC-CM.NOR.00.HHZ">
      <time>
        <value>2020-05-29T03:38:46.580000Z</value>
      </time>
      <waveformID networkCode="CM" stationCode="NOR" locationCode="00" channelCode="HHZ"/>
      <filterID>BW(4,1.00,10.00)</filterID>
      <methodID>AIC</methodID>
      <phaseHint>P</phaseHint>
      <evaluationMode>automatic</evaluationMode>
      <creationInfo>
        <agencyID>SGC2</agencyID>
        <author>PhaseNet</author>
        <creationTime>2020-06-19T18:43:09.309455Z</creationTime>
      </creationInfo>
    </pick>
    <pick publicID="20200529.033914.74-S-L2-CM.NOR.00.HHZ">
      <time>
        <value>2020-05-29T03:39:14.740000Z</value>
      </time>
      <waveformID networkCode="CM" stationCode="NOR" locationCode="00" channelCode="HHZ"/>
      <filterID>BW(4,1.00,10.00)</filterID>
      <methodID>L2-AIC</methodID>
      <phaseHint>S</phaseHint>
      <evaluationMode>automatic</evaluationMode>
      <creationInfo>
        <agencyID>SGC2</agencyID>
        <author>PhaseNet</author>
        <creationTime>2020-06-19T18:43:09.309551Z</creationTime>
      </creationInfo>
      <comment>
        <text>20200529.033846.58-AIC-CM.NOR.00.HHZ</text>
        <id>RefPickID</id>
      </comment>
    </pick>
    <pick publicID="20200529.033845.52-AIC-CM.GUY2C.00.HHZ">
      <time>
        <value>2020-05-29T03:38:45.520000Z</value>
      </time>
      <waveformID networkCode="CM" stationCode="GUY2C" locationCode="00" channelCode="HHZ"/>
      <filterID>BW(4,1.00,10.00)</filterID>
      <methodID>AIC</methodID>
      <phaseHint>P</phaseHint>
      <evaluationMode>automatic</evaluationMode>
      <creationInfo>
        <agencyID>SGC2</agencyID>
        <author>PhaseNet</author>
        <creationTime>2020-06-19T18:43:09.309685Z</creationTime>
      </creationInfo>
    </pick>
    <pick publicID="20200529.033912.69-S-L2-CM.GUY2C.00.HHZ">
      <time>
        <value>2020-05-29T03:39:12.690000Z</value>
      </time>
      <waveformID networkCode="CM" stationCode="GUY2C" locationCode="00" channelCode="HHZ"/>
      <filterID>BW(4,1.00,10.00)</filterID>
      <methodID>L2-AIC</methodID>
      <phaseHint>S</phaseHint>
      <evaluationMode>automatic</evaluationMode>
      <creationInfo>
        <agencyID>SGC2</agencyID>
        <author>PhaseNet</author>
        <creationTime>2020-06-19T18:43:09.309782Z</creationTime>
      </creationInfo>
      <comment>
        <text>20200529.033845.52-AIC-CM.GUY2C.00.HHZ</text>
        <id>RefPickID</id>
      </comment>
    </pick>
    <pick publicID="20200529.033853.64-AIC-CM.COBO.00.HHZ">
      <time>
        <value>2020-05-29T03:38:53.640000Z</value>
      </time>
      <waveformID networkCode="CM" stationCode="COBO" locationCode="00" channelCode="HHZ"/>
      <filterID>BW(4,1.00,10.00)</filterID>
      <methodID>AIC</methodID>
      <phaseHint>P</phaseHint>
      <evaluationMode>automatic</evaluationMode>
      <creationInfo>
        <agencyID>SGC2</agencyID>
        <author>PhaseNet</author>
        <creationTime>2020-06-19T18:43:09.309916Z</creationTime>
      </creationInfo>
    </pick>
    <pick publicID="20200529.033926.62-S-L2-CM.COBO.00.HHZ">
      <time>
        <value>2020-05-29T03:39:26.620000Z</value>
      </time>
      <waveformID networkCode="CM" stationCode="COBO" locationCode="00" channelCode="HHZ"/>
      <filterID>BW(4,1.00,10.00)</filterID>
      <methodID>L2-AIC</methodID>
      <phaseHint>S</phaseHint>
      <evaluationMode>automatic</evaluationMode>
      <creationInfo>
        <agencyID>SGC2</agencyID>
        <author>PhaseNet</author>
        <creationTime>2020-06-19T18:43:09.310012Z</creationTime>
      </creationInfo>
      <comment>
        <text>20200529.033853.64-AIC-CM.COBO.00.HHZ</text>
        <id>RefPickID</id>
      </comment>
    </pick>
    <pick publicID="20200529.033851.70-AIC-CM.JAMC.00.HHZ">
      <time>
        <value>2020-05-29T03:38:51.700000Z</value>
      </time>
      <waveformID networkCode="CM" stationCode="JAMC" locationCode="00" channelCode="HHZ"/>
      <filterID>BW(4,1.00,10.00)</filterID>
      <methodID>AIC</methodID>
      <phaseHint>P</phaseHint>
      <evaluationMode>automatic</evaluationMode>
      <creationInfo>
        <agencyID>SGC2</agencyID>
        <author>PhaseNet</author>
        <creationTime>2020-06-19T18:43:09.310146Z</creationTime>
      </creationInfo>
    </pick>
    <pick publicID="20200529.033852.59-AIC-CM.PAL.00.HHZ">
      <time>
        <value>2020-05-29T03:38:52.590000Z</value>
      </time>
      <waveformID networkCode="CM" stationCode="PAL" locationCode="00" channelCode="HHZ"/>
      <filterID>BW(4,1.00,10.00)</filterID>
      <methodID>AIC</methodID>
      <phaseHint>P</phaseHint>
      <evaluationMode>automatic</evaluationMode>
      <creationInfo>
        <agencyID>SGC2</agencyID>
        <author>PhaseNet</author>
        <creationTime>2020-06-19T18:43:09.310282Z</creationTime>
      </creationInfo>
    </pick>
    <pick publicID="20200529.033926.35-S-L2-CM.PAL.00.HHZ">
      <time>
        <value>2020-05-29T03:39:26.350000Z</value>
      </time>
      <waveformID networkCode="CM" stationCode="PAL" locationCode="00" channelCode="HHZ"/>
      <filterID>BW(4,1.00,10.00)</filterID>
      <methodID>L2-AIC</methodID>
      <phaseHint>S</phaseHint>
      <evaluationMode>automatic</evaluationMode>
      <creationInfo>
        <agencyID>SGC2</agencyID>
        <author>PhaseNet</author>
        <creationTime>2020-06-19T18:43:09.310379Z</creationTime>
      </creationInfo>
      <comment>
        <text>20200529.033852.59-AIC-CM.PAL.00.HHZ</text>
        <id>RefPickID</id>
      </comment>
    </pick>
    <pick publicID="20200529.033850.69-AIC-CM.FLO2.00.HHZ">
      <time>
        <value>2020-05-29T03:38:50.690000Z</value>
      </time>
      <waveformID networkCode="CM" stationCode="FLO2" locationCode="00" channelCode="HHZ"/>
      <filterID>BW(4,1.00,10.00)</filterID>
      <methodID>AIC</methodID>
      <phaseHint>P</phaseHint>
      <evaluationMode>automatic</evaluationMode>
