<?xml version="1.0" encoding="UTF-8"?>
<seiscomp xmlns="http://geofon.gfz-potsdam.de/ns/seiscomp3-schema/0.10" version="0.10">
  <EventParameters>
    <pick publicID="20200529.033839.02-AIC-CM.VIL.20.EHZ">
      <time>
        <value>2020-05-29T03:38:39.020000Z</value>
      </time>
      <waveformID networkCode="CM" stationCode="VIL" locationCode="20" channelCode="EHZ"/>
      <filterID>BW(4,1.00,10.00)</filterID>
      <methodID>AIC</methodID>
      <phaseHint>P</phaseHint>
      <evaluationMode>automatic</evaluationMode>
      <creationInfo>
        <agencyID>SGC2</agencyID>
        <author>PhaseNet</author>
        <creationTime>2020-06-19T15:35:13.561112Z</creationTime>
      </creationInfo>
    </pick>
    <pick publicID="20200529.033849.76-S-L2-CM.VIL.20.EHZ">
      <time>
        <value>2020-05-29T03:38:49.760000Z</value>
      </time>
      <waveformID networkCode="CM" stationCode="VIL" locationCode="20" channelCode="EHZ"/>
      <filterID>BW(4,1.00,10.00)</filterID>
      <methodID>L2-AIC</methodID>
      <phaseHint>S</phaseHint>
      <evaluationMode>automatic</evaluationMode>
      <creationInfo>
        <agencyID>SGC2</agencyID>
        <author>PhaseNet</author>
        <creationTime>2020-06-19T15:35:13.561192Z</creationTime>
      </creationInfo>
      <comment>
        <text>20200529.033839.02-AIC-CM.VIL.20.EHZ</text>
        <id>RefPickID</id>
      </comment>
    </pick>
    <pick publicID="20200529.033850.28-S-L2-CM.VIL.20.EHZ">
      <time>
        <value>2020-05-29T03:38:50.280000Z</value>
      </time>
      <waveformID networkCode="CM" stationCode="VIL" locationCode="20" channelCode="EHZ"/>
      <filterID>BW(4,1.00,10.00)</filterID>
      <methodID>L2-AIC</methodID>
      <phaseHint>S</phaseHint>
      <evaluationMode>automatic</evaluationMode>
      <creationInfo>
        <agencyID>SGC2</agencyID>
        <author>PhaseNet</author>
        <creationTime>2020-06-19T15:35:13.561266Z</creationTime>
      </creationInfo>
      <comment>
        <text>20200529.033839.02-AIC-CM.VIL.20.EHZ</text>
        <id>RefPickID</id>
      </comment>
    </pick>
    <pick publicID="20200529.033829.64-AIC-CM.URMC.00.HHZ">
      <time>
        <value>2020-05-29T03:38:29.640000Z</value>
      </time>
      <waveformID networkCode="CM" stationCode="URMC" locationCode="00" channelCode="HHZ"/>
      <filterID>BW(4,1.00,10.00)</filterID>
      <methodID>AIC</methodID>
      <phaseHint>P</phaseHint>
      <evaluationMode>automatic</evaluationMode>
      <creationInfo>
        <agencyID>SGC2</agencyID>
        <author>PhaseNet</author>
        <creationTime>2020-06-19T15:35:13.561386Z</creationTime>
      </creationInfo>
    </pick>
    <pick publicID="20200529.033834.11-S-L2-CM.URMC.00.HHZ">
      <time>
        <value>2020-05-29T03:38:34.110000Z</value>
      </time>
      <waveformID networkCode="CM" stationCode="URMC" locationCode="00" channelCode="HHZ"/>
      <filterID>BW(4,1.00,10.00)</filterID>
      <methodID>L2-AIC</methodID>
      <phaseHint>S</phaseHint>
      <evaluationMode>automatic</evaluationMode>
      <creationInfo>
        <agencyID>SGC2</agencyID>
        <author>PhaseNet</author>
        <creationTime>2020-06-19T15:35:13.561474Z</creationTime>
      </creationInfo>
      <comment>
        <text>20200529.033829.64-AIC-CM.URMC.00.HHZ</text>
        <id>RefPickID</id>
      </comment>
    </pick>
    <pick publicID="20200529.033846.15-AIC-CM.CHI.00.HHZ">
      <time>
        <value>2020-05-29T03:38:46.150000Z</value>
      </time>
      <waveformID networkCode="CM" stationCode="CHI" locationCode="00" channelCode="HHZ"/>
      <filterID>BW(4,1.00,10.00)</filterID>
      <methodID>AIC</methodID>
      <phaseHint>P</phaseHint>
      <evaluationMode>automatic</evaluationMode>
      <creationInfo>
        <agencyID>SGC2</agencyID>
        <author>PhaseNet</author>
        <creationTime>2020-06-19T15:35:13.561576Z</creationTime>
      </creationInfo>
    </pick>
    <pick publicID="20200529.033837.08-AIC-CM.PRA.00.HHZ">
      <time>
        <value>2020-05-29T03:38:37.080000Z</value>
      </time>
      <waveformID networkCode="CM" stationCode="PRA" locationCode="00" channelCode="HHZ"/>
      <filterID>BW(4,1.00,10.00)</filterID>
      <methodID>AIC</methodID>
      <phaseHint>P</phaseHint>
      <evaluationMode>automatic</evaluationMode>
      <creationInfo>
        <agencyID>SGC2</agencyID>
        <author>PhaseNet</author>
        <creationTime>2020-06-19T15:35:13.561678Z</creationTime>
      </creationInfo>
    </pick>
    <pick publicID="20200529.033847.37-S-L2-CM.PRA.00.HHZ">
      <time>
        <value>2020-05-29T03:38:47.370000Z</value>
      </time>
      <waveformID networkCode="CM" stationCode="PRA" locationCode="00" channelCode="HHZ"/>
      <filterID>BW(4,1.00,10.00)</filterID>
      <methodID>L2-AIC</methodID>
      <phaseHint>S</phaseHint>
      <evaluationMode>automatic</evaluationMode>
      <creationInfo>
        <agencyID>SGC2</agencyID>
        <author>PhaseNet</author>
        <creationTime>2020-06-19T15:35:13.561749Z</creationTime>
      </creationInfo>
      <comment>
        <text>20200529.033837.08-AIC-CM.PRA.00.HHZ</text>
        <id>RefPickID</id>
      </comment>
    </pick>
    <pick publicID="20200529.033848.22-AIC-CM.MACC.00.HHZ">
      <time>
        <value>2020-05-29T03:38:48.220000Z</value>
      </time>
      <waveformID networkCode="CM" stationCode="MACC" locationCode="00" channelCode="HHZ"/>
      <filterID>BW(4,1.00,10.00)</filterID>
      <methodID>AIC</methodID>
      <phaseHint>P</phaseHint>
      <evaluationMode>automatic</evaluationMode>
      <creationInfo>
        <agencyID>SGC2</agencyID>
        <author>PhaseNet</author>
        <creationTime>2020-06-19T15:35:13.561875Z</creationTime>
      </creationInfo>
    </pick>
    <pick publicID="20200529.033906.20-S-L2-CM.MACC.00.HHZ">
      <time>
        <value>2020-05-29T03:39:06.200000Z</value>
      </time>
      <waveformID networkCode="CM" stationCode="MACC" locationCode="00" channelCode="HHZ"/>
      <filterID>BW(4,1.00,10.00)</filterID>
      <methodID>L2-AIC</methodID>
      <phaseHint>S</phaseHint>
      <evaluationMode>automatic</evaluationMode>
      <creationInfo>
        <agencyID>SGC2</agencyID>
        <author>PhaseNet</author>
        <creationTime>2020-06-19T15:35:13.561945Z</creationTime>
      </creationInfo>
      <comment>
        <text>20200529.033848.22-AIC-CM.MACC.00.HHZ</text>
        <id>RefPickID</id>
      </comment>
    </pick>
    <pick publicID="20200529.033820.17-AIC-CM.BET.20.EHZ">
      <time>
        <value>2020-05-29T03:38:20.170000Z</value>
      </time>
      <waveformID networkCode="CM" stationCode="BET" locationCode="20" channelCode="EHZ"/>
      <filterID>BW(4,1.00,10.00)</filterID>
      <methodID>AIC</methodID>
      <phaseHint>P</phaseHint>
      <evaluationMode>automatic</evaluationMode>
      <creationInfo>
        <agencyID>SGC2</agencyID>
        <author>PhaseNet</author>
        <creationTime>2020-06-19T15:35:13.562046Z</creationTime>
      </creationInfo>
    </pick>
    <pick publicID="20200529.033850.46-AIC-CM.BET.20.EHZ">
      <time>
        <value>2020-05-29T03:38:50.460000Z</value>
      </time>
      <waveformID networkCode="CM" stationCode="BET" locationCode="20" channelCode="EHZ"/>
      <filterID>BW(4,1.00,10.00)</filterID>
      <methodID>AIC</methodID>
      <phaseHint>P</phaseHint>
      <evaluationMode>automatic</evaluationMode>
      <creationInfo>
        <agencyID>SGC2</agencyID>
        <author>PhaseNet</author>
        <creationTime>2020-06-19T15:35:13.562115Z</creationTime>
      </creationInfo>
    </pick>
    <pick publicID="20200529.033910.28-S-L2-CM.BET.20.EHZ">
      <time>
        <value>2020-05-29T03:39:10.280000Z</value>
      </time>
      <waveformID networkCode="CM" stationCode="BET" locationCode="20" channelCode="EHZ"/>
      <filterID>BW(4,1.00,10.00)</filterID>
      <methodID>L2-AIC</methodID>
      <phaseHint>S</phaseHint>
      <evaluationMode>automatic</evaluationMode>
      <creationInfo>
        <agencyID>SGC2</agencyID>
        <author>PhaseNet</author>
        <creationTime>2020-06-19T15:35:13.562183Z</creationTime>
      </creationInfo>
      <comment>
        <text>20200529.033850.46-AIC-CM.BET.20.EHZ</text>
        <id>RefPickID</id>
      </comment>
    </pick>
    <pick publicID="20200529.033827.22-AIC-CM.MARO.00.HHZ">
      <time>
        <value>2020-05-29T03:38:27.220000Z</value>
      </time>
      <waveformID networkCode="CM" stationCode="MARO" locationCode="00" channelCode="HHZ"/>
      <filterID>BW(4,1.00,10.00)</filterID>
      <methodID>AIC</methodID>
      <phaseHint>P</phaseHint>
      <evaluationMode>automatic</evaluationMode>
      <creationInfo>
        <agencyID>SGC2</agencyID>
        <author>PhaseNet</author>
        <creationTime>2020-06-19T15:35:13.562282Z</creationTime>
      </creationInfo>
    </pick>
    <pick publicID="20200529.033857.35-AIC-CM.MARO.00.HHZ">
      <time>
        <value>2020-05-29T03:38:57.350000Z</value>
      </time>
      <waveformID networkCode="CM" stationCode="MARO" locationCode="00" channelCode="HHZ"/>
      <filterID>BW(4,1.00,10.00)</filterID>
      <methodID>AIC</methodID>
      <phaseHint>P</phaseHint>
      <evaluationMode>automatic</evaluationMode>
      <creationInfo>
        <agencyID>SGC2</agencyID>
        <author>PhaseNet</author>
        <creationTime>2020-06-19T15:35:13.562351Z</creationTime>
      </creationInfo>
    </pick>
    <pick publicID="20200529.033922.60-S-L2-CM.MARO.00.HHZ">
      <time>
        <value>2020-05-29T03:39:22.600000Z</value>
      </time>
      <waveformID networkCode="CM" stationCode="MARO" locationCode="00" channelCode="HHZ"/>
      <filterID>BW(4,1.00,10.00)</filterID>
      <methodID>L2-AIC</methodID>
      <phaseHint>S</phaseHint>
      <evaluationMode>automatic</evaluationMode>
      <creationInfo>
        <agencyID>SGC2</agencyID>
        <author>PhaseNet</author>
        <creationTime>2020-06-19T15:35:13.562420Z</creationTime>
      </creationInfo>
      <comment>
        <text>20200529.033857.35-AIC-CM.MARO.00.HHZ</text>
        <id>RefPickID</id>
      </comment>
    </pick>
    <pick publicID="20200529.033856.51-AIC-CM.GARC.00.HHZ">
      <time>
        <value>2020-05-29T03:38:56.510000Z</value>
      </time>
      <waveformID networkCode="CM" stationCode="GARC" locationCode="00" channelCode="HHZ"/>
      <filterID>BW(4,1.00,10.00)</filterID>
      <methodID>AIC</methodID>
      <phaseHint>P</phaseHint>
      <evaluationMode>automatic</evaluationMode>
      <creationInfo>
        <agencyID>SGC2</agencyID>
        <author>PhaseNet</author>
        <creationTime>2020-06-19T15:35:13.562518Z</creationTime>
      </creationInfo>
    </pick>
    <pick publicID="20200529.033919.82-S-L2-CM.GARC.00.HHZ">
      <time>
        <value>2020-05-29T03:39:19.820000Z</value>
      </time>
      <waveformID networkCode="CM" stationCode="GARC" locationCode="00" channelCode="HHZ"/>
      <filterID>BW(4,1.00,10.00)</filterID>
      <methodID>L2-AIC</methodID>
      <phaseHint>S</phaseHint>
      <evaluationMode>automatic</evaluationMode>
      <creationInfo>
        <agencyID>SGC2</agencyID>
        <author>PhaseNet</author>
        <creationTime>2020-06-19T15:35:13.562586Z</creationTime>
      </creationInfo>
      <comment>
        <text>20200529.033856.51-AIC-CM.GARC.00.HHZ</text>
        <id>RefPickID</id>
      </comment>
    </pick>
    <pick publicID="20200529.033855.64-AIC-CM.PIRM.00.HHZ">
      <time>
        <value>2020-05-29T03:38:55.640000Z</value>
      </time>
      <waveformID networkCode="CM" stationCode="PIRM" locationCode="00" channelCode="HHZ"/>
      <filterID>BW(4,1.00,10.00)</filterID>
      <methodID>AIC</methodID>
      <phaseHint>P</phaseHint>
      <evaluationMode>automatic</evaluationMode>
      <creationInfo>
        <agencyID>SGC2</agencyID>
        <author>PhaseNet</author>
        <creationTime>2020-06-19T15:35:13.562684Z</creationTime>
      </creationInfo>
    </pick>
    <pick publicID="20200529.033918.85-S-L2-CM.PIRM.00.HHZ">
      <time>
        <value>2020-05-29T03:39:18.850000Z</value>
      </time>
      <waveformID networkCode="CM" stationCode="PIRM" locationCode="00" channelCode="HHZ"/>
      <filterID>BW(4,1.00,10.00)</filterID>
      <methodID>L2-AIC</methodID>
      <phaseHint>S</phaseHint>
      <evaluationMode>automatic</evaluationMode>
      <creationInfo>
        <agencyID>SGC2</agencyID>
        <author>PhaseNet</author>
        <creationTime>2020-06-19T15:35:13.562754Z</creationTime>
      </creationInfo>
      <comment>
        <text>20200529.033855.64-AIC-CM.PIRM.00.HHZ</text>
        <id>RefPickID</id>
      </comment>
    </pick>
    <pick publicID="20200529.033854.09-AIC-CM.BELO.00.HHZ">
      <time>
        <value>2020-05-29T03:38:54.090000Z</value>
      </time>
      <waveformID networkCode="CM" stationCode="BELO" locationCode="00" channelCode="HHZ"/>
      <filterID>BW(4,1.00,10.00)</filterID>
      <methodID>AIC</methodID>
      <phaseHint>P</phaseHint>
      <evaluationMode>automatic</evaluationMode>
      <creationInfo>
        <agencyID>SGC2</agencyID>
        <author>PhaseNet</author>
        <creationTime>2020-06-19T15:35:13.562851Z</creationTime>
      </creationInfo>
    </pick>
    <pick publicID="20200529.033918.47-S-L2-CM.BELO.00.HHZ">
      <time>
        <value>2020-05-29T03:39:18.470000Z</value>
      </time>
      <waveformID networkCode="CM" stationCode="BELO" locationCode="00" channelCode="HHZ"/>
      <filterID>BW(4,1.00,10.00)</filterID>
      <methodID>L2-AIC</methodID>
      <phaseHint>S</phaseHint>
      <evaluationMode>automatic</evaluationMode>
      <creationInfo>
        <agencyID>SGC2</agencyID>
        <author>PhaseNet</author>
        <creationTime>2020-06-19T15:35:13.562919Z</creationTime>
      </creationInfo>
      <comment>
        <text>20200529.033854.09-AIC-CM.BELO.00.HHZ</text>
        <id>RefPickID</id>
      </comment>
    </pick>
    <pick publicID="20200529.033901.58-AIC-CM.NOR.00.HHZ">
      <time>
        <value>2020-05-29T03:39:01.580000Z</value>
      </time>
      <waveformID networkCode="CM" stationCode="NOR" locationCode="00" channelCode="HHZ"/>
      <filterID>BW(4,1.00,10.00)</filterID>
      <methodID>AIC</methodID>
      <phaseHint>P</phaseHint>
      <evaluationMode>automatic</evaluationMode>
      <creationInfo>
        <agencyID>SGC2</agencyID>
        <author>PhaseNet</author>
        <creationTime>2020-06-19T15:35:13.563016Z</creationTime>
      </creationInfo>
    </pick>
    <pick publicID="20200529.033929.74-S-L2-CM.NOR.00.HHZ">
      <time>
        <value>2020-05-29T03:39:29.740000Z</value>
      </time>
      <waveformID networkCode="CM" stationCode="NOR" locationCode="00" channelCode="HHZ"/>
      <filterID>BW(4,1.00,10.00)</filterID>
      <methodID>L2-AIC</methodID>
      <phaseHint>S</phaseHint>
      <evaluationMode>automatic</evaluationMode>
      <creationInfo>
        <agencyID>SGC2</agencyID>
        <author>PhaseNet</author>
        <creationTime>2020-06-19T15:35:13.563085Z</creationTime>
      </creationInfo>
      <comment>
        <text>20200529.033901.58-AIC-CM.NOR.00.HHZ</text>
        <id>RefPickID</id>
      </comment>
    </pick>
    <pick publicID="20200529.033900.52-AIC-CM.GUY2C.00.HHZ">
      <time>
        <value>2020-05-29T03:39:00.520000Z</value>
      </time>
      <waveformID networkCode="CM" stationCode="GUY2C" locationCode="00" channelCode="HHZ"/>
      <filterID>BW(4,1.00,10.00)</filterID>
      <methodID>AIC</methodID>
      <phaseHint>P</phaseHint>
      <evaluationMode>automatic</evaluationMode>
      <creationInfo>
        <agencyID>SGC2</agencyID>
        <author>PhaseNet</author>
        <creationTime>2020-06-19T15:35:13.563182Z</creationTime>
      </creationInfo>
    </pick>
    <pick publicID="20200529.033927.69-S-L2-CM.GUY2C.00.HHZ">
      <time>
        <value>2020-05-29T03:39:27.690000Z</value>
      </time>
      <waveformID networkCode="CM" stationCode="GUY2C" locationCode="00" channelCode="HHZ"/>
      <filterID>BW(4,1.00,10.00)</filterID>
      <methodID>L2-AIC</methodID>
      <phaseHint>S</phaseHint>
      <evaluationMode>automatic</evaluationMode>
      <creationInfo>
        <agencyID>SGC2</agencyID>
        <author>PhaseNet</author>
        <creationTime>2020-06-19T15:35:13.563251Z</creationTime>
      </creationInfo>
      <comment>
        <text>20200529.033900.52-AIC-CM.GUY2C.00.HHZ</text>
        <id>RefPickID</id>
      </comment>
    </pick>
    <pick publicID="20200529.033908.64-AIC-CM.COBO.00.HHZ">
      <time>
        <value>2020-05-29T03:39:08.640000Z</value>
      </time>
      <waveformID networkCode="CM" stationCode="COBO" locationCode="00" channelCode="HHZ"/>
      <filterID>BW(4,1.00,10.00)</filterID>
      <methodID>AIC</methodID>
      <phaseHint>P</phaseHint>
      <evaluationMode>automatic</evaluationMode>
      <creationInfo>
        <agencyID>SGC2</agencyID>
        <author>PhaseNet</author>
        <creationTime>2020-06-19T15:35:13.563361Z</creationTime>
      </creationInfo>
    </pick>
    <pick publicID="20200529.033941.62-S-L2-CM.COBO.00.HHZ">
      <time>
        <value>2020-05-29T03:39:41.620000Z</value>
      </time>
      <waveformID networkCode="CM" stationCode="COBO" locationCode="00" channelCode="HHZ"/>
      <filterID>BW(4,1.00,10.00)</filterID>
      <methodID>L2-AIC</methodID>
      <phaseHint>S</phaseHint>
      <evaluationMode>automatic</evaluationMode>
      <creationInfo>
        <agencyID>SGC2</agencyID>
        <author>PhaseNet</author>
        <creationTime>2020-06-19T15:35:13.563441Z</creationTime>
      </creationInfo>
      <comment>
        <text>20200529.033908.64-AIC-CM.COBO.00.HHZ</text>
        <id>RefPickID</id>
      </comment>
    </pick>
    <pick publicID="20200529.033906.70-AIC-CM.JAMC.00.HHZ">
      <time>
        <value>2020-05-29T03:39:06.700000Z</value>
      </time>
      <waveformID networkCode="CM" stationCode="JAMC" locationCode="00" channelCode="HHZ"/>
      <filterID>BW(4,1.00,10.00)</filterID>
      <methodID>AIC</methodID>
      <phaseHint>P</phaseHint>
      <evaluationMode>automatic</evaluationMode>
      <creationInfo>
        <agencyID>SGC2</agencyID>
        <author>PhaseNet</author>
        <creationTime>2020-06-19T15:35:13.563539Z</creationTime>
      </creationInfo>
    </pick>
    <pick publicID="20200529.033907.59-AIC-CM.PAL.00.HHZ">
      <time>
        <value>2020-05-29T03:39:07.590000Z</value>
      </time>
      <waveformID networkCode="CM" stationCode="PAL" locationCode="00" channelCode="HHZ"/>
      <filterID>BW(4,1.00,10.00)</filterID>
      <methodID>AIC</methodID>
      <phaseHint>P</phaseHint>
      <evaluationMode>automatic</evaluationMode>
      <creationInfo>
        <agencyID>SGC2</agencyID>
        <author>PhaseNet</author>
        <creationTime>2020-06-19T15:35:13.563638Z</creationTime>
      </creationInfo>
    </pick>
    <pick publicID="20200529.033941.35-S-L2-CM.PAL.00.HHZ">
      <time>
        <value>2020-05-29T03:39:41.350000Z</value>
      </time>
      <waveformID networkCode="CM" stationCode="PAL" locationCode="00" channelCode="HHZ"/>
      <filterID>BW(4,1.00,10.00)</filterID>
      <methodID>L2-AIC</methodID>
      <phaseHint>S</phaseHint>
      <evaluationMode>automatic</evaluationMode>
      <creationInfo>
        <agencyID>SGC2</agencyID>
        <author>PhaseNet</author>
        <creationTime>2020-06-19T15:35:13.563705Z</creationTime>
      </creationInfo>
      <comment>
        <text>20200529.033907.59-AIC-CM.PAL.00.HHZ</text>
        <id>RefPickID</id>
      </comment>
    </pick>
    <pick publicID="20200529.033905.69-AIC-CM.FLO2.00.HHZ">
      <time>
        <value>2020-05-29T03:39:05.690000Z</value>
      </time>
      <waveformID networkCode="CM" stationCode="FLO2" locationCode="00" channelCode="HHZ"/>
      <filterID>BW(4,1.00,10.00)</filterID>
      <methodID>AIC</methodID>
      <phaseHint>P</phaseHint>
      <evaluationMode>automatic</evaluationMode>
