<?xml version="1.0" encoding="UTF-8"?>
<seiscomp xmlns="http://geofon.gfz-potsdam.de/ns/seiscomp3-schema/0.11" version="0.11">
  <EventParameters>
    <pick publicID="20191225.050029.21-AIC-CM.BELO.00.HHE">
      <time>
        <value>2019-12-25T05:00:29.21Z</value>
      </time>
      <waveformID networkCode="CM" stationCode="BELO" locationCode="00" channelCode="HHE"/>
      <filterID>BW(4,1.00,10.00)</filterID>
      <methodID>AIC</methodID>
      <phaseHint>P</phaseHint>
      <evaluationMode>automatic</evaluationMode>
      <creationInfo>
        <agencyID>SGC2</agencyID>
        <author>PhaseNet</author>
        <creationTime>2020-08-11T21:36:52.040533Z</creationTime>
      </creationInfo>
    </pick>
    <pick publicID="20191225.050021.94-AIC-CM.CHI.00.HHE">
      <time>
        <value>2019-12-25T05:00:21.94Z</value>
      </time>
      <waveformID networkCode="CM" stationCode="CHI" locationCode="00" channelCode="HHE"/>
      <filterID>BW(4,1.00,10.00)</filterID>
      <methodID>AIC</methodID>
      <phaseHint>P</phaseHint>
      <evaluationMode>automatic</evaluationMode>
      <creationInfo>
        <agencyID>SGC2</agencyID>
        <author>PhaseNet</author>
        <creationTime>2020-08-11T21:36:52.040861Z</creationTime>
      </creationInfo>
    </pick>
    <pick publicID="20191225.050018.53-AIC-CM.CVER.00.HHE">
      <time>
        <value>2019-12-25T05:00:18.53Z</value>
      </time>
      <waveformID networkCode="CM" stationCode="CVER" locationCode="00" channelCode="HHE"/>
      <filterID>BW(4,1.00,10.00)</filterID>
      <methodID>AIC</methodID>
      <phaseHint>P</phaseHint>
      <evaluationMode>automatic</evaluationMode>
      <creationInfo>
        <agencyID>SGC2</agencyID>
        <author>PhaseNet</author>
        <creationTime>2020-08-11T21:36:52.041076Z</creationTime>
      </creationInfo>
    </pick>
    <pick publicID="20191225.050025.93-AIC-CM.TAPM.00.HHE">
      <time>
        <value>2019-12-25T05:00:25.93Z</value>
      </time>
      <waveformID networkCode="CM" stationCode="TAPM" locationCode="00" channelCode="HHE"/>
      <filterID>BW(4,1.00,10.00)</filterID>
      <methodID>AIC</methodID>
      <phaseHint>P</phaseHint>
      <evaluationMode>automatic</evaluationMode>
      <creationInfo>
        <agencyID>SGC2</agencyID>
        <author>PhaseNet</author>
        <creationTime>2020-08-11T21:36:52.04129Z</creationTime>
      </creationInfo>
    </pick>
    <pick publicID="20191225.050003.79-AIC-CM.URMC.00.HHE">
      <time>
        <value>2019-12-25T05:00:03.79Z</value>
      </time>
      <waveformID networkCode="CM" stationCode="URMC" locationCode="00" channelCode="HHE"/>
      <filterID>BW(4,1.00,10.00)</filterID>
      <methodID>AIC</methodID>
      <phaseHint>P</phaseHint>
      <evaluationMode>automatic</evaluationMode>
      <creationInfo>
        <agencyID>SGC2</agencyID>
        <author>PhaseNet</author>
        <creationTime>2020-08-11T21:36:52.041577Z</creationTime>
      </creationInfo>
    </pick>
    <pick publicID="20191225.050007.62-S-L2-CM.URMC.00.HHE">
      <time>
        <value>2019-12-25T05:00:07.62Z</value>
      </time>
      <waveformID networkCode="CM" stationCode="URMC" locationCode="00" channelCode="HHE"/>
      <filterID>BW(4,1.00,10.00)</filterID>
      <methodID>L2-AIC</methodID>
      <phaseHint>S</phaseHint>
      <evaluationMode>automatic</evaluationMode>
      <creationInfo>
        <agencyID>SGC2</agencyID>
        <author>PhaseNet</author>
        <creationTime>2020-08-11T21:36:52.041778Z</creationTime>
      </creationInfo>
      <comment>
        <text>20191225.050003.79-AIC-CM.URMC.00.HHE</text>
        <id>RefPickID</id>
      </comment>
    </pick>
    <pick publicID="20191225.050012.27-AIC-CM.PRA.00.HHE">
      <time>
        <value>2019-12-25T05:00:12.27Z</value>
      </time>
      <waveformID networkCode="CM" stationCode="PRA" locationCode="00" channelCode="HHE"/>
      <filterID>BW(4,1.00,10.00)</filterID>
      <methodID>AIC</methodID>
      <phaseHint>P</phaseHint>
      <evaluationMode>automatic</evaluationMode>
      <creationInfo>
        <agencyID>SGC2</agencyID>
        <author>PhaseNet</author>
        <creationTime>2020-08-11T21:36:52.041983Z</creationTime>
      </creationInfo>
    </pick>
    <pick publicID="20191225.050022.39-S-L2-CM.PRA.00.HHE">
      <time>
        <value>2019-12-25T05:00:22.39Z</value>
      </time>
      <waveformID networkCode="CM" stationCode="PRA" locationCode="00" channelCode="HHE"/>
      <filterID>BW(4,1.00,10.00)</filterID>
      <methodID>L2-AIC</methodID>
      <phaseHint>S</phaseHint>
      <evaluationMode>automatic</evaluationMode>
      <creationInfo>
        <agencyID>SGC2</agencyID>
        <author>PhaseNet</author>
        <creationTime>2020-08-11T21:36:52.042144Z</creationTime>
      </creationInfo>
      <comment>
        <text>20191225.050012.27-AIC-CM.PRA.00.HHE</text>
        <id>RefPickID</id>
      </comment>
    </pick>
    <pick publicID="20191225.050051.06-S-L2-CM.BELO.00.HHE">
      <time>
        <value>2019-12-25T05:00:51.06Z</value>
      </time>
      <waveformID networkCode="CM" stationCode="BELO" locationCode="00" channelCode="HHE"/>
      <filterID>BW(4,1.00,10.00)</filterID>
      <methodID>L2-AIC</methodID>
      <phaseHint>S</phaseHint>
      <evaluationMode>automatic</evaluationMode>
      <creationInfo>
        <agencyID>SGC2</agencyID>
        <author>PhaseNet</author>
        <creationTime>2020-08-11T21:36:52.04235Z</creationTime>
      </creationInfo>
      <comment>
        <text>20191225.050029.21-AIC-CM.BELO.00.HHE</text>
        <id>RefPickID</id>
      </comment>
    </pick>
    <pick publicID="20191225.050033.64-S-L2-CM.CVER.00.HHE">
      <time>
        <value>2019-12-25T05:00:33.64Z</value>
      </time>
      <waveformID networkCode="CM" stationCode="CVER" locationCode="00" channelCode="HHE"/>
      <filterID>BW(4,1.00,10.00)</filterID>
      <methodID>L2-AIC</methodID>
      <phaseHint>S</phaseHint>
      <evaluationMode>automatic</evaluationMode>
      <creationInfo>
        <agencyID>SGC2</agencyID>
        <author>PhaseNet</author>
        <creationTime>2020-08-11T21:36:52.04258Z</creationTime>
      </creationInfo>
      <comment>
        <text>20191225.050018.53-AIC-CM.CVER.00.HHE</text>
        <id>RefPickID</id>
      </comment>
    </pick>
    <pick publicID="20191225.050047.97-S-L2-CM.TAPM.00.HHE">
      <time>
        <value>2019-12-25T05:00:47.97Z</value>
      </time>
      <waveformID networkCode="CM" stationCode="TAPM" locationCode="00" channelCode="HHE"/>
      <filterID>BW(4,1.00,10.00)</filterID>
      <methodID>L2-AIC</methodID>
      <phaseHint>S</phaseHint>
      <evaluationMode>automatic</evaluationMode>
      <creationInfo>
        <agencyID>SGC2</agencyID>
        <author>PhaseNet</author>
        <creationTime>2020-08-11T21:36:52.042826Z</creationTime>
      </creationInfo>
      <comment>
        <text>20191225.050025.93-AIC-CM.TAPM.00.HHE</text>
        <id>RefPickID</id>
      </comment>
    </pick>
    <pick publicID="20191225.050041.76-S-L2-CM.CHI.00.HHE">
      <time>
        <value>2019-12-25T05:00:41.76Z</value>
      </time>
      <waveformID networkCode="CM" stationCode="CHI" locationCode="00" channelCode="HHE"/>
      <filterID>BW(4,1.00,10.00)</filterID>
      <methodID>L2-AIC</methodID>
      <phaseHint>S</phaseHint>
      <evaluationMode>automatic</evaluationMode>
      <creationInfo>
        <agencyID>SGC2</agencyID>
        <author>PhaseNet</author>
        <creationTime>2020-08-11T21:36:52.043155Z</creationTime>
      </creationInfo>
      <comment>
        <text>20191225.050021.94-AIC-CM.CHI.00.HHE</text>
        <id>RefPickID</id>
      </comment>
    </pick>
    <pick publicID="20191225.050119.39-AIC-CM.URMC.00.HHE">
      <time>
        <value>2019-12-25T05:01:19.39Z</value>
      </time>
      <waveformID networkCode="CM" stationCode="URMC" locationCode="00" channelCode="HHE"/>
      <filterID>BW(4,1.00,10.00)</filterID>
      <methodID>AIC</methodID>
      <phaseHint>P</phaseHint>
      <evaluationMode>automatic</evaluationMode>
      <creationInfo>
        <agencyID>SGC2</agencyID>
        <author>PhaseNet</author>
        <creationTime>2020-08-11T21:36:52.043436Z</creationTime>
      </creationInfo>
    </pick>
    <pick publicID="20191225.050101.71-S-L2-CM.URMC.00.HHE">
      <time>
        <value>2019-12-25T05:01:01.71Z</value>
      </time>
      <waveformID networkCode="CM" stationCode="URMC" locationCode="00" channelCode="HHE"/>
      <filterID>BW(4,1.00,10.00)</filterID>
      <methodID>L2-AIC</methodID>
      <phaseHint>S</phaseHint>
      <evaluationMode>automatic</evaluationMode>
      <creationInfo>
        <agencyID>SGC2</agencyID>
        <author>PhaseNet</author>
        <creationTime>2020-08-11T21:36:52.043583Z</creationTime>
      </creationInfo>
      <comment>
        <text>20191225.050119.39-AIC-CM.URMC.00.HHE</text>
        <id>RefPickID</id>
      </comment>
    </pick>
    <pick publicID="20191225.050123.16-S-L2-CM.URMC.00.HHE">
      <time>
        <value>2019-12-25T05:01:23.16Z</value>
      </time>
      <waveformID networkCode="CM" stationCode="URMC" locationCode="00" channelCode="HHE"/>
      <filterID>BW(4,1.00,10.00)</filterID>
      <methodID>L2-AIC</methodID>
      <phaseHint>S</phaseHint>
      <evaluationMode>automatic</evaluationMode>
      <creationInfo>
        <agencyID>SGC2</agencyID>
        <author>PhaseNet</author>
        <creationTime>2020-08-11T21:36:52.043727Z</creationTime>
      </creationInfo>
      <comment>
        <text>20191225.050119.39-AIC-CM.URMC.00.HHE</text>
        <id>RefPickID</id>
      </comment>
    </pick>
    <pick publicID="20191225.050141.29-AIC-CM.TAPM.00.HHE">
      <time>
        <value>2019-12-25T05:01:41.29Z</value>
      </time>
      <waveformID networkCode="CM" stationCode="TAPM" locationCode="00" channelCode="HHE"/>
      <filterID>BW(4,1.00,10.00)</filterID>
      <methodID>AIC</methodID>
      <phaseHint>P</phaseHint>
      <evaluationMode>automatic</evaluationMode>
      <creationInfo>
        <agencyID>SGC2</agencyID>
        <author>PhaseNet</author>
        <creationTime>2020-08-11T21:36:52.043959Z</creationTime>
      </creationInfo>
    </pick>
    <pick publicID="20191225.050019.46-AIC-CM.ORTC.00.HHE">
      <time>
        <value>2019-12-25T05:00:19.46Z</value>
      </time>
      <waveformID networkCode="CM" stationCode="ORTC" locationCode="00" channelCode="HHE"/>
      <filterID>BW(4,1.00,10.00)</filterID>
      <methodID>AIC</methodID>
      <phaseHint>P</phaseHint>
      <evaluationMode>automatic</evaluationMode>
      <creationInfo>
        <agencyID>SGC2</agencyID>
        <author>PhaseNet</author>
        <creationTime>2020-08-11T21:36:52.044187Z</creationTime>
      </creationInfo>
    </pick>
    <pick publicID="20191225.050148.23-AIC-CM.URMC.00.HHE">
      <time>
        <value>2019-12-25T05:01:48.23Z</value>
      </time>
      <waveformID networkCode="CM" stationCode="URMC" locationCode="00" channelCode="HHE"/>
      <filterID>BW(4,1.00,10.00)</filterID>
      <methodID>AIC</methodID>
      <phaseHint>P</phaseHint>
      <evaluationMode>automatic</evaluationMode>
      <creationInfo>
        <agencyID>SGC2</agencyID>
        <author>PhaseNet</author>
        <creationTime>2020-08-11T21:36:52.044386Z</creationTime>
      </creationInfo>
    </pick>
    <pick publicID="20191225.050152.07-S-L2-CM.URMC.00.HHE">
      <time>
        <value>2019-12-25T05:01:52.07Z</value>
      </time>
      <waveformID networkCode="CM" stationCode="URMC" locationCode="00" channelCode="HHE"/>
      <filterID>BW(4,1.00,10.00)</filterID>
      <methodID>L2-AIC</methodID>
      <phaseHint>S</phaseHint>
      <evaluationMode>automatic</evaluationMode>
      <creationInfo>
        <agencyID>SGC2</agencyID>
        <author>PhaseNet</author>
        <creationTime>2020-08-11T21:36:52.044533Z</creationTime>
      </creationInfo>
      <comment>
        <text>20191225.050148.23-AIC-CM.URMC.00.HHE</text>
        <id>RefPickID</id>
      </comment>
    </pick>
    <pick publicID="20191225.050202.57-S-L2-CM.TAPM.00.HHE">
      <time>
        <value>2019-12-25T05:02:02.57Z</value>
      </time>
      <waveformID networkCode="CM" stationCode="TAPM" locationCode="00" channelCode="HHE"/>
      <filterID>BW(4,1.00,10.00)</filterID>
      <methodID>L2-AIC</methodID>
      <phaseHint>S</phaseHint>
      <evaluationMode>automatic</evaluationMode>
      <creationInfo>
        <agencyID>SGC2</agencyID>
        <author>PhaseNet</author>
        <creationTime>2020-08-11T21:36:52.044823Z</creationTime>
      </creationInfo>
      <comment>
        <text>20191225.050141.29-AIC-CM.TAPM.00.HHE</text>
        <id>RefPickID</id>
      </comment>
    </pick>
    <pick publicID="20191225.050137.85-AIC-CM.PRA.00.HHE">
      <time>
        <value>2019-12-25T05:01:37.85Z</value>
      </time>
      <waveformID networkCode="CM" stationCode="PRA" locationCode="00" channelCode="HHE"/>
      <filterID>BW(4,1.00,10.00)</filterID>
      <methodID>AIC</methodID>
      <phaseHint>P</phaseHint>
      <evaluationMode>automatic</evaluationMode>
      <creationInfo>
        <agencyID>SGC2</agencyID>
        <author>PhaseNet</author>
        <creationTime>2020-08-11T21:36:52.045112Z</creationTime>
      </creationInfo>
    </pick>
    <pick publicID="20191225.050026.09-AIC-CM.PIRM.00.HHE">
      <time>
        <value>2019-12-25T05:00:26.09Z</value>
      </time>
      <waveformID networkCode="CM" stationCode="PIRM" locationCode="00" channelCode="HHE"/>
      <filterID>BW(4,1.00,10.00)</filterID>
      <methodID>AIC</methodID>
      <phaseHint>P</phaseHint>
      <evaluationMode>automatic</evaluationMode>
      <creationInfo>
        <agencyID>SGC2</agencyID>
        <author>PhaseNet</author>
        <creationTime>2020-08-11T21:36:52.045339Z</creationTime>
      </creationInfo>
    </pick>
    <pick publicID="20191225.050018.63-S-L2-CM.PIRM.00.HHE">
      <time>
        <value>2019-12-25T05:00:18.63Z</value>
      </time>
      <waveformID networkCode="CM" stationCode="PIRM" locationCode="00" channelCode="HHE"/>
      <filterID>BW(4,1.00,10.00)</filterID>
      <methodID>L2-AIC</methodID>
      <phaseHint>S</phaseHint>
      <evaluationMode>automatic</evaluationMode>
      <creationInfo>
        <agencyID>SGC2</agencyID>
        <author>PhaseNet</author>
        <creationTime>2020-08-11T21:36:52.04549Z</creationTime>
      </creationInfo>
      <comment>
        <text>20191225.050026.09-AIC-CM.PIRM.00.HHE</text>
        <id>RefPickID</id>
      </comment>
    </pick>
    <pick publicID="20191225.050313.96-AIC-CM.TAPM.00.HHE">
      <time>
        <value>2019-12-25T05:03:13.96Z</value>
      </time>
      <waveformID networkCode="CM" stationCode="TAPM" locationCode="00" channelCode="HHE"/>
      <filterID>BW(4,1.00,10.00)</filterID>
      <methodID>AIC</methodID>
      <phaseHint>P</phaseHint>
      <evaluationMode>automatic</evaluationMode>
      <creationInfo>
        <agencyID>SGC2</agencyID>
        <author>PhaseNet</author>
        <creationTime>2020-08-11T21:36:52.045721Z</creationTime>
      </creationInfo>
    </pick>
    <pick publicID="20191225.050316.17-S-L2-CM.TAPM.00.HHE">
      <time>
        <value>2019-12-25T05:03:16.17Z</value>
      </time>
      <waveformID networkCode="CM" stationCode="TAPM" locationCode="00" channelCode="HHE"/>
      <filterID>BW(4,1.00,10.00)</filterID>
      <methodID>L2-AIC</methodID>
      <phaseHint>S</phaseHint>
      <evaluationMode>automatic</evaluationMode>
      <creationInfo>
        <agencyID>SGC2</agencyID>
        <author>PhaseNet</author>
        <creationTime>2020-08-11T21:36:52.045864Z</creationTime>
      </creationInfo>
      <comment>
        <text>20191225.050313.96-AIC-CM.TAPM.00.HHE</text>
        <id>RefPickID</id>
      </comment>
    </pick>
    <pick publicID="20191225.050228.46-AIC-CM.URMC.00.HHE">
      <time>
        <value>2019-12-25T05:02:28.46Z</value>
      </time>
      <waveformID networkCode="CM" stationCode="URMC" locationCode="00" channelCode="HHE"/>
      <filterID>BW(4,1.00,10.00)</filterID>
      <methodID>AIC</methodID>
      <phaseHint>P</phaseHint>
      <evaluationMode>automatic</evaluationMode>
      <creationInfo>
        <agencyID>SGC2</agencyID>
        <author>PhaseNet</author>
        <creationTime>2020-08-11T21:36:52.046115Z</creationTime>
      </creationInfo>
    </pick>
    <pick publicID="20191225.050204.95-S-L2-CM.URMC.00.HHE">
      <time>
        <value>2019-12-25T05:02:04.95Z</value>
      </time>
      <waveformID networkCode="CM" stationCode="URMC" locationCode="00" channelCode="HHE"/>
      <filterID>BW(4,1.00,10.00)</filterID>
      <methodID>L2-AIC</methodID>
      <phaseHint>S</phaseHint>
      <evaluationMode>automatic</evaluationMode>
      <creationInfo>
        <agencyID>SGC2</agencyID>
        <author>PhaseNet</author>
        <creationTime>2020-08-11T21:36:52.04626Z</creationTime>
      </creationInfo>
      <comment>
        <text>20191225.050228.46-AIC-CM.URMC.00.HHE</text>
        <id>RefPickID</id>
      </comment>
    </pick>
    <pick publicID="20191225.050213.23-S-L2-CM.URMC.00.HHE">
      <time>
        <value>2019-12-25T05:02:13.23Z</value>
      </time>
      <waveformID networkCode="CM" stationCode="URMC" locationCode="00" channelCode="HHE"/>
      <filterID>BW(4,1.00,10.00)</filterID>
      <methodID>L2-AIC</methodID>
      <phaseHint>S</phaseHint>
      <evaluationMode>automatic</evaluationMode>
      <creationInfo>
        <agencyID>SGC2</agencyID>
        <author>PhaseNet</author>
        <creationTime>2020-08-11T21:36:52.046403Z</creationTime>
      </creationInfo>
      <comment>
        <text>20191225.050228.46-AIC-CM.URMC.00.HHE</text>
        <id>RefPickID</id>
      </comment>
    </pick>
    <pick publicID="20191225.050251.62-AIC-CM.URMC.00.HHE">
      <time>
        <value>2019-12-25T05:02:51.62Z</value>
      </time>
      <waveformID networkCode="CM" stationCode="URMC" locationCode="00" channelCode="HHE"/>
      <filterID>BW(4,1.00,10.00)</filterID>
      <methodID>AIC</methodID>
      <phaseHint>P</phaseHint>
      <evaluationMode>automatic</evaluationMode>
      <creationInfo>
        <agencyID>SGC2</agencyID>
        <author>PhaseNet</author>
        <creationTime>2020-08-11T21:36:52.046657Z</creationTime>
      </creationInfo>
    </pick>
    <pick publicID="20191225.050235.99-S-L2-CM.URMC.00.HHE">
      <time>
        <value>2019-12-25T05:02:35.99Z</value>
      </time>
      <waveformID networkCode="CM" stationCode="URMC" locationCode="00" channelCode="HHE"/>
      <filterID>BW(4,1.00,10.00)</filterID>
      <methodID>L2-AIC</methodID>
      <phaseHint>S</phaseHint>
      <evaluationMode>automatic</evaluationMode>
      <creationInfo>
        <agencyID>SGC2</agencyID>
        <author>PhaseNet</author>
        <creationTime>2020-08-11T21:36:52.046809Z</creationTime>
      </creationInfo>
      <comment>
        <text>20191225.050251.62-AIC-CM.URMC.00.HHE</text>
        <id>RefPickID</id>
      </comment>
    </pick>
    <pick publicID="20191225.050255.10-S-L2-CM.URMC.00.HHE">
      <time>
        <value>2019-12-25T05:02:55.1Z</value>
      </time>
      <waveformID networkCode="CM" stationCode="URMC" locationCode="00" channelCode="HHE"/>
      <filterID>BW(4,1.00,10.00)</filterID>
      <methodID>L2-AIC</methodID>
      <phaseHint>S</phaseHint>
      <evaluationMode>automatic</evaluationMode>
      <creationInfo>
        <agencyID>SGC2</agencyID>
        <author>PhaseNet</author>
        <creationTime>2020-08-11T21:36:52.046957Z</creationTime>
      </creationInfo>
      <comment>
        <text>20191225.050251.62-AIC-CM.URMC.00.HHE</text>
        <id>RefPickID</id>
      </comment>
    </pick>
    <pick publicID="20191225.050337.38-AIC-CM.PRA.00.HHE">
      <time>
        <value>2019-12-25T05:03:37.38Z</value>
      </time>
      <waveformID networkCode="CM" stationCode="PRA" locationCode="00" channelCode="HHE"/>
