<?xml version="1.0" encoding="UTF-8"?>
<seiscomp xmlns="http://geofon.gfz-potsdam.de/ns/seiscomp3-schema/0.10" version="0.10">
  <EventParameters>
    <pick publicID="20191225.050003.79-AIC-CM.URMC.00.HHE">
      <time>
        <value>2019-12-25T05:00:03.790000Z</value>
      </time>
      <waveformID networkCode="CM" stationCode="URMC" locationCode="00" channelCode="HHE"/>
      <filterID>BW(4,1.00,10.00)</filterID>
      <methodID>AIC</methodID>
      <phaseHint>P</phaseHint>
      <evaluationMode>automatic</evaluationMode>
      <creationInfo>
        <agencyID>SGC2</agencyID>
        <author>PhaseNet</author>
        <creationTime>2020-08-11T22:30:08.741875Z</creationTime>
      </creationInfo>
    </pick>
    <pick publicID="20191225.050007.62-S-L2-CM.URMC.00.HHE">
      <time>
        <value>2019-12-25T05:00:07.620000Z</value>
      </time>
      <waveformID networkCode="CM" stationCode="URMC" locationCode="00" channelCode="HHE"/>
      <filterID>BW(4,1.00,10.00)</filterID>
      <methodID>L2-AIC</methodID>
      <phaseHint>S</phaseHint>
      <evaluationMode>automatic</evaluationMode>
      <creationInfo>
        <agencyID>SGC2</agencyID>
        <author>PhaseNet</author>
        <creationTime>2020-08-11T22:30:08.742190Z</creationTime>
      </creationInfo>
      <comment>
        <text>20191225.050003.79-AIC-CM.URMC.00.HHE</text>
        <id>RefPickID</id>
      </comment>
    </pick>
    <pick publicID="20191225.050018.53-AIC-CM.CVER.00.HHE">
      <time>
        <value>2019-12-25T05:00:18.530000Z</value>
      </time>
      <waveformID networkCode="CM" stationCode="CVER" locationCode="00" channelCode="HHE"/>
      <filterID>BW(4,1.00,10.00)</filterID>
      <methodID>AIC</methodID>
      <phaseHint>P</phaseHint>
      <evaluationMode>automatic</evaluationMode>
      <creationInfo>
        <agencyID>SGC2</agencyID>
        <author>PhaseNet</author>
        <creationTime>2020-08-11T22:30:08.742473Z</creationTime>
      </creationInfo>
    </pick>
    <pick publicID="20191225.050029.21-AIC-CM.BELO.00.HHE">
      <time>
        <value>2019-12-25T05:00:29.210000Z</value>
      </time>
      <waveformID networkCode="CM" stationCode="BELO" locationCode="00" channelCode="HHE"/>
      <filterID>BW(4,1.00,10.00)</filterID>
      <methodID>AIC</methodID>
      <phaseHint>P</phaseHint>
      <evaluationMode>automatic</evaluationMode>
      <creationInfo>
        <agencyID>SGC2</agencyID>
        <author>PhaseNet</author>
        <creationTime>2020-08-11T22:30:08.742714Z</creationTime>
      </creationInfo>
    </pick>
    <pick publicID="20191225.050025.93-AIC-CM.TAPM.00.HHE">
      <time>
        <value>2019-12-25T05:00:25.930000Z</value>
      </time>
      <waveformID networkCode="CM" stationCode="TAPM" locationCode="00" channelCode="HHE"/>
      <filterID>BW(4,1.00,10.00)</filterID>
      <methodID>AIC</methodID>
      <phaseHint>P</phaseHint>
      <evaluationMode>automatic</evaluationMode>
      <creationInfo>
        <agencyID>SGC2</agencyID>
        <author>PhaseNet</author>
        <creationTime>2020-08-11T22:30:08.742947Z</creationTime>
      </creationInfo>
    </pick>
    <pick publicID="20191225.050021.94-AIC-CM.CHI.00.HHE">
      <time>
        <value>2019-12-25T05:00:21.940000Z</value>
      </time>
      <waveformID networkCode="CM" stationCode="CHI" locationCode="00" channelCode="HHE"/>
      <filterID>BW(4,1.00,10.00)</filterID>
      <methodID>AIC</methodID>
      <phaseHint>P</phaseHint>
      <evaluationMode>automatic</evaluationMode>
      <creationInfo>
        <agencyID>SGC2</agencyID>
        <author>PhaseNet</author>
        <creationTime>2020-08-11T22:30:08.743175Z</creationTime>
      </creationInfo>
    </pick>
    <pick publicID="20191225.050019.46-AIC-CM.ORTC.00.HHE">
      <time>
        <value>2019-12-25T05:00:19.460000Z</value>
      </time>
      <waveformID networkCode="CM" stationCode="ORTC" locationCode="00" channelCode="HHE"/>
      <filterID>BW(4,1.00,10.00)</filterID>
      <methodID>AIC</methodID>
      <phaseHint>P</phaseHint>
      <evaluationMode>automatic</evaluationMode>
      <creationInfo>
        <agencyID>SGC2</agencyID>
        <author>PhaseNet</author>
        <creationTime>2020-08-11T22:30:08.743407Z</creationTime>
      </creationInfo>
    </pick>
    <pick publicID="20191225.050047.97-S-L2-CM.TAPM.00.HHE">
      <time>
        <value>2019-12-25T05:00:47.970000Z</value>
      </time>
      <waveformID networkCode="CM" stationCode="TAPM" locationCode="00" channelCode="HHE"/>
      <filterID>BW(4,1.00,10.00)</filterID>
      <methodID>L2-AIC</methodID>
      <phaseHint>S</phaseHint>
      <evaluationMode>automatic</evaluationMode>
      <creationInfo>
        <agencyID>SGC2</agencyID>
        <author>PhaseNet</author>
        <creationTime>2020-08-11T22:30:08.743735Z</creationTime>
      </creationInfo>
      <comment>
        <text>20191225.050025.93-AIC-CM.TAPM.00.HHE</text>
        <id>RefPickID</id>
      </comment>
    </pick>
    <pick publicID="20191225.050051.06-S-L2-CM.BELO.00.HHE">
      <time>
        <value>2019-12-25T05:00:51.060000Z</value>
      </time>
      <waveformID networkCode="CM" stationCode="BELO" locationCode="00" channelCode="HHE"/>
      <filterID>BW(4,1.00,10.00)</filterID>
      <methodID>L2-AIC</methodID>
      <phaseHint>S</phaseHint>
      <evaluationMode>automatic</evaluationMode>
      <creationInfo>
        <agencyID>SGC2</agencyID>
        <author>PhaseNet</author>
        <creationTime>2020-08-11T22:30:08.743968Z</creationTime>
      </creationInfo>
      <comment>
        <text>20191225.050029.21-AIC-CM.BELO.00.HHE</text>
        <id>RefPickID</id>
      </comment>
    </pick>
    <pick publicID="20191225.050033.64-S-L2-CM.CVER.00.HHE">
      <time>
        <value>2019-12-25T05:00:33.640000Z</value>
      </time>
      <waveformID networkCode="CM" stationCode="CVER" locationCode="00" channelCode="HHE"/>
      <filterID>BW(4,1.00,10.00)</filterID>
      <methodID>L2-AIC</methodID>
      <phaseHint>S</phaseHint>
      <evaluationMode>automatic</evaluationMode>
      <creationInfo>
        <agencyID>SGC2</agencyID>
        <author>PhaseNet</author>
        <creationTime>2020-08-11T22:30:08.744198Z</creationTime>
      </creationInfo>
      <comment>
        <text>20191225.050018.53-AIC-CM.CVER.00.HHE</text>
        <id>RefPickID</id>
      </comment>
    </pick>
    <pick publicID="20191225.050041.76-S-L2-CM.CHI.00.HHE">
      <time>
        <value>2019-12-25T05:00:41.760000Z</value>
      </time>
      <waveformID networkCode="CM" stationCode="CHI" locationCode="00" channelCode="HHE"/>
      <filterID>BW(4,1.00,10.00)</filterID>
      <methodID>L2-AIC</methodID>
      <phaseHint>S</phaseHint>
      <evaluationMode>automatic</evaluationMode>
      <creationInfo>
        <agencyID>SGC2</agencyID>
        <author>PhaseNet</author>
        <creationTime>2020-08-11T22:30:08.744425Z</creationTime>
      </creationInfo>
      <comment>
        <text>20191225.050021.94-AIC-CM.CHI.00.HHE</text>
        <id>RefPickID</id>
      </comment>
    </pick>
    <pick publicID="20191225.050119.39-AIC-CM.URMC.00.HHE">
      <time>
        <value>2019-12-25T05:01:19.390000Z</value>
      </time>
      <waveformID networkCode="CM" stationCode="URMC" locationCode="00" channelCode="HHE"/>
      <filterID>BW(4,1.00,10.00)</filterID>
      <methodID>AIC</methodID>
      <phaseHint>P</phaseHint>
      <evaluationMode>automatic</evaluationMode>
      <creationInfo>
        <agencyID>SGC2</agencyID>
        <author>PhaseNet</author>
        <creationTime>2020-08-11T22:30:08.744651Z</creationTime>
      </creationInfo>
    </pick>
    <pick publicID="20191225.050101.71-S-L2-CM.URMC.00.HHE">
      <time>
        <value>2019-12-25T05:01:01.710000Z</value>
      </time>
      <waveformID networkCode="CM" stationCode="URMC" locationCode="00" channelCode="HHE"/>
      <filterID>BW(4,1.00,10.00)</filterID>
      <methodID>L2-AIC</methodID>
      <phaseHint>S</phaseHint>
      <evaluationMode>automatic</evaluationMode>
      <creationInfo>
        <agencyID>SGC2</agencyID>
        <author>PhaseNet</author>
        <creationTime>2020-08-11T22:30:08.744821Z</creationTime>
      </creationInfo>
      <comment>
        <text>20191225.050119.39-AIC-CM.URMC.00.HHE</text>
        <id>RefPickID</id>
      </comment>
    </pick>
    <pick publicID="20191225.050123.16-S-L2-CM.URMC.00.HHE">
      <time>
        <value>2019-12-25T05:01:23.160000Z</value>
      </time>
      <waveformID networkCode="CM" stationCode="URMC" locationCode="00" channelCode="HHE"/>
      <filterID>BW(4,1.00,10.00)</filterID>
      <methodID>L2-AIC</methodID>
      <phaseHint>S</phaseHint>
      <evaluationMode>automatic</evaluationMode>
      <creationInfo>
        <agencyID>SGC2</agencyID>
        <author>PhaseNet</author>
        <creationTime>2020-08-11T22:30:08.744984Z</creationTime>
      </creationInfo>
      <comment>
        <text>20191225.050119.39-AIC-CM.URMC.00.HHE</text>
        <id>RefPickID</id>
      </comment>
    </pick>
    <pick publicID="20191225.050022.70-AIC-CM.MACC.00.HHE">
      <time>
        <value>2019-12-25T05:00:22.700000Z</value>
      </time>
      <waveformID networkCode="CM" stationCode="MACC" locationCode="00" channelCode="HHE"/>
      <filterID>BW(4,1.00,10.00)</filterID>
      <methodID>AIC</methodID>
      <phaseHint>P</phaseHint>
      <evaluationMode>automatic</evaluationMode>
      <creationInfo>
        <agencyID>SGC2</agencyID>
        <author>PhaseNet</author>
        <creationTime>2020-08-11T22:30:08.745253Z</creationTime>
      </creationInfo>
    </pick>
    <pick publicID="20191225.050148.23-AIC-CM.URMC.00.HHE">
      <time>
        <value>2019-12-25T05:01:48.230000Z</value>
      </time>
      <waveformID networkCode="CM" stationCode="URMC" locationCode="00" channelCode="HHE"/>
      <filterID>BW(4,1.00,10.00)</filterID>
      <methodID>AIC</methodID>
      <phaseHint>P</phaseHint>
      <evaluationMode>automatic</evaluationMode>
      <creationInfo>
        <agencyID>SGC2</agencyID>
        <author>PhaseNet</author>
        <creationTime>2020-08-11T22:30:08.745485Z</creationTime>
      </creationInfo>
    </pick>
    <pick publicID="20191225.050152.07-S-L2-CM.URMC.00.HHE">
      <time>
        <value>2019-12-25T05:01:52.070000Z</value>
      </time>
      <waveformID networkCode="CM" stationCode="URMC" locationCode="00" channelCode="HHE"/>
      <filterID>BW(4,1.00,10.00)</filterID>
      <methodID>L2-AIC</methodID>
      <phaseHint>S</phaseHint>
      <evaluationMode>automatic</evaluationMode>
      <creationInfo>
        <agencyID>SGC2</agencyID>
        <author>PhaseNet</author>
        <creationTime>2020-08-11T22:30:08.745652Z</creationTime>
      </creationInfo>
      <comment>
        <text>20191225.050148.23-AIC-CM.URMC.00.HHE</text>
        <id>RefPickID</id>
      </comment>
    </pick>
    <pick publicID="20191225.050039.39-S-L2-CM.ORTC.00.HHE">
      <time>
        <value>2019-12-25T05:00:39.390000Z</value>
      </time>
      <waveformID networkCode="CM" stationCode="ORTC" locationCode="00" channelCode="HHE"/>
      <filterID>BW(4,1.00,10.00)</filterID>
      <methodID>L2-AIC</methodID>
      <phaseHint>S</phaseHint>
      <evaluationMode>automatic</evaluationMode>
      <creationInfo>
        <agencyID>SGC2</agencyID>
        <author>PhaseNet</author>
        <creationTime>2020-08-11T22:30:08.745996Z</creationTime>
      </creationInfo>
      <comment>
        <text>20191225.050019.46-AIC-CM.ORTC.00.HHE</text>
        <id>RefPickID</id>
      </comment>
    </pick>
    <pick publicID="20191225.050030.74-AIC-CM.GARC.00.HHE">
      <time>
        <value>2019-12-25T05:00:30.740000Z</value>
      </time>
      <waveformID networkCode="CM" stationCode="GARC" locationCode="00" channelCode="HHE"/>
      <filterID>BW(4,1.00,10.00)</filterID>
      <methodID>AIC</methodID>
      <phaseHint>P</phaseHint>
      <evaluationMode>automatic</evaluationMode>
      <creationInfo>
        <agencyID>SGC2</agencyID>
        <author>PhaseNet</author>
        <creationTime>2020-08-11T22:30:08.746270Z</creationTime>
      </creationInfo>
    </pick>
    <pick publicID="20191225.050053.83-AIC-CM.GARC.00.HHE">
      <time>
        <value>2019-12-25T05:00:53.830000Z</value>
      </time>
      <waveformID networkCode="CM" stationCode="GARC" locationCode="00" channelCode="HHE"/>
      <filterID>BW(4,1.00,10.00)</filterID>
      <methodID>AIC</methodID>
      <phaseHint>P</phaseHint>
      <evaluationMode>automatic</evaluationMode>
      <creationInfo>
        <agencyID>SGC2</agencyID>
        <author>PhaseNet</author>
        <creationTime>2020-08-11T22:30:08.746480Z</creationTime>
      </creationInfo>
    </pick>
    <pick publicID="20191225.050228.46-AIC-CM.URMC.00.HHE">
      <time>
        <value>2019-12-25T05:02:28.460000Z</value>
      </time>
      <waveformID networkCode="CM" stationCode="URMC" locationCode="00" channelCode="HHE"/>
      <filterID>BW(4,1.00,10.00)</filterID>
      <methodID>AIC</methodID>
      <phaseHint>P</phaseHint>
      <evaluationMode>automatic</evaluationMode>
      <creationInfo>
        <agencyID>SGC2</agencyID>
        <author>PhaseNet</author>
        <creationTime>2020-08-11T22:30:08.746756Z</creationTime>
      </creationInfo>
    </pick>
    <pick publicID="20191225.050204.95-S-L2-CM.URMC.00.HHE">
      <time>
        <value>2019-12-25T05:02:04.950000Z</value>
      </time>
      <waveformID networkCode="CM" stationCode="URMC" locationCode="00" channelCode="HHE"/>
      <filterID>BW(4,1.00,10.00)</filterID>
      <methodID>L2-AIC</methodID>
      <phaseHint>S</phaseHint>
      <evaluationMode>automatic</evaluationMode>
      <creationInfo>
        <agencyID>SGC2</agencyID>
        <author>PhaseNet</author>
        <creationTime>2020-08-11T22:30:08.746915Z</creationTime>
      </creationInfo>
      <comment>
        <text>20191225.050228.46-AIC-CM.URMC.00.HHE</text>
        <id>RefPickID</id>
      </comment>
    </pick>
    <pick publicID="20191225.050213.23-S-L2-CM.URMC.00.HHE">
      <time>
        <value>2019-12-25T05:02:13.230000Z</value>
      </time>
      <waveformID networkCode="CM" stationCode="URMC" locationCode="00" channelCode="HHE"/>
      <filterID>BW(4,1.00,10.00)</filterID>
      <methodID>L2-AIC</methodID>
      <phaseHint>S</phaseHint>
      <evaluationMode>automatic</evaluationMode>
      <creationInfo>
        <agencyID>SGC2</agencyID>
        <author>PhaseNet</author>
        <creationTime>2020-08-11T22:30:08.747069Z</creationTime>
      </creationInfo>
      <comment>
        <text>20191225.050228.46-AIC-CM.URMC.00.HHE</text>
        <id>RefPickID</id>
      </comment>
    </pick>
    <pick publicID="20191225.050154.52-S-L2-CM.ORTC.00.HHE">
      <time>
        <value>2019-12-25T05:01:54.520000Z</value>
      </time>
      <waveformID networkCode="CM" stationCode="ORTC" locationCode="00" channelCode="HHE"/>
      <filterID>BW(4,1.00,10.00)</filterID>
      <methodID>L2-AIC</methodID>
      <phaseHint>S</phaseHint>
      <evaluationMode>automatic</evaluationMode>
      <creationInfo>
        <agencyID>SGC2</agencyID>
        <author>PhaseNet</author>
        <creationTime>2020-08-11T22:30:08.747281Z</creationTime>
      </creationInfo>
      <comment>
        <text>20191225.050019.46-AIC-CM.ORTC.00.HHE</text>
        <id>RefPickID</id>
      </comment>
    </pick>
    <pick publicID="20191225.050141.29-AIC-CM.TAPM.00.HHE">
      <time>
        <value>2019-12-25T05:01:41.290000Z</value>
      </time>
      <waveformID networkCode="CM" stationCode="TAPM" locationCode="00" channelCode="HHE"/>
      <filterID>BW(4,1.00,10.00)</filterID>
      <methodID>AIC</methodID>
      <phaseHint>P</phaseHint>
      <evaluationMode>automatic</evaluationMode>
      <creationInfo>
        <agencyID>SGC2</agencyID>
        <author>PhaseNet</author>
        <creationTime>2020-08-11T22:30:08.747567Z</creationTime>
      </creationInfo>
    </pick>
    <pick publicID="20191225.050202.57-S-L2-CM.TAPM.00.HHE">
      <time>
        <value>2019-12-25T05:02:02.570000Z</value>
      </time>
      <waveformID networkCode="CM" stationCode="TAPM" locationCode="00" channelCode="HHE"/>
      <filterID>BW(4,1.00,10.00)</filterID>
      <methodID>L2-AIC</methodID>
      <phaseHint>S</phaseHint>
      <evaluationMode>automatic</evaluationMode>
      <creationInfo>
        <agencyID>SGC2</agencyID>
        <author>PhaseNet</author>
        <creationTime>2020-08-11T22:30:08.747818Z</creationTime>
      </creationInfo>
      <comment>
        <text>20191225.050141.29-AIC-CM.TAPM.00.HHE</text>
        <id>RefPickID</id>
      </comment>
    </pick>
    <pick publicID="20191225.050251.62-AIC-CM.URMC.00.HHE">
      <time>
        <value>2019-12-25T05:02:51.620000Z</value>
      </time>
      <waveformID networkCode="CM" stationCode="URMC" locationCode="00" channelCode="HHE"/>
      <filterID>BW(4,1.00,10.00)</filterID>
      <methodID>AIC</methodID>
      <phaseHint>P</phaseHint>
      <evaluationMode>automatic</evaluationMode>
      <creationInfo>
        <agencyID>SGC2</agencyID>
        <author>PhaseNet</author>
        <creationTime>2020-08-11T22:30:08.748032Z</creationTime>
      </creationInfo>
    </pick>
    <pick publicID="20191225.050235.99-S-L2-CM.URMC.00.HHE">
      <time>
        <value>2019-12-25T05:02:35.990000Z</value>
      </time>
      <waveformID networkCode="CM" stationCode="URMC" locationCode="00" channelCode="HHE"/>
      <filterID>BW(4,1.00,10.00)</filterID>
      <methodID>L2-AIC</methodID>
      <phaseHint>S</phaseHint>
      <evaluationMode>automatic</evaluationMode>
      <creationInfo>
        <agencyID>SGC2</agencyID>
        <author>PhaseNet</author>
        <creationTime>2020-08-11T22:30:08.748196Z</creationTime>
      </creationInfo>
      <comment>
        <text>20191225.050251.62-AIC-CM.URMC.00.HHE</text>
        <id>RefPickID</id>
      </comment>
    </pick>
    <pick publicID="20191225.050255.10-S-L2-CM.URMC.00.HHE">
      <time>
        <value>2019-12-25T05:02:55.100000Z</value>
      </time>
      <waveformID networkCode="CM" stationCode="URMC" locationCode="00" channelCode="HHE"/>
      <filterID>BW(4,1.00,10.00)</filterID>
      <methodID>L2-AIC</methodID>
      <phaseHint>S</phaseHint>
      <evaluationMode>automatic</evaluationMode>
      <creationInfo>
        <agencyID>SGC2</agencyID>
        <author>PhaseNet</author>
        <creationTime>2020-08-11T22:30:08.748351Z</creationTime>
      </creationInfo>
      <comment>
        <text>20191225.050251.62-AIC-CM.URMC.00.HHE</text>
        <id>RefPickID</id>
      </comment>
    </pick>
    <pick publicID="20191225.050040.15-AIC-CM.MACC.00.HHE">
      <time>
        <value>2019-12-25T05:00:40.150000Z</value>
      </time>
      <waveformID networkCode="CM" stationCode="MACC" locationCode="00" channelCode="HHE"/>
      <filterID>BW(4,1.00,10.00)</filterID>
      <methodID>AIC</methodID>
      <phaseHint>P</phaseHint>
      <evaluationMode>automatic</evaluationMode>
      <creationInfo>
        <agencyID>SGC2</agencyID>
        <author>PhaseNet</author>
        <creationTime>2020-08-11T22:30:08.748567Z</creationTime>
      </creationInfo>
    </pick>
    <pick publicID="20191225.050042.86-S-L2-CM.MACC.00.HHE">
      <time>
        <value>2019-12-25T05:00:42.860000Z</value>
      </time>
      <waveformID networkCode="CM" stationCode="MACC" locationCode="00" channelCode="HHE"/>
      <filterID>BW(4,1.00,10.00)</filterID>
      <methodID>L2-AIC</methodID>
      <phaseHint>S</phaseHint>
      <evaluationMode>automatic</evaluationMode>
      <creationInfo>
        <agencyID>SGC2</agencyID>
        <author>PhaseNet</author>
        <creationTime>2020-08-11T22:30:08.748738Z</creationTime>
      </creationInfo>
      <comment>
        <text>20191225.050040.15-AIC-CM.MACC.00.HHE</text>
        <id>RefPickID</id>
      </comment>
    </pick>
    <pick publicID="20191225.050355.17-AIC-CM.URMC.00.HHE">
      <time>
        <value>2019-12-25T05:03:55.170000Z</value>
