<?xml version="1.0" encoding="UTF-8"?>
<seiscomp xmlns="http://geofon.gfz-potsdam.de/ns/seiscomp3-schema/0.10" version="0.10">
  <EventParameters>
    <pick publicID="20191229.180024.12-AIC-CM.PRA.00.HHE">
      <time>
        <value>2019-12-29T18:00:24.120000Z</value>
      </time>
      <waveformID networkCode="CM" stationCode="PRA" locationCode="00" channelCode="HHE"/>
      <filterID>BW(4,1.00,10.00)</filterID>
      <methodID>AIC</methodID>
      <phaseHint>P</phaseHint>
      <evaluationMode>automatic</evaluationMode>
      <creationInfo>
        <agencyID>SGC2</agencyID>
        <author>PhaseNet</author>
        <creationTime>2020-08-13T18:53:26.027419Z</creationTime>
      </creationInfo>
    </pick>
    <pick publicID="20191229.180027.71-S-L2-CM.PRA.00.HHE">
      <time>
        <value>2019-12-29T18:00:27.710000Z</value>
      </time>
      <waveformID networkCode="CM" stationCode="PRA" locationCode="00" channelCode="HHE"/>
      <filterID>BW(4,1.00,10.00)</filterID>
      <methodID>L2-AIC</methodID>
      <phaseHint>S</phaseHint>
      <evaluationMode>automatic</evaluationMode>
      <creationInfo>
        <agencyID>SGC2</agencyID>
        <author>PhaseNet</author>
        <creationTime>2020-08-13T18:53:26.027668Z</creationTime>
      </creationInfo>
      <comment>
        <text>20191229.180024.12-AIC-CM.PRA.00.HHE</text>
        <id>RefPickID</id>
      </comment>
    </pick>
    <pick publicID="20191229.180202.16-AIC-CM.CVER.00.HHE">
      <time>
        <value>2019-12-29T18:02:02.160000Z</value>
      </time>
      <waveformID networkCode="CM" stationCode="CVER" locationCode="00" channelCode="HHE"/>
      <filterID>BW(4,1.00,10.00)</filterID>
      <methodID>AIC</methodID>
      <phaseHint>P</phaseHint>
      <evaluationMode>automatic</evaluationMode>
      <creationInfo>
        <agencyID>SGC2</agencyID>
        <author>PhaseNet</author>
        <creationTime>2020-08-13T18:53:26.028299Z</creationTime>
      </creationInfo>
    </pick>
    <pick publicID="20191229.180206.69-S-L2-CM.CVER.00.HHE">
      <time>
        <value>2019-12-29T18:02:06.690000Z</value>
      </time>
      <waveformID networkCode="CM" stationCode="CVER" locationCode="00" channelCode="HHE"/>
      <filterID>BW(4,1.00,10.00)</filterID>
      <methodID>L2-AIC</methodID>
      <phaseHint>S</phaseHint>
      <evaluationMode>automatic</evaluationMode>
      <creationInfo>
        <agencyID>SGC2</agencyID>
        <author>PhaseNet</author>
        <creationTime>2020-08-13T18:53:26.028428Z</creationTime>
      </creationInfo>
      <comment>
        <text>20191229.180202.16-AIC-CM.CVER.00.HHE</text>
        <id>RefPickID</id>
      </comment>
    </pick>
    <pick publicID="20191229.180056.85-AIC-CM.PRA.00.HHE">
      <time>
        <value>2019-12-29T18:00:56.850000Z</value>
      </time>
      <waveformID networkCode="CM" stationCode="PRA" locationCode="00" channelCode="HHE"/>
      <filterID>BW(4,1.00,10.00)</filterID>
      <methodID>AIC</methodID>
      <phaseHint>P</phaseHint>
      <evaluationMode>automatic</evaluationMode>
      <creationInfo>
        <agencyID>SGC2</agencyID>
        <author>PhaseNet</author>
        <creationTime>2020-08-13T18:53:26.028761Z</creationTime>
      </creationInfo>
    </pick>
    <pick publicID="20191229.180122.34-S-L2-CM.PRA.00.HHE">
      <time>
        <value>2019-12-29T18:01:22.340000Z</value>
      </time>
      <waveformID networkCode="CM" stationCode="PRA" locationCode="00" channelCode="HHE"/>
      <filterID>BW(4,1.00,10.00)</filterID>
      <methodID>L2-AIC</methodID>
      <phaseHint>S</phaseHint>
      <evaluationMode>automatic</evaluationMode>
      <creationInfo>
        <agencyID>SGC2</agencyID>
        <author>PhaseNet</author>
        <creationTime>2020-08-13T18:53:26.029351Z</creationTime>
      </creationInfo>
      <comment>
        <text>20191229.180056.85-AIC-CM.PRA.00.HHE</text>
        <id>RefPickID</id>
      </comment>
    </pick>
    <pick publicID="20191229.180359.07-AIC-CM.URMC.00.HHE">
      <time>
        <value>2019-12-29T18:03:59.070000Z</value>
      </time>
      <waveformID networkCode="CM" stationCode="URMC" locationCode="00" channelCode="HHE"/>
      <filterID>BW(4,1.00,10.00)</filterID>
      <methodID>AIC</methodID>
      <phaseHint>P</phaseHint>
      <evaluationMode>automatic</evaluationMode>
      <creationInfo>
        <agencyID>SGC2</agencyID>
        <author>PhaseNet</author>
        <creationTime>2020-08-13T18:53:26.029641Z</creationTime>
      </creationInfo>
    </pick>
    <pick publicID="20191229.180402.88-S-L2-CM.URMC.00.HHE">
      <time>
        <value>2019-12-29T18:04:02.880000Z</value>
      </time>
      <waveformID networkCode="CM" stationCode="URMC" locationCode="00" channelCode="HHE"/>
      <filterID>BW(4,1.00,10.00)</filterID>
      <methodID>L2-AIC</methodID>
      <phaseHint>S</phaseHint>
      <evaluationMode>automatic</evaluationMode>
      <creationInfo>
        <agencyID>SGC2</agencyID>
        <author>PhaseNet</author>
        <creationTime>2020-08-13T18:53:26.030055Z</creationTime>
      </creationInfo>
      <comment>
        <text>20191229.180359.07-AIC-CM.URMC.00.HHE</text>
        <id>RefPickID</id>
      </comment>
    </pick>
    <pick publicID="20191229.180426.91-AIC-CM.BELO.00.HHE">
      <time>
        <value>2019-12-29T18:04:26.910000Z</value>
      </time>
      <waveformID networkCode="CM" stationCode="BELO" locationCode="00" channelCode="HHE"/>
      <filterID>BW(4,1.00,10.00)</filterID>
      <methodID>AIC</methodID>
      <phaseHint>P</phaseHint>
      <evaluationMode>automatic</evaluationMode>
      <creationInfo>
        <agencyID>SGC2</agencyID>
        <author>PhaseNet</author>
        <creationTime>2020-08-13T18:53:26.030486Z</creationTime>
      </creationInfo>
    </pick>
    <pick publicID="20191229.180437.92-S-L2-CM.URMC.00.HHE">
      <time>
        <value>2019-12-29T18:04:37.920000Z</value>
      </time>
      <waveformID networkCode="CM" stationCode="URMC" locationCode="00" channelCode="HHE"/>
      <filterID>BW(4,1.00,10.00)</filterID>
      <methodID>L2-AIC</methodID>
      <phaseHint>S</phaseHint>
      <evaluationMode>automatic</evaluationMode>
      <creationInfo>
        <agencyID>SGC2</agencyID>
        <author>PhaseNet</author>
        <creationTime>2020-08-13T18:53:26.030737Z</creationTime>
      </creationInfo>
      <comment>
        <text>20191229.180359.07-AIC-CM.URMC.00.HHE</text>
        <id>RefPickID</id>
      </comment>
    </pick>
    <pick publicID="20191229.180244.90-AIC-CM.PRA.00.HHE">
      <time>
        <value>2019-12-29T18:02:44.900000Z</value>
      </time>
      <waveformID networkCode="CM" stationCode="PRA" locationCode="00" channelCode="HHE"/>
      <filterID>BW(4,1.00,10.00)</filterID>
      <methodID>AIC</methodID>
      <phaseHint>P</phaseHint>
      <evaluationMode>automatic</evaluationMode>
      <creationInfo>
        <agencyID>SGC2</agencyID>
        <author>PhaseNet</author>
        <creationTime>2020-08-13T18:53:26.030984Z</creationTime>
      </creationInfo>
    </pick>
    <pick publicID="20191229.180245.35-S-L2-CM.PRA.00.HHE">
      <time>
        <value>2019-12-29T18:02:45.350000Z</value>
      </time>
      <waveformID networkCode="CM" stationCode="PRA" locationCode="00" channelCode="HHE"/>
      <filterID>BW(4,1.00,10.00)</filterID>
      <methodID>L2-AIC</methodID>
      <phaseHint>S</phaseHint>
      <evaluationMode>automatic</evaluationMode>
      <creationInfo>
        <agencyID>SGC2</agencyID>
        <author>PhaseNet</author>
        <creationTime>2020-08-13T18:53:26.031111Z</creationTime>
      </creationInfo>
      <comment>
        <text>20191229.180244.90-AIC-CM.PRA.00.HHE</text>
        <id>RefPickID</id>
      </comment>
    </pick>
    <pick publicID="20191229.180336.72-S-L2-CM.PRA.00.HHE">
      <time>
        <value>2019-12-29T18:03:36.720000Z</value>
      </time>
      <waveformID networkCode="CM" stationCode="PRA" locationCode="00" channelCode="HHE"/>
      <filterID>BW(4,1.00,10.00)</filterID>
      <methodID>L2-AIC</methodID>
      <phaseHint>S</phaseHint>
      <evaluationMode>automatic</evaluationMode>
      <creationInfo>
        <agencyID>SGC2</agencyID>
        <author>PhaseNet</author>
        <creationTime>2020-08-13T18:53:26.032239Z</creationTime>
      </creationInfo>
      <comment>
        <text>20191229.180244.90-AIC-CM.PRA.00.HHE</text>
        <id>RefPickID</id>
      </comment>
    </pick>
    <pick publicID="20191229.180401.45-AIC-CM.PRA.00.HHE">
      <time>
        <value>2019-12-29T18:04:01.450000Z</value>
      </time>
      <waveformID networkCode="CM" stationCode="PRA" locationCode="00" channelCode="HHE"/>
      <filterID>BW(4,1.00,10.00)</filterID>
      <methodID>AIC</methodID>
      <phaseHint>P</phaseHint>
      <evaluationMode>automatic</evaluationMode>
      <creationInfo>
        <agencyID>SGC2</agencyID>
        <author>PhaseNet</author>
        <creationTime>2020-08-13T18:53:26.032527Z</creationTime>
      </creationInfo>
    </pick>
    <pick publicID="20191229.180407.10-AIC-CM.PRA.00.HHE">
      <time>
        <value>2019-12-29T18:04:07.100000Z</value>
      </time>
      <waveformID networkCode="CM" stationCode="PRA" locationCode="00" channelCode="HHE"/>
      <filterID>BW(4,1.00,10.00)</filterID>
      <methodID>AIC</methodID>
      <phaseHint>P</phaseHint>
      <evaluationMode>automatic</evaluationMode>
      <creationInfo>
        <agencyID>SGC2</agencyID>
        <author>PhaseNet</author>
        <creationTime>2020-08-13T18:53:26.032671Z</creationTime>
      </creationInfo>
    </pick>
    <pick publicID="20191229.180412.51-AIC-CM.PRA.00.HHE">
      <time>
        <value>2019-12-29T18:04:12.510000Z</value>
      </time>
      <waveformID networkCode="CM" stationCode="PRA" locationCode="00" channelCode="HHE"/>
      <filterID>BW(4,1.00,10.00)</filterID>
      <methodID>AIC</methodID>
      <phaseHint>P</phaseHint>
      <evaluationMode>automatic</evaluationMode>
      <creationInfo>
        <agencyID>SGC2</agencyID>
        <author>PhaseNet</author>
        <creationTime>2020-08-13T18:53:26.032820Z</creationTime>
      </creationInfo>
    </pick>
    <pick publicID="20191229.180408.06-S-L2-CM.PRA.00.HHE">
      <time>
        <value>2019-12-29T18:04:08.060000Z</value>
      </time>
      <waveformID networkCode="CM" stationCode="PRA" locationCode="00" channelCode="HHE"/>
      <filterID>BW(4,1.00,10.00)</filterID>
      <methodID>L2-AIC</methodID>
      <phaseHint>S</phaseHint>
      <evaluationMode>automatic</evaluationMode>
      <creationInfo>
        <agencyID>SGC2</agencyID>
        <author>PhaseNet</author>
        <creationTime>2020-08-13T18:53:26.032954Z</creationTime>
      </creationInfo>
      <comment>
        <text>20191229.180412.51-AIC-CM.PRA.00.HHE</text>
        <id>RefPickID</id>
      </comment>
    </pick>
    <pick publicID="20191229.180640.99-AIC-CM.URMC.00.HHE">
      <time>
        <value>2019-12-29T18:06:40.990000Z</value>
      </time>
      <waveformID networkCode="CM" stationCode="URMC" locationCode="00" channelCode="HHE"/>
      <filterID>BW(4,1.00,10.00)</filterID>
      <methodID>AIC</methodID>
      <phaseHint>P</phaseHint>
      <evaluationMode>automatic</evaluationMode>
      <creationInfo>
        <agencyID>SGC2</agencyID>
        <author>PhaseNet</author>
        <creationTime>2020-08-13T18:53:26.033174Z</creationTime>
      </creationInfo>
    </pick>
    <pick publicID="20191229.180644.92-S-L2-CM.URMC.00.HHE">
      <time>
        <value>2019-12-29T18:06:44.920000Z</value>
      </time>
      <waveformID networkCode="CM" stationCode="URMC" locationCode="00" channelCode="HHE"/>
      <filterID>BW(4,1.00,10.00)</filterID>
      <methodID>L2-AIC</methodID>
      <phaseHint>S</phaseHint>
      <evaluationMode>automatic</evaluationMode>
      <creationInfo>
        <agencyID>SGC2</agencyID>
        <author>PhaseNet</author>
        <creationTime>2020-08-13T18:53:26.033319Z</creationTime>
      </creationInfo>
      <comment>
        <text>20191229.180640.99-AIC-CM.URMC.00.HHE</text>
        <id>RefPickID</id>
      </comment>
    </pick>
    <pick publicID="20191229.180656.19-AIC-CM.ORTC.00.HHE">
      <time>
        <value>2019-12-29T18:06:56.190000Z</value>
      </time>
      <waveformID networkCode="CM" stationCode="ORTC" locationCode="00" channelCode="HHE"/>
      <filterID>BW(4,1.00,10.00)</filterID>
      <methodID>AIC</methodID>
      <phaseHint>P</phaseHint>
      <evaluationMode>automatic</evaluationMode>
      <creationInfo>
        <agencyID>SGC2</agencyID>
        <author>PhaseNet</author>
        <creationTime>2020-08-13T18:53:26.033566Z</creationTime>
      </creationInfo>
    </pick>
    <pick publicID="20191229.180431.32-S-L2-CM.CVER.00.HHE">
      <time>
        <value>2019-12-29T18:04:31.320000Z</value>
      </time>
      <waveformID networkCode="CM" stationCode="CVER" locationCode="00" channelCode="HHE"/>
      <filterID>BW(4,1.00,10.00)</filterID>
      <methodID>L2-AIC</methodID>
      <phaseHint>S</phaseHint>
      <evaluationMode>automatic</evaluationMode>
      <creationInfo>
        <agencyID>SGC2</agencyID>
        <author>PhaseNet</author>
        <creationTime>2020-08-13T18:53:26.033738Z</creationTime>
      </creationInfo>
      <comment>
        <text>20191229.180202.16-AIC-CM.CVER.00.HHE</text>
        <id>RefPickID</id>
      </comment>
    </pick>
    <pick publicID="20191229.180712.44-AIC-CM.ORTC.00.HHE">
      <time>
        <value>2019-12-29T18:07:12.440000Z</value>
      </time>
      <waveformID networkCode="CM" stationCode="ORTC" locationCode="00" channelCode="HHE"/>
      <filterID>BW(4,1.00,10.00)</filterID>
      <methodID>AIC</methodID>
      <phaseHint>P</phaseHint>
      <evaluationMode>automatic</evaluationMode>
      <creationInfo>
        <agencyID>SGC2</agencyID>
        <author>PhaseNet</author>
        <creationTime>2020-08-13T18:53:26.033918Z</creationTime>
      </creationInfo>
    </pick>
    <pick publicID="20191229.180727.73-AIC-CM.ORTC.00.HHE">
      <time>
        <value>2019-12-29T18:07:27.730000Z</value>
      </time>
      <waveformID networkCode="CM" stationCode="ORTC" locationCode="00" channelCode="HHE"/>
      <filterID>BW(4,1.00,10.00)</filterID>
      <methodID>AIC</methodID>
      <phaseHint>P</phaseHint>
      <evaluationMode>automatic</evaluationMode>
      <creationInfo>
        <agencyID>SGC2</agencyID>
        <author>PhaseNet</author>
        <creationTime>2020-08-13T18:53:26.034037Z</creationTime>
      </creationInfo>
    </pick>
    <pick publicID="20191229.180715.97-S-L2-CM.ORTC.00.HHE">
      <time>
        <value>2019-12-29T18:07:15.970000Z</value>
      </time>
      <waveformID networkCode="CM" stationCode="ORTC" locationCode="00" channelCode="HHE"/>
      <filterID>BW(4,1.00,10.00)</filterID>
      <methodID>L2-AIC</methodID>
      <phaseHint>S</phaseHint>
      <evaluationMode>automatic</evaluationMode>
      <creationInfo>
        <agencyID>SGC2</agencyID>
        <author>PhaseNet</author>
        <creationTime>2020-08-13T18:53:26.034153Z</creationTime>
      </creationInfo>
      <comment>
        <text>20191229.180727.73-AIC-CM.ORTC.00.HHE</text>
        <id>RefPickID</id>
      </comment>
    </pick>
    <pick publicID="20191229.180728.90-S-L2-CM.ORTC.00.HHE">
      <time>
        <value>2019-12-29T18:07:28.900000Z</value>
      </time>
      <waveformID networkCode="CM" stationCode="ORTC" locationCode="00" channelCode="HHE"/>
      <filterID>BW(4,1.00,10.00)</filterID>
      <methodID>L2-AIC</methodID>
      <phaseHint>S</phaseHint>
      <evaluationMode>automatic</evaluationMode>
      <creationInfo>
        <agencyID>SGC2</agencyID>
        <author>PhaseNet</author>
        <creationTime>2020-08-13T18:53:26.034267Z</creationTime>
      </creationInfo>
      <comment>
        <text>20191229.180727.73-AIC-CM.ORTC.00.HHE</text>
        <id>RefPickID</id>
      </comment>
    </pick>
    <pick publicID="20191229.180728.52-AIC-CM.URMC.00.HHE">
      <time>
        <value>2019-12-29T18:07:28.520000Z</value>
      </time>
      <waveformID networkCode="CM" stationCode="URMC" locationCode="00" channelCode="HHE"/>
      <filterID>BW(4,1.00,10.00)</filterID>
      <methodID>AIC</methodID>
      <phaseHint>P</phaseHint>
      <evaluationMode>automatic</evaluationMode>
      <creationInfo>
        <agencyID>SGC2</agencyID>
        <author>PhaseNet</author>
        <creationTime>2020-08-13T18:53:26.034556Z</creationTime>
      </creationInfo>
    </pick>
    <pick publicID="20191229.180526.41-AIC-CM.PRA.00.HHE">
      <time>
        <value>2019-12-29T18:05:26.410000Z</value>
      </time>
      <waveformID networkCode="CM" stationCode="PRA" locationCode="00" channelCode="HHE"/>
      <filterID>BW(4,1.00,10.00)</filterID>
      <methodID>AIC</methodID>
      <phaseHint>P</phaseHint>
      <evaluationMode>automatic</evaluationMode>
      <creationInfo>
        <agencyID>SGC2</agencyID>
        <author>PhaseNet</author>
        <creationTime>2020-08-13T18:53:26.034767Z</creationTime>
      </creationInfo>
    </pick>
    <pick publicID="20191229.180757.13-AIC-CM.ORTC.00.HHE">
      <time>
        <value>2019-12-29T18:07:57.130000Z</value>
      </time>
      <waveformID networkCode="CM" stationCode="ORTC" locationCode="00" channelCode="HHE"/>
      <filterID>BW(4,1.00,10.00)</filterID>
      <methodID>AIC</methodID>
      <phaseHint>P</phaseHint>
      <evaluationMode>automatic</evaluationMode>
      <creationInfo>
        <agencyID>SGC2</agencyID>
        <author>PhaseNet</author>
        <creationTime>2020-08-13T18:53:26.034988Z</creationTime>
      </creationInfo>
    </pick>
    <pick publicID="20191229.180731.93-S-L2-CM.URMC.00.HHE">
      <time>
        <value>2019-12-29T18:07:31.930000Z</value>
      </time>
      <waveformID networkCode="CM" stationCode="URMC" locationCode="00" channelCode="HHE"/>
      <filterID>BW(4,1.00,10.00)</filterID>
      <methodID>L2-AIC</methodID>
      <phaseHint>S</phaseHint>
      <evaluationMode>automatic</evaluationMode>
      <creationInfo>
        <agencyID>SGC2</agencyID>
        <author>PhaseNet</author>
        <creationTime>2020-08-13T18:53:26.035203Z</creationTime>
      </creationInfo>
      <comment>
        <text>20191229.180728.52-AIC-CM.URMC.00.HHE</text>
        <id>RefPickID</id>
      </comment>
    </pick>
    <pick publicID="20191229.180702.47-AIC-CM.TAPM.00.HHE">
      <time>
        <value>2019-12-29T18:07:02.470000Z</value>
      </time>
      <waveformID networkCode="CM" stationCode="TAPM" locationCode="00" channelCode="HHE"/>
      <filterID>BW(4,1.00,10.00)</filterID>
      <methodID>AIC</methodID>
      <phaseHint>P</phaseHint>
      <evaluationMode>automatic</evaluationMode>
      <creationInfo>
        <agencyID>SGC2</agencyID>
        <author>PhaseNet</author>
        <creationTime>2020-08-13T18:53:26.035458Z</creationTime>
      </creationInfo>
    </pick>
    <pick publicID="20191229.180722.47-AIC-CM.TAPM.00.HHE">
      <time>
        <value>2019-12-29T18:07:22.470000Z</value>
      </time>
      <waveformID networkCode="CM" stationCode="TAPM" locationCode="00" channelCode="HHE"/>
      <filterID>BW(4,1.00,10.00)</filterID>
      <methodID>AIC</methodID>
      <phaseHint>P</phaseHint>
      <evaluationMode>automatic</evaluationMode>
      <creationInfo>
        <agencyID>SGC2</agencyID>
        <author>PhaseNet</author>
        <creationTime>2020-08-13T18:53:26.035600Z</creationTime>
      </creationInfo>
    </pick>
    <pick publicID="20191229.180724.05-S-L2-CM.TAPM.00.HHE">
      <time>
        <value>2019-12-29T18:07:24.050000Z</value>
      </time>
      <waveformID networkCode="CM" stationCode="TAPM" locationCode="00" channelCode="HHE"/>
      <filterID>BW(4,1.00,10.00)</filterID>
      <methodID>L2-AIC</methodID>
      <phaseHint>S</phaseHint>
      <evaluationMode>automatic</evaluationMode>
      <creationInfo>
        <agencyID>SGC2</agencyID>
        <author>PhaseNet</author>
